$GPGGA,221927.00,,,,,0,00,,,M,,M,,*45
$GPGGA,221928.00,,,,,0,00,,,M,,M,,*4A
$GPGGA,221929.00,,,,,0,00,,,M,,M,,*4B
$GPGGA,221930.00,,,,,0,00,,,M,,M,,*43
$GPGGA,221931.00,,,,,0,00,,,M,,M,,*42
$GPGGA,221932.00,,,,,0,00,,,M,,M,,*41
$GPGGA,221933.00,,,,,0,00,,,M,,M,,*40
$GPGGA,221934.00,,,,,0,00,,,M,,M,,*47
$GPGGA,221935.00,,,,,0,00,,,M,,M,,*46
$GPGGA,221936.00,,,,,0,00,,,M,,M,,*45
$GPGGA,221937.00,,,,,0,00,,,M,,M,,*44
$GPGGA,221938.00,,,,,0,00,,,M,,M,,*4B
$GPGGA,221939.00,,,,,0,00,,,M,,M,,*4A
$GPGGA,221940.00,,,,,0,00,,,M,,M,,*44
$GPGGA,221941.00,,,,,0,00,,,M,,M,,*45
$GPGGA,221942.00,,,,,0,00,,,M,,M,,*46
$GPGGA,221943.00,,,,,0,00,,,M,,M,,*47
$GPGGA,221944.00,,,,,0,00,,,M,,M,,*40
$GPGGA,221945.00,,,,,0,00,,,M,,M,,*41
$GPGGA,221946.00,,,,,0,00,,,M,,M,,*42
$GPGGA,221947.00,,,,,0,00,,,M,,M,,*43
$GPGGA,221948.00,,,,,0,00,,,M,,M,,*4C
$GPGGA,221949.00,,,,,0,00,,,M,,M,,*4D
$GPGGA,221950.00,,,,,0,00,,,M,,M,,*45
$GPGGA,221951.00,,,,,0,00,,,M,,M,,*44
$GPGGA,221952.00,,,,,0,00,,,M,,M,,*47
$GPGGA,221953.00,,,,,0,00,,,M,,M,,*46
$GPGGA,221954.00,,,,,0,00,,,M,,M,,*41
$GPGGA,221955.00,4737.2332374,N,12220.2711931,W,1,07,2.3,72.2852,M,-17.3276,M,,*69
$GPGGA,221956.00,4737.2339812,N,12220.2650160,W,1,07,2.3,55.2443,M,-17.3275,M,,*68
$GPGGA,221957.00,4737.2343641,N,12220.2630391,W,1,07,2.3,49.3190,M,-17.3275,M,,*61
$GPGGA,221958.00,4737.2344790,N,12220.2625309,W,1,07,2.3,47.8192,M,-17.3275,M,,*66
$GPGGA,221959.00,4737.2345207,N,12220.2622685,W,1,07,2.3,47.0814,M,-17.3275,M,,*64
$GPGGA,222000.00,4737.2345349,N,12220.2621108,W,1,07,2.3,46.4840,M,-17.3275,M,,*6C
$GPGGA,222001.00,4737.2345659,N,12220.2620594,W,1,07,2.3,46.1896,M,-17.3275,M,,*67
$GPGGA,222002.00,4737.2345928,N,12220.2620644,W,1,07,2.3,45.9247,M,-17.3275,M,,*6E
$GPGGA,222003.00,4737.2346212,N,12220.2620810,W,1,07,2.3,45.5475,M,-17.3275,M,,*6A
$GPGGA,222004.00,4737.2346422,N,12220.2620919,W,1,07,2.3,45.0757,M,-17.3275,M,,*66
$GPGGA,222005.00,4737.2346861,N,12220.2621149,W,1,07,2.3,44.7227,M,-17.3275,M,,*64
$GPGGA,222006.00,4737.2347380,N,12220.2621430,W,1,07,2.3,44.4308,M,-17.3275,M,,*66
$GPGGA,222007.00,4737.2347757,N,12220.2621983,W,1,07,2.3,44.1933,M,-17.3275,M,,*6B
$GPGGA,222008.00,4737.2348027,N,12220.2622684,W,1,07,2.3,44.0085,M,-17.3275,M,,*65
$GPGGA,222009.00,4737.2348482,N,12220.2622625,W,1,11,1.2,43.9885,M,-17.3275,M,,*67
$GPGGA,222010.00,4737.2349218,N,12220.2621891,W,1,11,1.2,44.1258,M,-17.3275,M,,*6C
$GPGGA,222011.00,4737.2350075,N,12220.2620912,W,1,11,1.2,44.3265,M,-17.3275,M,,*6B
$GPGGA,222012.00,4737.2350808,N,12220.2619599,W,1,10,1.3,44.3910,M,-17.3275,M,,*66
$GPGGA,222013.00,4737.2351194,N,12220.2618507,W,1,10,1.3,44.1823,M,-17.3275,M,,*6F
$GPGGA,222014.00,4737.2351599,N,12220.2617956,W,1,10,1.3,44.0326,M,-17.3275,M,,*69
$GPGGA,222015.00,4737.2351948,N,12220.2617619,W,1,10,1.3,43.8575,M,-17.3275,M,,*63
$GPGGA,222016.00,4737.2352207,N,12220.2617448,W,1,10,1.3,43.7134,M,-17.3275,M,,*6B
$GPGGA,222017.00,4737.2352407,N,12220.2617396,W,1,10,1.3,43.5635,M,-17.3275,M,,*6C
$GPGGA,222018.00,4737.2352612,N,12220.2617496,W,1,10,1.3,43.3980,M,-17.3275,M,,*65
$GPGGA,222019.00,4737.2352916,N,12220.2617788,W,1,10,1.3,43.2750,M,-17.3275,M,,*61
$GPGGA,222020.00,4737.2353216,N,12220.2618285,W,1,10,1.3,43.1886,M,-17.3275,M,,*61
$GPGGA,222021.00,4737.2353463,N,12220.2619020,W,1,10,1.3,43.1141,M,-17.3275,M,,*6A
$GPGGA,222022.00,4737.2353663,N,12220.2619905,W,1,10,1.3,43.0678,M,-17.3275,M,,*69
$GPGGA,222023.00,4737.2353916,N,12220.2620920,W,1,10,1.3,43.0651,M,-17.3275,M,,*63
$GPGGA,222024.00,4737.2354270,N,12220.2621620,W,1,09,2.0,43.0043,M,-17.3275,M,,*6B
$GPGGA,222025.00,4737.2354646,N,12220.2621865,W,1,10,1.3,43.1793,M,-17.3275,M,,*67
$GPGGA,222026.00,4737.2354943,N,12220.2621103,W,1,09,1.4,43.0877,M,-17.3275,M,,*6C
$GPGGA,222027.00,4737.2356648,N,12220.2619798,W,1,09,1.6,43.4010,M,-17.3275,M,,*6B
$GPGGA,222028.00,4737.2359537,N,12220.2617443,W,1,09,1.4,44.1395,M,-17.3275,M,,*65
$GPGGA,222029.00,4737.2359858,N,12220.2617163,W,1,11,1.2,44.7509,M,-17.3275,M,,*6D
$GPGGA,222030.00,4737.2358904,N,12220.2615417,W,1,09,1.4,44.7958,M,-17.3275,M,,*6F
$GPGGA,222031.00,,,,,0,00,11.1,,M,,M,,*57
$GPGGA,222032.00,4737.2363736,N,12220.2612166,W,1,07,5.8,45.6263,M,-17.3275,M,,*6B
$GPGGA,222033.00,4737.2363095,N,12220.2606823,W,1,09,2.2,45.0525,M,-17.3275,M,,*69
$GPGGA,222034.00,4737.2360089,N,12220.2599453,W,1,09,1.5,45.1891,M,-17.3275,M,,*69
$GPGGA,222035.00,4737.2359382,N,12220.2592627,W,1,07,3.7,46.4099,M,-17.3275,M,,*68
$GPGGA,222036.00,4737.2356983,N,12220.2591489,W,1,10,1.3,46.8587,M,-17.3275,M,,*6C
$GPGGA,222037.00,4737.2357100,N,12220.2590069,W,1,09,1.4,47.6880,M,-17.3275,M,,*6E
$GPGGA,222038.00,4737.2357411,N,12220.2584369,W,1,09,1.8,49.1417,M,-17.3275,M,,*65
$GPGGA,222039.00,,,,,0,00,,,M,,M,,*40
$GPGGA,222040.00,4737.2370517,N,12220.2468019,W,1,10,1.3,81.6954,M,-17.3273,M,,*63
$GPGGA,222041.00,4737.2373856,N,12220.2470548,W,1,10,1.3,82.1764,M,-17.3273,M,,*68
$GPGGA,222042.00,4737.2374950,N,12220.2474127,W,1,11,1.3,81.4678,M,-17.3273,M,,*69
$GPGGA,222043.00,4737.2369826,N,12220.2471731,W,1,11,1.3,81.9786,M,-17.3274,M,,*6A
$GPGGA,222044.00,4737.2359200,N,12220.2463128,W,1,10,1.3,82.4758,M,-17.3274,M,,*61
$GPGGA,222045.00,4737.2345163,N,12220.2453915,W,1,10,1.2,82.7422,M,-17.3274,M,,*62
$GPGGA,222046.00,4737.2333034,N,12220.2446623,W,1,11,1.2,82.7169,M,-17.3274,M,,*66
$GPGGA,222047.00,4737.2323253,N,12220.2442437,W,1,11,1.2,81.8723,M,-17.3274,M,,*62
$GPGGA,222048.00,4737.2312197,N,12220.2440724,W,1,12,1.1,81.3087,M,-17.3274,M,,*65
$GPGGA,222049.00,4737.2297475,N,12220.2440546,W,1,11,1.1,81.2521,M,-17.3274,M,,*6C
$GPGGA,222050.00,4737.2286904,N,12220.2438587,W,1,11,1.1,80.7895,M,-17.3274,M,,*6B
$GPGGA,222051.00,4737.2279757,N,12220.2436214,W,1,11,1.1,80.1427,M,-17.3274,M,,*62
$GPGGA,222052.00,4737.2274948,N,12220.2434239,W,1,10,1.3,79.4809,M,-17.3274,M,,*61
$GPGGA,222053.00,4737.2271528,N,12220.2432831,W,1,10,1.3,78.9052,M,-17.3274,M,,*61
$GPGGA,222054.00,4737.2269345,N,12220.2431896,W,1,10,1.3,78.4024,M,-17.3274,M,,*60
$GPGGA,222055.00,4737.2268310,N,12220.2431506,W,1,10,1.3,77.9931,M,-17.3274,M,,*6B
$GPGGA,222056.00,4737.2267910,N,12220.2431436,W,1,09,1.3,77.6549,M,-17.3274,M,,*6B
$GPGGA,222057.00,4737.2260222,N,12220.2412538,W,1,11,1.2,74.3757,M,-17.3274,M,,*6A
$GPGGA,222058.00,4737.2247154,N,12220.2379417,W,1,11,1.2,68.9459,M,-17.3274,M,,*6E
$GPGGA,222059.00,4737.2243491,N,12220.2368519,W,1,11,1.2,67.0483,M,-17.3274,M,,*69
$GPGGA,222100.00,4737.2242087,N,12220.2363666,W,1,11,1.2,66.0807,M,-17.3274,M,,*67
$GPGGA,222101.00,4737.2241241,N,12220.2360359,W,1,11,1.2,65.3786,M,-17.3274,M,,*61
$GPGGA,222102.00,4737.2241162,N,12220.2358378,W,1,11,1.2,64.8613,M,-17.3274,M,,*6F
$GPGGA,222103.00,4737.2241172,N,12220.2356695,W,1,11,1.2,64.3917,M,-17.3274,M,,*67
$GPGGA,222104.00,4737.2241068,N,12220.2355448,W,1,10,1.3,63.9323,M,-17.3274,M,,*6B
$GPGGA,222105.00,4737.2240983,N,12220.2354742,W,1,10,1.3,63.6098,M,-17.3274,M,,*63
$GPGGA,222106.00,4737.2241011,N,12220.2354400,W,1,10,1.3,63.3810,M,-17.3274,M,,*6B
$GPGGA,222107.00,4737.2241104,N,12220.2354319,W,1,10,1.3,63.2158,M,-17.3274,M,,*64
$GPGGA,222108.00,4737.2241133,N,12220.2354178,W,1,10,1.3,63.1182,M,-17.3274,M,,*6E
$GPGGA,222109.00,4737.2241161,N,12220.2354140,W,1,11,1.2,62.9738,M,-17.3274,M,,*6D
$GPGGA,222110.00,4737.2241212,N,12220.2354158,W,1,11,1.2,62.8197,M,-17.3274,M,,*69
$GPGGA,222111.00,4737.2241271,N,12220.2354126,W,1,11,1.2,62.6882,M,-17.3274,M,,*67
$GPGGA,222112.00,4737.2241373,N,12220.2354211,W,1,11,1.2,62.5719,M,-17.3274,M,,*6E
$GPGGA,222113.00,4737.2241589,N,12220.2354537,W,1,11,1.2,62.4923,M,-17.3274,M,,*69
$GPGGA,222114.00,4737.2241881,N,12220.2355119,W,1,11,1.2,62.4540,M,-17.3274,M,,*6B
$GPGGA,222115.00,4737.2242209,N,12220.2355864,W,1,11,1.2,62.4431,M,-17.3274,M,,*67
$GPGGA,222116.00,4737.2242491,N,12220.2356522,W,1,11,1.2,62.4463,M,-17.3274,M,,*68
$GPGGA,222117.00,4737.2242744,N,12220.2357139,W,1,11,1.2,62.4333,M,-17.3274,M,,*6F
$GPGGA,222118.00,4737.2243092,N,12220.2357629,W,1,11,1.2,62.3839,M,-17.3274,M,,*6D
$GPGGA,222119.00,4737.2243383,N,12220.2358042,W,1,12,1.1,62.3142,M,-17.3274,M,,*6E
$GPGGA,222120.00,4737.2243569,N,12220.2358562,W,1,12,1.1,62.2503,M,-17.3274,M,,*61
$GPGGA,222121.00,4737.2243845,N,12220.2358994,W,1,12,1.1,62.1922,M,-17.3274,M,,*6A
$GPGGA,222122.00,4737.2244039,N,12220.2359461,W,1,12,1.1,62.1211,M,-17.3274,M,,*60
$GPGGA,222123.00,4737.2244143,N,12220.2359970,W,1,12,1.1,62.0680,M,-17.3274,M,,*6D
$GPGGA,222124.00,4737.2244143,N,12220.2360641,W,1,12,1.1,62.0157,M,-17.3274,M,,*60
$GPGGA,222125.00,4737.2243957,N,12220.2361303,W,1,12,1.1,61.9545,M,-17.3274,M,,*64
$GPGGA,222126.00,4737.2243768,N,12220.2361862,W,1,12,1.1,61.8785,M,-17.3274,M,,*66
$GPGGA,222127.00,4737.2243510,N,12220.2362295,W,1,12,1.1,61.7680,M,-17.3274,M,,*60
$GPGGA,222128.00,4737.2243195,N,12220.2362685,W,1,12,1.1,61.6219,M,-17.3274,M,,*66
$GPGGA,222129.00,4737.2242840,N,12220.2362947,W,1,12,1.1,61.5265,M,-17.3274,M,,*6E
$GPGGA,222130.00,4737.2242446,N,12220.2363159,W,1,12,1.1,61.4640,M,-17.3274,M,,*68
$GPGGA,222131.00,4737.2242042,N,12220.2363256,W,1,12,1.1,61.3890,M,-17.3274,M,,*61
$GPGGA,222132.00,4737.2241706,N,12220.2363412,W,1,11,1.2,61.3237,M,-17.3274,M,,*67
$GPGGA,222133.00,4737.2241419,N,12220.2363601,W,1,11,1.2,61.2282,M,-17.3274,M,,*64
$GPGGA,222134.00,4737.2241168,N,12220.2363780,W,1,11,1.2,61.1487,M,-17.3274,M,,*68
$GPGGA,222135.00,4737.2240978,N,12220.2363672,W,1,13,1.0,61.0281,M,-17.3274,M,,*6C
$GPGGA,222136.00,4737.2240802,N,12220.2363494,W,1,13,1.0,60.8897,M,-17.3274,M,,*6D
$GPGGA,222137.00,4737.2240733,N,12220.2363488,W,1,12,1.2,60.7306,M,-17.3274,M,,*63
$GPGGA,222138.00,4737.2240486,N,12220.2363572,W,1,12,1.2,60.5914,M,-17.3274,M,,*6E
$GPGGA,222139.00,4737.2240255,N,12220.2363450,W,1,12,1.2,60.5575,M,-17.3274,M,,*6D
$GPGGA,222140.00,4737.2240123,N,12220.2363202,W,1,12,1.2,60.5575,M,-17.3274,M,,*60
$GPGGA,222141.00,4737.2240122,N,12220.2362924,W,1,12,1.2,60.5897,M,-17.3274,M,,*6F
$GPGGA,222142.00,4737.2240028,N,12220.2362757,W,1,12,1.2,60.6023,M,-17.3274,M,,*69
$GPGGA,222143.00,4737.2240043,N,12220.2362592,W,1,12,1.2,60.6335,M,-17.3274,M,,*6A
$GPGGA,222144.00,4737.2239945,N,12220.2362402,W,1,12,1.2,60.6413,M,-17.3274,M,,*67
$GPGGA,222145.00,4737.2239806,N,12220.2362296,W,1,12,1.2,60.6458,M,-17.3274,M,,*64
$GPGGA,222146.00,4737.2239604,N,12220.2362182,W,1,12,1.2,60.6605,M,-17.3274,M,,*67
$GPGGA,222147.00,4737.2239394,N,12220.2362194,W,1,12,1.2,60.6903,M,-17.3274,M,,*64
$GPGGA,222148.00,4737.2239169,N,12220.2362320,W,1,12,1.2,60.7479,M,-17.3274,M,,*67
$GPGGA,222149.00,4737.2238942,N,12220.2362553,W,1,12,1.2,60.8304,M,-17.3274,M,,*66
$GPGGA,222150.00,4737.2238588,N,12220.2362884,W,1,12,1.2,60.8790,M,-17.3274,M,,*6A
$GPGGA,222151.00,4737.2238379,N,12220.2363520,W,1,12,1.2,60.8317,M,-17.3274,M,,*6A
$GPGGA,222152.00,4737.2238227,N,12220.2364140,W,1,12,1.2,60.7479,M,-17.3274,M,,*66
$GPGGA,222153.00,4737.2238248,N,12220.2364962,W,1,12,1.2,60.4474,M,-17.3274,M,,*68
$GPGGA,222154.00,4737.2238349,N,12220.2366067,W,1,12,1.2,59.9955,M,-17.3274,M,,*68
$GPGGA,222155.00,4737.2239001,N,12220.2368136,W,1,12,1.2,59.0654,M,-17.3274,M,,*6B
$GPGGA,222156.00,4737.2239585,N,12220.2370908,W,1,12,1.2,58.0952,M,-17.3274,M,,*65
$GPGGA,222157.00,4737.2240077,N,12220.2373668,W,1,12,1.2,57.3138,M,-17.3274,M,,*60
$GPGGA,222158.00,4737.2240492,N,12220.2376785,W,1,13,1.0,56.4789,M,-17.3274,M,,*6E
$GPGGA,222159.00,4737.2240733,N,12220.2379486,W,1,13,1.0,55.7456,M,-17.3274,M,,*69
$GPGGA,222200.00,4737.2240895,N,12220.2381637,W,1,12,1.1,55.0880,M,-17.3274,M,,*6A
$GPGGA,222201.00,4737.2240780,N,12220.2382782,W,1,12,1.1,54.6274,M,-17.3274,M,,*6A
$GPGGA,222202.00,4737.2240749,N,12220.2383712,W,1,12,1.1,54.2367,M,-17.3274,M,,*63
$GPGGA,222203.00,4737.2240731,N,12220.2384474,W,1,12,1.1,53.8180,M,-17.3274,M,,*6F
$GPGGA,222204.00,4737.2240755,N,12220.2385149,W,1,12,1.1,53.4113,M,-17.3274,M,,*66
$GPGGA,222205.00,4737.2240718,N,12220.2385744,W,1,12,1.1,52.9990,M,-17.3274,M,,*6A
$GPGGA,222206.00,4737.2240834,N,12220.2386285,W,1,11,1.2,52.6367,M,-17.3274,M,,*6E
$GPGGA,222207.00,4737.2240911,N,12220.2387284,W,1,11,1.2,52.1458,M,-17.3274,M,,*65
$GPGGA,222208.00,4737.2240871,N,12220.2387780,W,1,11,1.2,51.7091,M,-17.3274,M,,*68
$GPGGA,222209.00,4737.2240799,N,12220.2387993,W,1,11,1.2,51.3268,M,-17.3274,M,,*6C
$GPGGA,222210.00,4737.2240670,N,12220.2388178,W,1,11,1.2,50.9804,M,-17.3274,M,,*6B
$GPGGA,222211.00,4737.2240681,N,12220.2388219,W,1,12,1.1,50.7056,M,-17.3274,M,,*61
$GPGGA,222212.00,4737.2240712,N,12220.2388070,W,1,12,1.1,50.4924,M,-17.3274,M,,*6B
$GPGGA,222213.00,4737.2240837,N,12220.2388269,W,1,12,1.1,50.2405,M,-17.3274,M,,*60
$GPGGA,222214.00,4737.2240940,N,12220.2388350,W,1,12,1.1,50.0344,M,-17.3274,M,,*6D
$GPGGA,222215.00,4737.2240946,N,12220.2388315,W,1,11,1.1,49.8742,M,-17.3274,M,,*6A
$GPGGA,222216.00,4737.2240968,N,12220.2388322,W,1,12,1.1,49.7415,M,-17.3274,M,,*6C
$GPGGA,222217.00,4737.2240911,N,12220.2388206,W,1,11,1.1,49.6701,M,-17.3274,M,,*60
$GPGGA,222218.00,4737.2240726,N,12220.2387826,W,1,12,1.1,49.6695,M,-17.3274,M,,*6D
$GPGGA,222219.00,4737.2240705,N,12220.2387886,W,1,11,1.1,49.5942,M,-17.3274,M,,*62
$GPGGA,222220.00,4737.2240652,N,12220.2388064,W,1,11,1.1,49.7035,M,-17.3274,M,,*6B
$GPGGA,222221.00,4737.2240377,N,12220.2388709,W,1,11,1.1,49.8905,M,-17.3274,M,,*61
$GPGGA,222222.00,,,,,0,00,,,M,,M,,*48
$GPGGA,222223.00,4737.2279097,N,12220.2686774,W,1,13,1.0,160.8644,M,-17.3276,M,,*54
$GPGGA,222224.00,4737.2290190,N,12220.2702172,W,1,13,1.0,163.6995,M,-17.3276,M,,*51
$GPGGA,222225.00,4737.2295908,N,12220.2710552,W,1,13,1.0,165.2718,M,-17.3276,M,,*50
$GPGGA,222226.00,4737.2299253,N,12220.2714637,W,1,13,1.0,166.0787,M,-17.3276,M,,*59
$GPGGA,222227.00,4737.2301593,N,12220.2717181,W,1,13,1.0,166.5880,M,-17.3276,M,,*57
$GPGGA,222228.00,4737.2303318,N,12220.2719152,W,1,13,1.0,166.8164,M,-17.3276,M,,*51
$GPGGA,222229.00,4737.2304711,N,12220.2720776,W,1,13,1.0,167.0685,M,-17.3276,M,,*51
$GPGGA,222230.00,4737.2305531,N,12220.2722185,W,1,13,1.0,167.2313,M,-17.3276,M,,*58
$GPGGA,222231.00,4737.2306012,N,12220.2723167,W,1,12,1.1,167.2174,M,-17.3276,M,,*50
$GPGGA,222232.00,4737.2306482,N,12220.2723812,W,1,12,1.1,167.2255,M,-17.3276,M,,*55
$GPGGA,222233.00,4737.2306822,N,12220.2723703,W,1,12,1.1,167.0926,M,-17.3276,M,,*50
$GPGGA,222234.00,4737.2307298,N,12220.2723798,W,1,12,1.1,166.8590,M,-17.3276,M,,*57
$GPGGA,222235.00,4737.2307754,N,12220.2723732,W,1,12,1.1,166.6379,M,-17.3276,M,,*5C
$GPGGA,222236.00,4737.2308150,N,12220.2723489,W,1,12,1.1,166.4512,M,-17.3276,M,,*58
$GPGGA,222237.00,4737.2306903,N,12220.2721823,W,1,12,1.1,165.7291,M,-17.3276,M,,*5B
$GPGGA,222238.00,4737.2305209,N,12220.2720089,W,1,12,1.1,164.7448,M,-17.3276,M,,*5C
$GPGGA,222239.00,4737.2305141,N,12220.2720877,W,1,12,1.0,164.1257,M,-17.3276,M,,*54
$GPGGA,222240.00,4737.2305776,N,12220.2722638,W,1,12,1.0,163.5969,M,-17.3276,M,,*5A
$GPGGA,222241.00,4737.2307614,N,12220.2725112,W,1,11,1.1,163.4031,M,-17.3276,M,,*53
$GPGGA,222242.00,4737.2309674,N,12220.2727452,W,1,11,1.1,163.3313,M,-17.3276,M,,*5F
$GPGGA,222243.00,4737.2311525,N,12220.2729488,W,1,11,1.1,163.2201,M,-17.3276,M,,*5A
$GPGGA,222244.00,4737.2314501,N,12220.2733389,W,1,12,1.1,163.4154,M,-17.3276,M,,*55
$GPGGA,222245.00,4737.2321859,N,12220.2743982,W,1,12,1.1,164.8185,M,-17.3276,M,,*53
$GPGGA,222246.00,4737.2329212,N,12220.2754281,W,1,11,1.2,166.1860,M,-17.3276,M,,*5A
$GPGGA,222247.00,4737.2334945,N,12220.2761713,W,1,12,1.1,167.1465,M,-17.3276,M,,*5E
$GPGGA,222248.00,4737.2340045,N,12220.2767914,W,1,12,1.1,167.9916,M,-17.3276,M,,*55
$GPGGA,222249.00,4737.2344956,N,12220.2773427,W,1,12,1.1,168.8899,M,-17.3276,M,,*5B
$GPGGA,222250.00,4737.2349244,N,12220.2777741,W,1,12,1.1,169.5480,M,-17.3276,M,,*59
$GPGGA,222251.00,4737.2352143,N,12220.2780570,W,1,12,1.1,169.9212,M,-17.3276,M,,*5F
$GPGGA,222252.00,4737.2353491,N,12220.2783810,W,1,12,1.2,170.0714,M,-17.3276,M,,*5E
$GPGGA,222253.00,4737.2354540,N,12220.2786764,W,1,11,1.2,170.2078,M,-17.3276,M,,*50
$GPGGA,222254.00,4737.2355252,N,12220.2788999,W,1,12,1.2,170.2418,M,-17.3276,M,,*51
$GPGGA,222255.00,4737.2355873,N,12220.2791225,W,1,12,1.2,170.1543,M,-17.3276,M,,*51
$GPGGA,222256.00,4737.2356496,N,12220.2793342,W,1,12,1.2,170.0257,M,-17.3276,M,,*57
$GPGGA,222257.00,4737.2357189,N,12220.2795342,W,1,12,1.2,169.8670,M,-17.3276,M,,*5B
$GPGGA,222258.00,4737.2357725,N,12220.2797111,W,1,12,1.2,169.6531,M,-17.3276,M,,*5A
$GPGGA,222259.00,4737.2358351,N,12220.2798931,W,1,12,1.2,169.4327,M,-17.3276,M,,*55
$GPGGA,222300.00,4737.2358717,N,12220.2800241,W,1,11,1.2,169.0896,M,-17.3276,M,,*5A
$GPGGA,222301.00,4737.2358940,N,12220.2800194,W,1,11,1.2,168.6071,M,-17.3276,M,,*5A
$GPGGA,222302.00,4737.2359371,N,12220.2800248,W,1,12,1.1,168.1532,M,-17.3276,M,,*57
$GPGGA,222303.00,4737.2360082,N,12220.2800520,W,1,12,1.1,167.7763,M,-17.3276,M,,*55
$GPGGA,222304.00,4737.2360860,N,12220.2800855,W,1,12,1.1,167.4535,M,-17.3276,M,,*5B
$GPGGA,222305.00,4737.2361453,N,12220.2800917,W,1,11,1.2,167.1236,M,-17.3276,M,,*51
$GPGGA,222306.00,4737.2362644,N,12220.2801549,W,1,11,1.2,166.8078,M,-17.3276,M,,*53
$GPGGA,222307.00,4737.2364126,N,12220.2801858,W,1,12,1.1,166.4966,M,-17.3276,M,,*50
$GPGGA,222308.00,4737.2365607,N,12220.2802380,W,1,11,1.3,166.2479,M,-17.3276,M,,*53
$GPGGA,222309.00,4737.2367176,N,12220.2803134,W,1,12,1.1,166.0300,M,-17.3276,M,,*57
$GPGGA,222310.00,4737.2368399,N,12220.2803612,W,1,12,1.1,165.8630,M,-17.3276,M,,*5D
$GPGGA,222311.00,4737.2369526,N,12220.2803339,W,1,11,1.2,165.6225,M,-17.3276,M,,*5D
$GPGGA,222312.00,4737.2370178,N,12220.2802915,W,1,11,1.3,165.5001,M,-17.3276,M,,*5A
$GPGGA,222313.00,4737.2370658,N,12220.2801764,W,1,11,1.3,165.2530,M,-17.3276,M,,*55
$GPGGA,222314.00,4737.2371561,N,12220.2800545,W,1,10,2.0,164.9513,M,-17.3276,M,,*50
$GPGGA,222315.00,4737.2372112,N,12220.2800226,W,1,11,1.2,164.7666,M,-17.3276,M,,*5F
$GPGGA,222316.00,4737.2372211,N,12220.2799937,W,1,11,1.2,164.5352,M,-17.3276,M,,*58
$GPGGA,222317.00,4737.2371646,N,12220.2799484,W,1,11,1.2,164.3242,M,-17.3276,M,,*5F
$GPGGA,222318.00,4737.2371346,N,12220.2798712,W,1,11,1.3,163.9914,M,-17.3276,M,,*5C
$GPGGA,222319.00,4737.2371366,N,12220.2798130,W,1,11,1.3,163.3142,M,-17.3276,M,,*58
$GPGGA,222320.00,4737.2370887,N,12220.2795872,W,1,11,1.2,162.9538,M,-17.3276,M,,*56
$GPGGA,222321.00,4737.2370047,N,12220.2793153,W,1,12,1.1,162.6330,M,-17.3276,M,,*5E
$GPGGA,222322.00,4737.2368790,N,12220.2790348,W,1,12,1.3,162.3669,M,-17.3276,M,,*5C
$GPGGA,222323.00,4737.2367657,N,12220.2787775,W,1,12,1.1,162.0345,M,-17.3276,M,,*5E
$GPGGA,222324.00,4737.2366634,N,12220.2785603,W,1,12,1.3,161.7828,M,-17.3276,M,,*59
$GPGGA,222325.00,4737.2365533,N,12220.2783759,W,1,11,1.2,161.5119,M,-17.3276,M,,*5C
$GPGGA,222326.00,4737.2364671,N,12220.2782278,W,1,12,1.1,161.2129,M,-17.3276,M,,*58
$GPGGA,222327.00,4737.2364240,N,12220.2781579,W,1,12,1.1,160.7723,M,-17.3276,M,,*52
$GPGGA,222328.00,4737.2363427,N,12220.2780743,W,1,11,1.2,160.4557,M,-17.3276,M,,*55
$GPGGA,222329.00,4737.2362496,N,12220.2779817,W,1,12,1.1,160.1937,M,-17.3276,M,,*58
$GPGGA,222330.00,4737.2361432,N,12220.2778843,W,1,11,1.3,159.8909,M,-17.3276,M,,*52
$GPGGA,222331.00,4737.2360344,N,12220.2778038,W,1,11,1.3,159.6084,M,-17.3276,M,,*52
$GPGGA,222332.00,4737.2359230,N,12220.2777488,W,1,11,1.2,159.3466,M,-17.3276,M,,*55
$GPGGA,222333.00,4737.2358271,N,12220.2777059,W,1,11,1.2,159.0665,M,-17.3276,M,,*5A
$GPGGA,222334.00,4737.2357298,N,12220.2776592,W,1,11,1.2,158.7966,M,-17.3276,M,,*5C
$GPGGA,222335.00,4737.2356404,N,12220.2776184,W,1,11,1.2,158.5564,M,-17.3276,M,,*50
$GPGGA,222336.00,4737.2355964,N,12220.2775993,W,1,10,1.7,158.1527,M,-17.3276,M,,*51
$GPGGA,222337.00,4737.2355288,N,12220.2775908,W,1,10,1.4,157.8047,M,-17.3276,M,,*5D
$GPGGA,222338.00,4737.2355602,N,12220.2774781,W,1,13,1.1,157.5289,M,-17.3276,M,,*51
$GPGGA,222339.00,4737.2358254,N,12220.2771399,W,1,13,1.1,157.4039,M,-17.3276,M,,*5A
$GPGGA,222340.00,4737.2360130,N,12220.2768682,W,1,13,1.0,157.3017,M,-17.3276,M,,*53
$GPGGA,222341.00,4737.2361068,N,12220.2766997,W,1,13,1.1,157.2460,M,-17.3276,M,,*5E
$GPGGA,222342.00,4737.2361363,N,12220.2765915,W,1,13,1.0,157.2445,M,-17.3276,M,,*5A
$GPGGA,222343.00,4737.2361616,N,12220.2764365,W,1,13,1.0,157.2353,M,-17.3276,M,,*50
$GPGGA,222344.00,4737.2361699,N,12220.2762938,W,1,13,1.1,157.2987,M,-17.3276,M,,*56
$GPGGA,222345.00,4737.2361645,N,12220.2761404,W,1,13,1.1,157.3724,M,-17.3276,M,,*51
$GPGGA,222346.00,4737.2361636,N,12220.2759878,W,1,12,1.3,157.3806,M,-17.3276,M,,*56
$GPGGA,222347.00,4737.2361767,N,12220.2758309,W,1,12,1.1,157.3888,M,-17.3276,M,,*5A
$GPGGA,222348.00,4737.2362023,N,12220.2756557,W,1,12,1.1,157.3798,M,-17.3276,M,,*5C
$GPGGA,222349.00,,,,,0,00,,,M,,M,,*44
$GPGGA,222350.00,4737.2408427,N,12220.2720382,W,1,15,0.9,85.6684,M,-17.3275,M,,*6B
$GPGGA,222351.00,4737.2407351,N,12220.2718161,W,1,14,1.0,85.8731,M,-17.3275,M,,*6F
$GPGGA,222352.00,4737.2407256,N,12220.2714504,W,1,15,0.9,85.2931,M,-17.3275,M,,*6C
$GPGGA,222353.00,4737.2406866,N,12220.2710767,W,1,15,0.9,84.9079,M,-17.3275,M,,*69
$GPGGA,222354.00,4737.2405560,N,12220.2706615,W,1,15,0.9,85.1705,M,-17.3275,M,,*60
$GPGGA,222355.00,4737.2404973,N,12220.2702799,W,1,15,0.9,84.5740,M,-17.3275,M,,*6B
$GPGGA,222356.00,4737.2404677,N,12220.2699471,W,1,14,1.0,83.7319,M,-17.3275,M,,*61
$GPGGA,222357.00,4737.2404193,N,12220.2696196,W,1,15,0.9,82.9507,M,-17.3275,M,,*61
$GPGGA,222358.00,4737.2403524,N,12220.2693150,W,1,15,0.9,82.1220,M,-17.3275,M,,*64
$GPGGA,222359.00,4737.2402605,N,12220.2690264,W,1,15,0.9,81.3380,M,-17.3275,M,,*69
$GPGGA,222400.00,4737.2401651,N,12220.2687829,W,1,15,0.9,80.5676,M,-17.3275,M,,*6E
$GPGGA,222401.00,4737.2400755,N,12220.2685688,W,1,14,1.0,79.7412,M,-17.3275,M,,*61
$GPGGA,222402.00,4737.2399849,N,12220.2683790,W,1,14,1.0,78.8906,M,-17.3275,M,,*6F
$GPGGA,222403.00,4737.2399132,N,12220.2682051,W,1,14,1.0,78.3886,M,-17.3275,M,,*62
$GPGGA,222404.00,4737.2398479,N,12220.2680660,W,1,14,1.0,78.0456,M,-17.3275,M,,*6A
$GPGGA,222405.00,4737.2397711,N,12220.2679574,W,1,14,0.9,77.9320,M,-17.3275,M,,*61
$GPGGA,222406.00,4737.2397062,N,12220.2678969,W,1,14,0.9,78.0466,M,-17.3275,M,,*63
$GPGGA,222407.00,4737.2396185,N,12220.2678463,W,1,14,0.9,78.3576,M,-17.3275,M,,*6F
$GPGGA,222408.00,4737.2395033,N,12220.2677838,W,1,14,0.9,78.8165,M,-17.3275,M,,*6F
$GPGGA,222409.00,4737.2393743,N,12220.2677366,W,1,13,1.0,79.2762,M,-17.3275,M,,*6D
$GPGGA,222410.00,4737.2392330,N,12220.2677075,W,1,12,1.3,79.6478,M,-17.3275,M,,*6B
$GPGGA,222411.00,4737.2390851,N,12220.2676995,W,1,13,1.1,79.9541,M,-17.3275,M,,*65
$GPGGA,222412.00,4737.2389623,N,12220.2677328,W,1,13,1.1,80.0770,M,-17.3275,M,,*67
$GPGGA,222413.00,4737.2388503,N,12220.2677763,W,1,13,1.1,80.2219,M,-17.3275,M,,*65
$GPGGA,222414.00,4737.2387378,N,12220.2678339,W,1,14,0.9,80.4343,M,-17.3275,M,,*65
$GPGGA,222415.00,4737.2386245,N,12220.2678878,W,1,13,1.1,80.6105,M,-17.3275,M,,*68
$GPGGA,222416.00,4737.2385062,N,12220.2679360,W,1,13,1.1,80.7601,M,-17.3275,M,,*6E
$GPGGA,222417.00,4737.2383220,N,12220.2679286,W,1,14,1.0,81.3434,M,-17.3275,M,,*63
$GPGGA,222418.00,4737.2381135,N,12220.2679092,W,1,14,1.0,82.1163,M,-17.3275,M,,*68
$GPGGA,222419.00,4737.2379095,N,12220.2678963,W,1,13,1.1,82.8672,M,-17.3275,M,,*6B
$GPGGA,222420.00,4737.2377177,N,12220.2678907,W,1,14,1.0,83.5772,M,-17.3275,M,,*6B
$GPGGA,222421.00,4737.2375359,N,12220.2678871,W,1,14,1.0,84.2564,M,-17.3275,M,,*63
$GPGGA,222422.00,4737.2373683,N,12220.2678919,W,1,14,1.0,84.9108,M,-17.3275,M,,*6E
$GPGGA,222423.00,4737.2372006,N,12220.2678759,W,1,14,1.0,85.5410,M,-17.3275,M,,*6E
$GPGGA,222424.00,4737.2370236,N,12220.2678566,W,1,14,1.0,86.1594,M,-17.3275,M,,*6E
$GPGGA,222425.00,4737.2368574,N,12220.2678469,W,1,14,1.0,86.7672,M,-17.3275,M,,*64
$GPGGA,222426.00,4737.2367097,N,12220.2678462,W,1,14,1.0,87.3625,M,-17.3275,M,,*6C
$GPGGA,222427.00,4737.2365798,N,12220.2678474,W,1,14,1.0,87.9184,M,-17.3275,M,,*66
