$GPGGA,231813.00,4737.5644864,N,12220.3050005,W,4,18,0.7,2.4443,M,-17.3240,M,2.0,0000*76
$GPGGA,231814.00,4737.5644855,N,12220.3049981,W,4,18,0.7,2.4535,M,-17.3240,M,2.0,0000*7E
$GPGGA,231815.00,4737.5644828,N,12220.3049958,W,4,18,0.7,2.4469,M,-17.3240,M,2.0,0000*79
$GPGGA,231816.00,4737.5644830,N,12220.3049916,W,4,18,0.7,2.4477,M,-17.3240,M,2.0,0000*76
$GPGGA,231817.00,4737.5644789,N,12220.3049909,W,4,18,0.7,2.4431,M,-17.3240,M,2.0,0000*76
$GPGGA,231818.00,4737.5644777,N,12220.3049900,W,4,18,0.7,2.4436,M,-17.3240,M,2.0,0000*76
$GPGGA,231819.00,4737.5644762,N,12220.3049894,W,4,18,0.7,2.4469,M,-17.3240,M,2.0,0000*75
$GPGGA,231820.00,4737.5644761,N,12220.3049894,W,4,18,0.7,2.4477,M,-17.3240,M,2.0,0000*73
$GPGGA,231821.00,4737.5644765,N,12220.3049877,W,4,18,0.7,2.4560,M,-17.3240,M,2.0,0000*7C
$GPGGA,231822.00,4737.5644764,N,12220.3049870,W,4,18,0.7,2.4568,M,-17.3240,M,2.0,0000*71
$GPGGA,231823.00,4737.5644748,N,12220.3049885,W,4,18,0.7,2.4510,M,-17.3240,M,2.0,0000*7B
$GPGGA,231824.00,4737.5644734,N,12220.3049890,W,4,17,0.7,2.4510,M,-17.3240,M,2.0,0000*7C
$GPGGA,231825.00,4737.5644734,N,12220.3049879,W,4,18,0.7,2.4497,M,-17.3240,M,2.0,0000*7B
$GPGGA,231826.00,4737.5644725,N,12220.3049872,W,4,18,0.7,2.4560,M,-17.3240,M,2.0,0000*7A
$GPGGA,231827.00,4737.5644725,N,12220.3049880,W,4,18,0.7,2.4510,M,-17.3240,M,2.0,0000*71
$GPGGA,231828.00,4737.5644735,N,12220.3049882,W,4,18,0.7,2.4586,M,-17.3240,M,2.0,0000*72
$GPGGA,231829.00,4737.5644745,N,12220.3049867,W,4,18,0.7,2.4556,M,-17.3240,M,2.0,0000*72
$GPGGA,231830.00,4737.5644745,N,12220.3049848,W,4,18,0.7,2.4581,M,-17.3240,M,2.0,0000*7D
$GPGGA,231831.00,4737.5644736,N,12220.3049861,W,4,18,0.7,2.4533,M,-17.3240,M,2.0,0000*7A
$GPGGA,231832.00,4737.5644727,N,12220.3049871,W,4,18,0.7,2.4484,M,-17.3240,M,2.0,0000*75
$GPGGA,231833.00,4737.5644733,N,12220.3049879,W,4,18,0.7,2.4401,M,-17.3240,M,2.0,0000*74
$GPGGA,231834.00,4737.5644746,N,12220.3049882,W,4,18,0.7,2.4440,M,-17.3240,M,2.0,0000*70
$GPGGA,231835.00,4737.5644751,N,12220.3049857,W,4,15,0.9,2.4476,M,-17.3240,M,2.0,0000*79
$GPGGA,231836.00,4737.5644750,N,12220.3049877,W,4,17,0.7,2.4526,M,-17.3240,M,2.0,0000*71
$GPGGA,231837.00,4737.5644763,N,12220.3049869,W,4,17,0.7,2.4544,M,-17.3240,M,2.0,0000*7B
$GPGGA,231838.00,4737.5644753,N,12220.3049888,W,4,18,0.7,2.4519,M,-17.3240,M,2.0,0000*7F
$GPGGA,231839.00,4737.5644729,N,12220.3049881,W,4,18,0.7,2.4488,M,-17.3240,M,2.0,0000*73
$GPGGA,231840.00,4737.5644723,N,12220.3049880,W,4,18,0.7,2.4418,M,-17.3240,M,2.0,0000*7F
$GPGGA,231841.00,4737.5644721,N,12220.3049876,W,4,18,0.7,2.4436,M,-17.3240,M,2.0,0000*79
$GPGGA,231842.00,4737.5644715,N,12220.3049892,W,4,18,0.7,2.4410,M,-17.3240,M,2.0,0000*73
$GPGGA,231843.00,4737.5644707,N,12220.3049926,W,4,18,0.7,2.4393,M,-17.3240,M,2.0,0000*73
$GPGGA,231844.00,4737.5644722,N,12220.3049914,W,4,18,0.7,2.4477,M,-17.3240,M,1.0,0000*7C
$GPGGA,231845.00,4737.5644721,N,12220.3049920,W,4,18,0.7,2.4465,M,-17.3240,M,2.0,0000*79
$GPGGA,231846.00,4737.5644738,N,12220.3049918,W,4,18,0.7,2.4496,M,-17.3240,M,2.0,0000*75
$GPGGA,231847.00,4737.5644747,N,12220.3049893,W,4,18,0.7,2.4520,M,-17.3240,M,2.0,0000*72
$GPGGA,231848.00,4737.5644752,N,12220.3049879,W,4,18,0.7,2.4553,M,-17.3240,M,2.0,0000*79
$GPGGA,231849.00,4737.5644737,N,12220.3049869,W,4,18,0.7,2.4471,M,-17.3240,M,2.0,0000*7B
$GPGGA,231850.00,4737.5644730,N,12220.3049871,W,4,18,0.7,2.4458,M,-17.3240,M,2.0,0000*76
$GPGGA,231851.00,4737.5644728,N,12220.3049872,W,4,18,0.7,2.4407,M,-17.3240,M,3.0,0000*76
$GPGGA,231852.00,4737.5644713,N,12220.3049897,W,4,18,0.7,2.4408,M,-17.3240,M,2.0,0000*78
$GPGGA,231853.00,4737.5644713,N,12220.3049915,W,4,18,0.7,2.4483,M,-17.3240,M,2.0,0000*71
$GPGGA,231854.00,4737.5644728,N,12220.3049884,W,4,18,0.7,2.4567,M,-17.3240,M,1.0,0000*7F
$GPGGA,231855.00,4737.5644723,N,12220.3049855,W,4,18,0.7,2.4620,M,-17.3240,M,2.0,0000*7A
$GPGGA,231856.00,4737.5644718,N,12220.3049880,W,4,18,0.7,2.4586,M,-17.3240,M,1.0,0000*75
$GPGGA,231857.00,4737.5644721,N,12220.3049871,W,4,18,0.7,2.4611,M,-17.3240,M,2.0,0000*7E
$GPGGA,231858.00,4737.5644719,N,12220.3049872,W,4,18,0.7,2.4578,M,-17.3240,M,2.0,0000*75
$GPGGA,231859.00,4737.5644708,N,12220.3049874,W,4,18,0.7,2.4577,M,-17.3240,M,2.0,0000*7D
$GPGGA,231900.00,4737.5644706,N,12220.3049868,W,4,18,0.7,2.4527,M,-17.3240,M,2.0,0000*76
$GPGGA,231901.00,4737.5644709,N,12220.3049836,W,4,18,0.7,2.4562,M,-17.3240,M,2.0,0000*72
$GPGGA,231902.00,4737.5644728,N,12220.3049847,W,4,18,0.7,2.4624,M,-17.3240,M,2.0,0000*75
$GPGGA,231903.00,4737.5644745,N,12220.3049873,W,4,18,0.7,2.4674,M,-17.3240,M,2.0,0000*7D
$GPGGA,231904.00,4737.5644737,N,12220.3049883,W,4,18,0.7,2.4692,M,-17.3240,M,1.0,0000*7B
$GPGGA,231905.00,4737.5644725,N,12220.3049876,W,4,18,0.7,2.4637,M,-17.3240,M,2.0,0000*7F
$GPGGA,231906.00,4737.5644706,N,12220.3049895,W,4,17,0.7,2.4550,M,-17.3240,M,2.0,0000*7D
$GPGGA,231907.00,4737.5644706,N,12220.3049891,W,4,18,0.7,2.4580,M,-17.3240,M,2.0,0000*7A
$GPGGA,231908.00,4737.5644716,N,12220.3049890,W,4,17,0.7,2.4595,M,-17.3240,M,2.0,0000*7E
$GPGGA,231909.00,4737.5644723,N,12220.3049885,W,4,18,0.7,2.4596,M,-17.3240,M,2.0,0000*71
$GPGGA,231910.00,4737.5644738,N,12220.3049863,W,4,17,0.7,2.4679,M,-17.3240,M,2.0,0000*76
$GPGGA,231911.00,4737.5644726,N,12220.3049871,W,4,18,0.7,2.4670,M,-17.3240,M,2.0,0000*7D
$GPGGA,231912.00,4737.5644701,N,12220.3049894,W,4,18,0.7,2.4602,M,-17.3240,M,2.0,0000*75
$GPGGA,231913.00,4737.5644693,N,12220.3049911,W,4,18,0.7,2.4604,M,-17.3240,M,2.0,0000*74
$GPGGA,231914.00,4737.5644686,N,12220.3049913,W,4,18,0.7,2.4563,M,-17.3240,M,2.0,0000*77
$GPGGA,231915.00,4737.5644679,N,12220.3049881,W,4,18,0.7,2.4595,M,-17.3240,M,2.0,0000*75
$GPGGA,231916.00,4737.5644703,N,12220.3049881,W,4,18,0.7,2.4611,M,-17.3240,M,2.0,0000*75
$GPGGA,231917.00,4737.5644715,N,12220.3049868,W,4,18,0.7,2.4631,M,-17.3240,M,2.0,0000*76
$GPGGA,231918.00,4737.5644712,N,12220.3049868,W,4,18,0.7,2.4644,M,-17.3240,M,2.0,0000*7C
$GPGGA,231919.00,4737.5644706,N,12220.3049891,W,4,18,0.7,2.4671,M,-17.3240,M,2.0,0000*78
$GPGGA,231920.00,4737.5644696,N,12220.3049898,W,4,18,0.7,2.4657,M,-17.3240,M,2.0,0000*77
$GPGGA,231921.00,4737.5644696,N,12220.3049897,W,4,18,0.7,2.4657,M,-17.3240,M,2.0,0000*79
$GPGGA,231922.00,4737.5644707,N,12220.3049898,W,4,18,0.7,2.4673,M,-17.3240,M,2.0,0000*7A
$GPGGA,231923.00,4737.5644718,N,12220.3049889,W,4,18,0.7,2.4645,M,-17.3240,M,2.0,0000*70
$GPGGA,231924.00,4737.5644728,N,12220.3049910,W,4,18,0.7,2.4581,M,-17.3240,M,2.0,0000*7E
$GPGGA,231925.00,4737.5644727,N,12220.3049881,W,4,18,0.7,2.4682,M,-17.3240,M,1.0,0000*7A
$GPGGA,231926.00,4737.5644703,N,12220.3049894,W,4,18,0.7,2.4652,M,-17.3240,M,1.0,0000*76
$GPGGA,231927.00,4737.5644709,N,12220.3049893,W,4,18,0.7,2.4682,M,-17.3240,M,1.0,0000*77
$GPGGA,231928.00,4737.5644699,N,12220.3049879,W,4,19,0.7,2.4654,M,-17.3240,M,2.0,0000*7D
$GPGGA,231929.00,4737.5644694,N,12220.3049880,W,4,19,0.7,2.4718,M,-17.3240,M,2.0,0000*7E
$GPGGA,231930.00,4737.5644696,N,12220.3049869,W,4,19,0.7,2.4729,M,-17.3240,M,2.0,0000*71
$GPGGA,231931.00,4737.5644697,N,12220.3049870,W,4,19,0.7,2.4760,M,-17.3240,M,2.0,0000*74
$GPGGA,231932.00,4737.5644702,N,12220.3049900,W,4,19,0.7,2.4713,M,-17.3240,M,1.0,0000*7B
$GPGGA,231933.00,4737.5644700,N,12220.3049910,W,4,19,0.7,2.4681,M,-17.3240,M,2.0,0000*70
$GPGGA,231934.00,4737.5644718,N,12220.3049907,W,4,19,0.7,2.4692,M,-17.3240,M,2.0,0000*7A
$GPGGA,231935.00,4737.5644705,N,12220.3049903,W,4,19,0.7,2.4703,M,-17.3240,M,2.0,0000*7A
$GPGGA,231936.00,4737.5644716,N,12220.3049900,W,4,19,0.7,2.4705,M,-17.3240,M,1.0,0000*7D
$GPGGA,231937.00,4737.5644692,N,12220.3049889,W,4,19,0.7,2.4662,M,-17.3240,M,2.0,0000*72
$GPGGA,231938.00,4737.5644687,N,12220.3049883,W,4,19,0.7,2.4740,M,-17.3240,M,2.0,0000*72
$GPGGA,231939.00,4737.5644688,N,12220.3049893,W,4,19,0.7,2.4706,M,-17.3240,M,2.0,0000*7F
$GPGGA,231940.00,4737.5644690,N,12220.3049870,W,4,19,0.7,2.4762,M,-17.3240,M,2.0,0000*77
$GPGGA,231941.00,4737.5644704,N,12220.3049869,W,4,19,0.7,2.4743,M,-17.3240,M,2.0,0000*71
$GPGGA,231942.00,4737.5644705,N,12220.3049887,W,4,19,0.7,2.4726,M,-17.3240,M,2.0,0000*70
$GPGGA,231943.00,4737.5644695,N,12220.3049897,W,4,19,0.7,2.4710,M,-17.3240,M,2.0,0000*7D
$GPGGA,231944.00,4737.5644689,N,12220.3049890,W,4,19,0.7,2.4731,M,-17.3240,M,2.0,0000*73
$GPGGA,231945.00,4737.5644697,N,12220.3049880,W,4,20,0.7,2.4737,M,-17.3240,M,2.0,0000*70
$GPGGA,231946.00,4737.5644699,N,12220.3049882,W,4,20,0.7,2.4723,M,-17.3240,M,2.0,0000*7A
$GPGGA,231947.00,4737.5644696,N,12220.3049885,W,4,15,0.9,2.4782,M,-17.3240,M,2.0,0000*70
$GPGGA,231948.00,4737.5644739,N,12220.3049905,W,4,19,0.7,2.4866,M,-17.3240,M,2.0,0000*75
$GPGGA,231949.00,4737.5644730,N,12220.3049887,W,4,19,0.7,2.4769,M,-17.3240,M,2.0,0000*76
$GPGGA,231950.00,4737.5644726,N,12220.3049913,W,4,20,0.7,2.4859,M,-17.3240,M,2.0,0000*73
$GPGGA,231951.00,4737.5644683,N,12220.3049932,W,4,19,0.7,2.4743,M,-17.3240,M,2.0,0000*71
$GPGGA,231952.00,4737.5644693,N,12220.3049910,W,4,19,0.7,2.4768,M,-17.3240,M,2.0,0000*7A
$GPGGA,231953.00,4737.5644686,N,12220.3049910,W,4,19,0.7,2.4755,M,-17.3240,M,2.0,0000*71
$GPGGA,231954.00,4737.5644711,N,12220.3049887,W,4,19,0.7,2.4808,M,-17.3240,M,2.0,0000*71
$GPGGA,231955.00,4737.5644714,N,12220.3049878,W,4,20,0.7,2.4843,M,-17.3240,M,2.0,0000*70
$GPGGA,231956.00,4737.5644724,N,12220.3049878,W,4,20,0.7,2.4864,M,-17.3240,M,2.0,0000*75
$GPGGA,231957.00,4737.5644728,N,12220.3049866,W,4,20,0.7,2.4795,M,-17.3240,M,2.0,0000*76
$GPGGA,231958.00,4737.5644718,N,12220.3049895,W,4,20,0.7,2.4780,M,-17.3240,M,2.0,0000*72
$GPGGA,231959.00,4737.5644707,N,12220.3049899,W,4,20,0.7,2.4714,M,-17.3240,M,2.0,0000*7C
$GPGGA,232000.00,4737.5644699,N,12220.3049906,W,4,20,0.7,2.4723,M,-17.3240,M,1.0,0000*7C
$GPGGA,232001.00,4737.5644700,N,12220.3049893,W,4,20,0.7,2.4700,M,-17.3240,M,2.0,0000*73
$GPGGA,232002.00,4737.5644694,N,12220.3049894,W,4,20,0.7,2.4757,M,-17.3240,M,2.0,0000*79
$GPGGA,232003.00,4737.5644699,N,12220.3049882,W,4,20,0.7,2.4771,M,-17.3240,M,2.0,0000*76
$GPGGA,232004.00,4737.5644699,N,12220.3049911,W,4,20,0.7,2.4725,M,-17.3240,M,2.0,0000*7B
$GPGGA,232005.00,4737.5644698,N,12220.3049899,W,4,20,0.7,2.4719,M,-17.3240,M,2.0,0000*75
$GPGGA,232006.00,4737.5644707,N,12220.3049882,W,4,20,0.7,2.4734,M,-17.3240,M,2.0,0000*74
$GPGGA,232007.00,4737.5644711,N,12220.3049879,W,4,20,0.7,2.4737,M,-17.3240,M,2.0,0000*75
$GPGGA,232008.00,4737.5644700,N,12220.3049877,W,4,19,0.7,2.4780,M,-17.3240,M,2.0,0000*72
$GPGGA,232009.00,4737.5644700,N,12220.3049897,W,4,19,0.7,2.4760,M,-17.3240,M,2.0,0000*73
$GPGGA,232010.00,4737.5644689,N,12220.3049919,W,4,19,0.7,2.4736,M,-17.3240,M,2.0,0000*7F
$GPGGA,232011.00,4737.5644694,N,12220.3049923,W,4,19,0.7,2.4789,M,-17.3240,M,2.0,0000*7F
$GPGGA,232012.00,4737.5644683,N,12220.3049924,W,4,19,0.7,2.4719,M,-17.3240,M,2.0,0000*74
$GPGGA,232013.00,4737.5644693,N,12220.3049905,W,4,19,0.7,2.4690,M,-17.3240,M,2.0,0000*77
$GPGGA,232014.00,4737.5644700,N,12220.3049912,W,4,19,0.7,2.4745,M,-17.3240,M,2.0,0000*74
$GPGGA,232015.00,4737.5644697,N,12220.3049919,W,4,19,0.7,2.4636,M,-17.3240,M,2.0,0000*74
$GPGGA,232016.00,4737.5644688,N,12220.3049928,W,4,19,0.7,2.4709,M,-17.3240,M,1.0,0000*75
$GPGGA,232017.00,4737.5644681,N,12220.3049932,W,4,19,0.7,2.4725,M,-17.3240,M,2.0,0000*7B
$GPGGA,232018.00,4737.5644693,N,12220.3049950,W,4,19,0.7,2.4755,M,-17.3240,M,2.0,0000*74
$GPGGA,232019.00,4737.5644698,N,12220.3049940,W,4,19,0.7,2.4758,M,-17.3240,M,2.0,0000*72
$GPGGA,232020.00,4737.5644675,N,12220.3049918,W,4,19,0.7,2.4660,M,-17.3240,M,2.0,0000*7C
$GPGGA,232021.00,4737.5644678,N,12220.3049933,W,4,19,0.7,2.4661,M,-17.3240,M,2.0,0000*78
$GPGGA,232022.00,4737.5644663,N,12220.3049953,W,4,19,0.7,2.4650,M,-17.3240,M,2.0,0000*75
$GPGGA,232023.00,4737.5644661,N,12220.3049978,W,4,19,0.7,2.4582,M,-17.3240,M,2.0,0000*73
$GPGGA,232024.00,4737.5644659,N,12220.3049967,W,4,19,0.7,2.4658,M,-17.3240,M,2.0,0000*75
$GPGGA,232025.00,4737.5644670,N,12220.3049957,W,4,19,0.7,2.4647,M,-17.3240,M,2.0,0000*72
$GPGGA,232026.00,4737.5644696,N,12220.3049938,W,4,19,0.7,2.4712,M,-17.3240,M,2.0,0000*71
$GPGGA,232027.00,4737.5644707,N,12220.3049936,W,4,19,0.7,2.4739,M,-17.3240,M,2.0,0000*7E
$GPGGA,232028.00,4737.5644712,N,12220.3049963,W,4,20,0.7,2.4703,M,-17.3240,M,2.0,0000*76
$GPGGA,232029.00,4737.5644721,N,12220.3049967,W,4,20,0.7,2.4725,M,-17.3240,M,2.0,0000*77
$GPGGA,232030.00,4737.5644719,N,12220.3049952,W,4,20,0.7,2.4724,M,-17.3240,M,2.0,0000*73
$GPGGA,232031.00,4737.5644742,N,12220.3049932,W,4,20,0.7,2.4747,M,-17.3240,M,2.0,0000*7F
$GPGGA,232032.00,4737.5644730,N,12220.3049973,W,4,20,0.7,2.4774,M,-17.3240,M,2.0,0000*7C
$GPGGA,232033.00,4737.5644716,N,12220.3049941,W,4,20,0.7,2.4820,M,-17.3240,M,2.0,0000*76
$GPGGA,232034.00,4737.5644719,N,12220.3049939,W,4,19,0.7,2.4806,M,-17.3240,M,2.0,0000*7F
$GPGGA,232035.00,4737.5644714,N,12220.3049965,W,4,19,0.7,2.4716,M,-17.3240,M,2.0,0000*74
$GPGGA,232036.00,4737.5644706,N,12220.3049993,W,4,19,0.7,2.4698,M,-17.3240,M,2.0,0000*7A
$GPGGA,232037.00,4737.5644700,N,12220.3049985,W,4,20,0.7,2.4680,M,-17.3240,M,2.0,0000*79
$GPGGA,232038.00,4737.5644726,N,12220.3049959,W,4,20,0.7,2.4741,M,-17.3240,M,2.0,0000*7F
$GPGGA,232039.00,4737.5644727,N,12220.3049969,W,4,20,0.7,2.4784,M,-17.3240,M,2.0,0000*75
$GPGGA,232040.00,4737.5644715,N,12220.3049959,W,4,20,0.7,2.4813,M,-17.3240,M,2.0,0000*78
$GPGGA,232041.00,4737.5644699,N,12220.3049969,W,4,20,0.7,2.4806,M,-17.3240,M,2.0,0000*7B
$GPGGA,232042.00,4737.5644734,N,12220.3049989,W,4,20,0.7,2.4794,M,-17.3240,M,1.0,0000*77
$GPGGA,232043.00,4737.5644724,N,12220.3049953,W,4,20,0.7,2.4818,M,-17.3240,M,2.0,0000*78
$GPGGA,232044.00,4737.5644742,N,12220.3049952,W,4,20,0.7,2.4804,M,-17.3240,M,2.0,0000*73
$GPGGA,232045.00,4737.5644744,N,12220.3049941,W,4,20,0.7,2.4763,M,-17.3240,M,2.0,0000*78
$GPGGA,232046.00,4737.5644744,N,12220.3049918,W,4,20,0.7,2.4753,M,-17.3240,M,2.0,0000*74
$GPGGA,232047.00,4737.5644741,N,12220.3049928,W,4,20,0.7,2.4827,M,-17.3240,M,2.0,0000*7F
$GPGGA,232048.00,4737.5644732,N,12220.3049940,W,4,19,0.7,2.4811,M,-17.3240,M,2.0,0000*75
$GPGGA,232049.00,4737.5644715,N,12220.3049954,W,4,19,0.7,2.4787,M,-17.3240,M,2.0,0000*74
$GPGGA,232050.00,4737.5644725,N,12220.3049951,W,4,20,0.7,2.4806,M,-17.3240,M,2.0,0000*76
$GPGGA,232051.00,4737.5644743,N,12220.3049920,W,4,19,0.7,2.4800,M,-17.3240,M,2.0,0000*7D
$GPGGA,232052.00,4737.5644731,N,12220.3049943,W,4,19,0.7,2.4741,M,-17.3240,M,2.0,0000*74
$GPGGA,232053.00,4737.5644735,N,12220.3049970,W,4,19,0.7,2.4684,M,-17.3240,M,2.0,0000*79
$GPGGA,232054.00,4737.5644718,N,12220.3049978,W,4,18,0.8,2.4727,M,-17.3240,M,1.0,0000*7C
$GPGGA,232055.00,4737.5644709,N,12220.3050010,W,4,18,0.8,2.4709,M,-17.3240,M,2.0,0000*7D
$GPGGA,232056.00,4737.5644703,N,12220.3049974,W,4,18,0.8,2.4756,M,-17.3240,M,2.0,0000*7D
$GPGGA,232057.00,4737.5644742,N,12220.3049977,W,4,18,0.8,2.4819,M,-17.3240,M,1.0,0000*7D
$GPGGA,232058.00,4737.5644727,N,12220.3049977,W,4,18,0.8,2.4782,M,-17.3240,M,2.0,0000*7F
$GPGGA,232059.00,4737.5644750,N,12220.3049956,W,4,18,0.8,2.4850,M,-17.3240,M,2.0,0000*7D
$GPGGA,232100.00,4737.5644762,N,12220.3049999,W,4,18,0.8,2.4902,M,-17.3240,M,1.0,0000*77
$GPGGA,232101.00,4737.5644767,N,12220.3049964,W,4,19,0.7,2.4931,M,-17.3240,M,2.0,0000*7C
$GPGGA,232102.00,4737.5644776,N,12220.3049986,W,4,19,0.7,2.4978,M,-17.3240,M,2.0,0000*7E
$GPGGA,232103.00,4737.5644754,N,12220.3050002,W,4,17,0.8,2.4965,M,-17.3240,M,2.0,0000*7F
$GPGGA,232104.00,4737.5644756,N,12220.3049989,W,4,19,0.7,2.4900,M,-17.3240,M,1.0,0000*79
$GPGGA,232105.00,4737.5644760,N,12220.3049989,W,4,19,0.7,2.4817,M,-17.3240,M,2.0,0000*79
$GPGGA,232106.00,4737.5644760,N,12220.3049986,W,4,19,0.7,2.4809,M,-17.3240,M,2.0,0000*7A
$GPGGA,232107.00,4737.5644745,N,12220.3049980,W,4,20,0.7,2.4842,M,-17.3240,M,2.0,0000*7F
$GPGGA,232108.00,4737.5644760,N,12220.3050006,W,4,20,0.7,2.4877,M,-17.3240,M,2.0,0000*7E
$GPGGA,232109.00,4737.5644765,N,12220.3049994,W,4,19,0.7,2.4863,M,-17.3240,M,2.0,0000*7F
$GPGGA,232110.00,4737.5644793,N,12220.3049992,W,4,19,0.7,2.4846,M,-17.3240,M,2.0,0000*7F
$GPGGA,232111.00,4737.5644808,N,12220.3049961,W,4,19,0.7,2.4951,M,-17.3240,M,2.0,0000*78
$GPGGA,232112.00,4737.5644785,N,12220.3049977,W,4,19,0.7,2.4861,M,-17.3240,M,2.0,0000*74
$GPGGA,232113.00,4737.5644780,N,12220.3050000,W,4,20,0.7,2.4851,M,-17.3240,M,2.0,0000*78
$GPGGA,232114.00,4737.5644749,N,12220.3049991,W,4,19,0.7,2.4813,M,-17.3240,M,1.0,0000*7C
$GPGGA,232115.00,4737.5644750,N,12220.3049980,W,4,19,0.7,2.4760,M,-17.3240,M,2.0,0000*7D
$GPGGA,232116.00,4737.5644749,N,12220.3049991,W,4,20,0.7,2.4779,M,-17.3240,M,2.0,0000*74
$GPGGA,232117.00,4737.5644762,N,12220.3049977,W,4,20,0.7,2.4795,M,-17.3240,M,2.0,0000*76
$GPGGA,232118.00,4737.5644774,N,12220.3049965,W,4,19,0.7,2.4831,M,-17.3240,M,2.0,0000*76
$GPGGA,232119.00,4737.5644796,N,12220.3049994,W,4,19,0.7,2.4831,M,-17.3240,M,2.0,0000*75
$GPGGA,232120.00,4737.5644784,N,12220.3049958,W,4,19,0.7,2.4841,M,-17.3240,M,2.0,0000*7B
$GPGGA,232121.00,4737.5644788,N,12220.3049949,W,4,19,0.7,2.4762,M,-17.3240,M,2.0,0000*78
$GPGGA,232122.00,4737.5644781,N,12220.3049952,W,4,19,0.7,2.4802,M,-17.3240,M,2.0,0000*71
$GPGGA,232123.00,4737.5644770,N,12220.3049952,W,4,19,0.7,2.4810,M,-17.3240,M,2.0,0000*7D
$GPGGA,232124.00,4737.5644755,N,12220.3049945,W,4,19,0.7,2.4753,M,-17.3240,M,2.0,0000*73
$GPGGA,232125.00,4737.5644759,N,12220.3049943,W,4,19,0.7,2.4761,M,-17.3240,M,2.0,0000*79
$GPGGA,232126.00,4737.5644787,N,12220.3049968,W,4,19,0.7,2.4799,M,-17.3240,M,1.0,0000*74
$GPGGA,232127.00,4737.5644775,N,12220.3049959,W,4,19,0.7,2.4807,M,-17.3240,M,2.0,0000*71
$GPGGA,232128.00,4737.5644796,N,12220.3049981,W,4,17,0.8,2.4958,M,-17.3240,M,2.0,0000*7C
$GPGGA,232129.00,4737.5644798,N,12220.3049938,W,4,19,0.7,2.4778,M,-17.3240,M,2.0,0000*7C
$GPGGA,232130.00,4737.5644794,N,12220.3049953,W,4,19,0.7,2.4677,M,-17.3240,M,2.0,0000*7B
$GPGGA,232131.00,4737.5644766,N,12220.3049925,W,4,19,0.7,2.4692,M,-17.3240,M,2.0,0000*7D
$GPGGA,232132.00,4737.5644797,N,12220.3049927,W,4,19,0.7,2.4711,M,-17.3240,M,2.0,0000*78
$GPGGA,232133.00,4737.5644814,N,12220.3049942,W,4,20,0.7,2.4789,M,-17.3240,M,2.0,0000*75
$GPGGA,232134.00,4737.5644790,N,12220.3049924,W,4,20,0.7,2.4761,M,-17.3240,M,2.0,0000*77
$GPGGA,232135.00,4737.5644783,N,12220.3049924,W,4,20,0.7,2.4761,M,-17.3240,M,2.0,0000*74
$GPGGA,232136.00,4737.5644789,N,12220.3049933,W,4,20,0.7,2.4715,M,-17.3240,M,1.0,0000*7B
$GPGGA,232137.00,4737.5644777,N,12220.3049943,W,4,20,0.7,2.4658,M,-17.3240,M,2.0,0000*77
$GPGGA,232138.00,4737.5644793,N,12220.3049964,W,4,20,0.7,2.4681,M,-17.3240,M,2.0,0000*73
$GPGGA,232139.00,4737.5644780,N,12220.3049963,W,4,20,0.7,2.4700,M,-17.3240,M,2.0,0000*7F
$GPGGA,232140.00,4737.5644759,N,12220.3049971,W,4,17,0.8,2.4686,M,-17.3240,M,1.0,0000*71
$GPGGA,232141.00,4737.5644766,N,12220.3049975,W,4,16,0.9,2.4710,M,-17.3240,M,2.0,0000*75
$GPGGA,232142.00,4737.5644788,N,12220.3049939,W,4,19,0.7,2.4622,M,-17.3240,M,2.0,0000*7F
$GPGGA,232143.00,4737.5644791,N,12220.3049934,W,4,20,0.7,2.4565,M,-17.3240,M,2.0,0000*71
$GPGGA,232144.00,4737.5644752,N,12220.3049956,W,4,17,0.8,2.4659,M,-17.3240,M,2.0,0000*7A
$GPGGA,232145.00,4737.5644750,N,12220.3049979,W,4,19,0.7,2.4659,M,-17.3240,M,2.0,0000*75
$GPGGA,232146.00,4737.5644754,N,12220.3049971,W,4,20,0.7,2.4615,M,-17.3240,M,2.0,0000*78
$GPGGA,232147.00,4737.5644768,N,12220.3049951,W,4,20,0.7,2.4649,M,-17.3240,M,2.0,0000*7D
$GPGGA,232148.00,4737.5644774,N,12220.3049954,W,4,20,0.7,2.4638,M,-17.3240,M,2.0,0000*7C
$GPGGA,232149.00,4737.5644798,N,12220.3049944,W,4,20,0.7,2.4711,M,-17.3240,M,2.0,0000*74
$GPGGA,232150.00,4737.5644803,N,12220.3049943,W,4,20,0.7,2.4712,M,-17.3240,M,2.0,0000*75
$GPGGA,232151.00,4737.5644800,N,12220.3049934,W,4,20,0.7,2.4652,M,-17.3240,M,2.0,0000*72
$GPGGA,232152.00,4737.5644782,N,12220.3049935,W,4,20,0.7,2.4672,M,-17.3240,M,2.0,0000*77
$GPGGA,232153.00,4737.5644779,N,12220.3049951,W,4,20,0.7,2.4682,M,-17.3240,M,2.0,0000*7F
$GPGGA,232154.00,4737.5644769,N,12220.3049950,W,4,20,0.7,2.4641,M,-17.3240,M,2.0,0000*77
$GPGGA,232155.00,4737.5644771,N,12220.3049933,W,4,20,0.7,2.4612,M,-17.3240,M,2.0,0000*7C
$GPGGA,232156.00,4737.5644779,N,12220.3049921,W,4,20,0.7,2.4672,M,-17.3240,M,2.0,0000*72
$GPGGA,232157.00,4737.5644775,N,12220.3049900,W,4,20,0.7,2.4646,M,-17.3240,M,2.0,0000*7B
$GPGGA,232158.00,4737.5644770,N,12220.3049929,W,4,20,0.7,2.4678,M,-17.3240,M,2.0,0000*77
$GPGGA,232159.00,4737.5644778,N,12220.3049923,W,4,18,0.7,2.4509,M,-17.3240,M,2.0,0000*7A
$GPGGA,232200.00,4737.5644799,N,12220.3049922,W,4,18,0.7,2.4668,M,-17.3240,M,2.0,0000*7F
$GPGGA,232201.00,4737.5644772,N,12220.3049901,W,4,20,0.7,2.4600,M,-17.3240,M,2.0,0000*7F
$GPGGA,232202.00,4737.5644763,N,12220.3049929,W,4,19,0.7,2.4579,M,-17.3240,M,2.0,0000*71
$GPGGA,232203.00,4737.5644766,N,12220.3049923,W,4,19,0.7,2.4550,M,-17.3240,M,2.0,0000*74
$GPGGA,232204.00,4737.5644782,N,12220.3049919,W,4,18,0.7,2.4565,M,-17.3240,M,2.0,0000*77
$GPGGA,232205.00,4737.5644774,N,12220.3049913,W,4,19,0.7,2.4565,M,-17.3240,M,2.0,0000*74
$GPGGA,232206.00,4737.5644800,N,12220.3049892,W,4,19,0.7,2.4573,M,-17.3240,M,2.0,0000*74
$GPGGA,232207.00,4737.5644815,N,12220.3049899,W,4,19,0.7,2.4558,M,-17.3240,M,2.0,0000*73
$GPGGA,232208.00,4737.5644810,N,12220.3049894,W,4,19,0.7,2.4548,M,-17.3240,M,2.0,0000*75
$GPGGA,232209.00,4737.5644832,N,12220.3049882,W,4,19,0.7,2.4559,M,-17.3240,M,2.0,0000*73
$GPGGA,232210.00,4737.5644821,N,12220.3049883,W,4,19,0.7,2.4500,M,-17.3240,M,1.0,0000*77
$GPGGA,232211.00,4737.5644839,N,12220.3049880,W,4,19,0.7,2.4482,M,-17.3240,M,2.0,0000*74
$GPGGA,232212.00,4737.5644812,N,12220.3049877,W,4,19,0.7,2.4470,M,-17.3240,M,1.0,0000*78
$GPGGA,232213.00,4737.5644813,N,12220.3049864,W,4,19,0.7,2.4424,M,-17.3240,M,2.0,0000*78
$GPGGA,232214.00,4737.5644812,N,12220.3049889,W,4,18,0.7,2.4487,M,-17.3240,M,2.0,0000*75
$GPGGA,232215.00,4737.5644808,N,12220.3049871,W,4,18,0.7,2.4508,M,-17.3240,M,2.0,0000*7E
$GPGGA,232216.00,4737.5644818,N,12220.3049885,W,4,18,0.7,2.4525,M,-17.3240,M,2.0,0000*78
$GPGGA,232217.00,4737.5644837,N,12220.3049881,W,4,19,0.7,2.4516,M,-17.3240,M,1.0,0000*72
$GPGGA,232218.00,4737.5644820,N,12220.3049869,W,4,20,0.7,2.4456,M,-17.3240,M,2.0,0000*71
$GPGGA,232219.00,4737.5644819,N,12220.3049886,W,4,19,0.7,2.4411,M,-17.3240,M,2.0,0000*72
$GPGGA,232220.00,4737.5644793,N,12220.3049861,W,4,19,0.7,2.4315,M,-17.3240,M,2.0,0000*7F
$GPGGA,232221.00,4737.5644806,N,12220.3049881,W,4,19,0.7,2.4317,M,-17.3240,M,2.0,0000*71
$GPGGA,232222.00,4737.5644812,N,12220.3049869,W,4,19,0.7,2.4374,M,-17.3240,M,2.0,0000*74
$GPGGA,232223.00,4737.5644835,N,12220.3049853,W,4,19,0.7,2.4417,M,-17.3240,M,2.0,0000*7B
$GPGGA,232224.00,4737.5644850,N,12220.3049844,W,4,18,0.7,2.4494,M,-17.3240,M,1.0,0000*70
$GPGGA,232225.00,4737.5644856,N,12220.3049830,W,4,18,0.7,2.4464,M,-17.3240,M,2.0,0000*78
$GPGGA,232226.00,4737.5644846,N,12220.3049823,W,4,18,0.7,2.4423,M,-17.3240,M,2.0,0000*7B
$GPGGA,232227.00,4737.5644819,N,12220.3049842,W,4,18,0.7,2.4342,M,-17.3240,M,1.0,0000*74
$GPGGA,232228.00,4737.5644812,N,12220.3049848,W,4,18,0.7,2.4308,M,-17.3240,M,2.0,0000*77
$GPGGA,232229.00,4737.5644817,N,12220.3049838,W,4,18,0.7,2.4401,M,-17.3240,M,2.0,0000*7A
$GPGGA,232230.00,4737.5644842,N,12220.3049822,W,4,18,0.7,2.4410,M,-17.3240,M,2.0,0000*79
$GPGGA,232231.00,4737.5644824,N,12220.3049816,W,4,18,0.7,2.4387,M,-17.3240,M,2.0,0000*76
$GPGGA,232232.00,4737.5644844,N,12220.3049811,W,4,18,0.7,2.4389,M,-17.3240,M,2.0,0000*7A
$GPGGA,232233.00,4737.5644832,N,12220.3049794,W,4,18,0.7,2.4374,M,-17.3240,M,2.0,0000*7A
$GPGGA,232234.00,4737.5644845,N,12220.3049806,W,4,18,0.7,2.4341,M,-17.3240,M,1.0,0000*7C
$GPGGA,232235.00,4737.5644826,N,12220.3049785,W,4,19,0.7,2.4321,M,-17.3240,M,2.0,0000*78
$GPGGA,232236.00,4737.5644839,N,12220.3049790,W,4,18,0.7,2.4342,M,-17.3240,M,2.0,0000*75
$GPGGA,232237.00,4737.5644831,N,12220.3049810,W,4,18,0.7,2.4361,M,-17.3240,M,2.0,0000*7A
$GPGGA,232238.00,4737.5644834,N,12220.3049830,W,4,18,0.7,2.4384,M,-17.3240,M,2.0,0000*79
$GPGGA,232239.00,4737.5644831,N,12220.3049827,W,4,18,0.7,2.4383,M,-17.3240,M,2.0,0000*7C
$GPGGA,232240.00,4737.5644805,N,12220.3049814,W,4,18,0.7,2.4332,M,-17.3240,M,2.0,0000*7F
$GPGGA,232241.00,4737.5644822,N,12220.3049799,W,4,18,0.7,2.4326,M,-17.3240,M,2.0,0000*74
$GPGGA,232242.00,4737.5644833,N,12220.3049794,W,4,19,0.7,2.4278,M,-17.3240,M,2.0,0000*71
$GPGGA,232243.00,4737.5644825,N,12220.3049780,W,4,19,0.7,2.4294,M,-17.3240,M,2.0,0000*70
$GPGGA,232244.00,4737.5644843,N,12220.3049792,W,4,19,0.7,2.4305,M,-17.3240,M,2.0,0000*7D
$GPGGA,232245.00,4737.5644843,N,12220.3049793,W,4,19,0.7,2.4363,M,-17.3240,M,2.0,0000*7D
$GPGGA,232246.00,4737.5644860,N,12220.3049802,W,4,19,0.7,2.4351,M,-17.3240,M,2.0,0000*79
$GPGGA,232247.00,4737.5644848,N,12220.3049796,W,4,19,0.7,2.4346,M,-17.3240,M,2.0,0000*76
$GPGGA,232248.00,4737.5644843,N,12220.3049809,W,4,19,0.7,2.4355,M,-17.3240,M,2.0,0000*79
$GPGGA,232249.00,4737.5644837,N,12220.3049821,W,4,19,0.7,2.4300,M,-17.3240,M,2.0,0000*71
$GPGGA,232250.00,4737.5644835,N,12220.3049818,W,4,18,0.7,2.4315,M,-17.3240,M,2.0,0000*74
$GPGGA,232251.00,4737.5644828,N,12220.3049812,W,4,18,0.7,2.4259,M,-17.3240,M,2.0,0000*7A
$GPGGA,232252.00,4737.5644839,N,12220.3049817,W,4,18,0.7,2.4267,M,-17.3240,M,2.0,0000*71
$GPGGA,232253.00,4737.5644844,N,12220.3049795,W,4,18,0.7,2.4270,M,-17.3240,M,2.0,0000*79
$GPGGA,232254.00,4737.5644850,N,12220.3049798,W,4,18,0.7,2.4267,M,-17.3240,M,2.0,0000*70
$GPGGA,232255.00,4737.5644839,N,12220.3049781,W,4,18,0.7,2.4265,M,-17.3240,M,2.0,0000*74
$GPGGA,232256.00,4737.5644851,N,12220.3049773,W,4,18,0.7,2.4329,M,-17.3240,M,2.0,0000*7D
$GPGGA,232257.00,4737.5644851,N,12220.3049770,W,4,18,0.7,2.4347,M,-17.3240,M,2.0,0000*77
$GPGGA,232258.00,4737.5644857,N,12220.3049760,W,4,18,0.7,2.4362,M,-17.3240,M,2.0,0000*78
$GPGGA,232259.00,4737.5644857,N,12220.3049766,W,4,18,0.7,2.4363,M,-17.3240,M,2.0,0000*7E
$GPGGA,232300.00,4737.5644849,N,12220.3049770,W,4,18,0.7,2.4325,M,-17.3240,M,2.0,0000*79
$GPGGA,232301.00,4737.5644834,N,12220.3049794,W,4,18,0.7,2.4328,M,-17.3240,M,2.0,0000*75
$GPGGA,232302.00,4737.5644848,N,12220.3049786,W,4,18,0.7,2.4339,M,-17.3240,M,2.0,0000*7E
$GPGGA,232303.00,4737.5644850,N,12220.3049795,W,4,20,0.7,2.4340,M,-17.3240,M,2.0,0000*71
$GPGGA,232304.00,4737.5644867,N,12220.3049794,W,4,20,0.7,2.4415,M,-17.3240,M,1.0,0000*77
$GPGGA,232305.00,4737.5644875,N,12220.3049789,W,4,19,0.7,2.4424,M,-17.3240,M,2.0,0000*72
$GPGGA,232306.00,4737.5644883,N,12220.3049779,W,4,19,0.7,2.4411,M,-17.3240,M,2.0,0000*71
$GPGGA,232307.00,4737.5644889,N,12220.3049775,W,4,19,0.7,2.4414,M,-17.3240,M,2.0,0000*73
$GPGGA,232308.00,4737.5644877,N,12220.3049775,W,4,16,0.8,2.4480,M,-17.3240,M,2.0,0000*70
$GPGGA,232309.00,4737.5644882,N,12220.3049780,W,4,18,0.7,2.4386,M,-17.3240,M,2.0,0000*71
$GPGGA,232310.00,4737.5644885,N,12220.3049776,W,4,19,0.7,2.4434,M,-17.3240,M,2.0,0000*78
$GPGGA,232311.00,4737.5644851,N,12220.3049794,W,4,19,0.7,2.4425,M,-17.3240,M,2.0,0000*7C
$GPGGA,232312.00,4737.5644856,N,12220.3049807,W,4,16,0.8,2.4499,M,-17.3240,M,2.0,0000*7A
$GPGGA,232313.00,4737.5644854,N,12220.3049816,W,4,18,0.7,2.4407,M,-17.3240,M,2.0,0000*7F
$GPGGA,232314.00,4737.5644846,N,12220.3049786,W,4,19,0.7,2.4508,M,-17.3240,M,2.0,0000*72
$GPGGA,232315.00,4737.5644840,N,12220.3049797,W,4,19,0.7,2.4525,M,-17.3240,M,2.0,0000*7A
$GPGGA,232316.00,4737.5644859,N,12220.3049799,W,4,19,0.7,2.4486,M,-17.3240,M,2.0,0000*77
$GPGGA,232317.00,4737.5644850,N,12220.3049822,W,4,19,0.7,2.4524,M,-17.3240,M,1.0,0000*7A
$GPGGA,232318.00,4737.5644843,N,12220.3049828,W,4,19,0.7,2.4454,M,-17.3240,M,2.0,0000*78
$GPGGA,232319.00,4737.5644840,N,12220.3049822,W,4,19,0.7,2.4511,M,-17.3240,M,2.0,0000*70
$GPGGA,232320.00,4737.5644844,N,12220.3049793,W,4,19,0.7,2.4530,M,-17.3240,M,2.0,0000*78
$GPGGA,232321.00,4737.5644872,N,12220.3049793,W,4,19,0.7,2.4576,M,-17.3240,M,2.0,0000*7E
$GPGGA,232322.00,4737.5644845,N,12220.3049827,W,4,19,0.7,2.4577,M,-17.3240,M,2.0,0000*78
$GPGGA,232323.00,4737.5644836,N,12220.3049824,W,4,19,0.7,2.4502,M,-17.3240,M,2.0,0000*7C
$GPGGA,232324.00,4737.5644825,N,12220.3049857,W,4,19,0.7,2.4443,M,-17.3240,M,2.0,0000*79
$GPGGA,232325.00,4737.5644805,N,12220.3049886,W,4,19,0.7,2.4453,M,-17.3240,M,2.0,0000*77
$GPGGA,232326.00,4737.5644788,N,12220.3049878,W,4,19,0.7,2.4427,M,-17.3240,M,2.0,0000*7C
$GPGGA,232327.00,4737.5644802,N,12220.3049908,W,4,19,0.7,2.4607,M,-17.3240,M,2.0,0000*76
$GPGGA,232328.00,4737.5644834,N,12220.3049861,W,4,19,0.7,2.4564,M,-17.3240,M,2.0,0000*74
$GPGGA,232329.00,4737.5644858,N,12220.3049849,W,4,18,0.7,2.4587,M,-17.3240,M,2.0,0000*79
$GPGGA,232330.00,4737.5644879,N,12220.3049847,W,4,18,0.7,2.4670,M,-17.3240,M,2.0,0000*77
$GPGGA,232331.00,4737.5644867,N,12220.3049854,W,4,18,0.7,2.4656,M,-17.3240,M,2.0,0000*7F
$GPGGA,232332.00,4737.5644846,N,12220.3049874,W,4,18,0.7,2.4585,M,-17.3240,M,2.0,0000*70
$GPGGA,232333.00,4737.5644852,N,12220.3049872,W,4,18,0.7,2.4555,M,-17.3240,M,2.0,0000*7F
$GPGGA,232334.00,4737.5644844,N,12220.3049843,W,4,18,0.7,2.4647,M,-17.3240,M,1.0,0000*7E
$GPGGA,232335.00,4737.5644862,N,12220.3049847,W,4,18,0.7,2.4616,M,-17.3240,M,2.0,0000*78
$GPGGA,232336.00,4737.5644848,N,12220.3049823,W,4,18,0.7,2.4671,M,-17.3240,M,2.0,0000*70
$GPGGA,232337.00,4737.5644853,N,12220.3049837,W,4,18,0.7,2.4639,M,-17.3240,M,2.0,0000*72
$GPGGA,232338.00,4737.5644851,N,12220.3049852,W,4,18,0.7,2.4632,M,-17.3240,M,2.0,0000*77
$GPGGA,232339.00,4737.5644848,N,12220.3049857,W,4,18,0.7,2.4598,M,-17.3240,M,2.0,0000*78
$GPGGA,232340.00,4737.5644834,N,12220.3049840,W,4,18,0.7,2.4652,M,-17.3240,M,2.0,0000*7E
$GPGGA,232341.00,4737.5644852,N,12220.3049834,W,4,18,0.7,2.4672,M,-17.3240,M,2.0,0000*7E
$GPGGA,232342.00,4737.5644843,N,12220.3049829,W,4,18,0.7,2.4666,M,-17.3240,M,2.0,0000*74
$GPGGA,232343.00,4737.5644853,N,12220.3049852,W,4,18,0.7,2.4671,M,-17.3240,M,2.0,0000*7E
$GPGGA,232344.00,4737.5644837,N,12220.3049851,W,4,18,0.7,2.4667,M,-17.3240,M,2.0,0000*7F
$GPGGA,232345.00,4737.5644825,N,12220.3049858,W,4,18,0.7,2.4636,M,-17.3240,M,2.0,0000*70
$GPGGA,232346.00,4737.5644808,N,12220.3049865,W,4,19,0.7,2.4619,M,-17.3240,M,2.0,0000*7E
$GPGGA,232347.00,4737.5644852,N,12220.3049892,W,4,19,0.7,2.4642,M,-17.3240,M,2.0,0000*76
$GPGGA,232348.00,4737.5644877,N,12220.3049843,W,4,19,0.7,2.4729,M,-17.3240,M,1.0,0000*7D
$GPGGA,232349.00,4737.5644852,N,12220.3049842,W,4,19,0.7,2.4618,M,-17.3240,M,2.0,0000*7A
$GPGGA,232350.00,4737.5644873,N,12220.3049833,W,4,19,0.7,2.4635,M,-17.3240,M,2.0,0000*78
$GPGGA,232351.00,4737.5644850,N,12220.3049848,W,4,19,0.7,2.4622,M,-17.3240,M,1.0,0000*71
$GPGGA,232352.00,4737.5644831,N,12220.3049841,W,4,18,0.7,2.4614,M,-17.3240,M,1.0,0000*78
$GPGGA,232353.00,4737.5644826,N,12220.3049842,W,4,17,0.8,2.4545,M,-17.3240,M,2.0,0000*78
$GPGGA,232354.00,4737.5644833,N,12220.3049852,W,4,17,0.8,2.4584,M,-17.3240,M,2.0,0000*77
$GPGGA,232355.00,4737.5644831,N,12220.3049834,W,4,17,0.8,2.4574,M,-17.3240,M,2.0,0000*7B
$GPGGA,232356.00,4737.5644867,N,12220.3049810,W,4,17,0.8,2.4681,M,-17.3240,M,2.0,0000*74
$GPGGA,232357.00,4737.5644883,N,12220.3049795,W,4,17,0.8,2.4627,M,-17.3240,M,2.0,0000*71
$GPGGA,232358.00,4737.5644879,N,12220.3049773,W,4,17,0.8,2.4626,M,-17.3240,M,2.0,0000*72
$GPGGA,232359.00,4737.5644902,N,12220.3049790,W,4,17,0.8,2.4680,M,-17.3240,M,2.0,0000*7F
$GPGGA,232400.00,4737.5644866,N,12220.3049808,W,4,17,0.8,2.4636,M,-17.3240,M,2.0,0000*74
$GPGGA,232401.00,4737.5644856,N,12220.3049812,W,4,17,0.8,2.4618,M,-17.3240,M,2.0,0000*71
$GPGGA,232402.00,4737.5644867,N,12220.3049833,W,4,17,0.8,2.4607,M,-17.3240,M,1.0,0000*7E
$GPGGA,232403.00,4737.5644880,N,12220.3049812,W,4,18,0.7,2.4620,M,-17.3240,M,2.0,0000*73
$GPGGA,232404.00,4737.5644847,N,12220.3049795,W,4,18,0.7,2.4642,M,-17.3240,M,2.0,0000*7B
$GPGGA,232405.00,4737.5644843,N,12220.3049816,W,4,18,0.7,2.4556,M,-17.3240,M,2.0,0000*7C
$GPGGA,232406.00,4737.5644842,N,12220.3049813,W,4,18,0.7,2.4563,M,-17.3240,M,2.0,0000*7D
$GPGGA,232407.00,4737.5644863,N,12220.3049826,W,4,18,0.7,2.4603,M,-17.3240,M,2.0,0000*7C
$GPGGA,232408.00,4737.5644871,N,12220.3049834,W,4,18,0.7,2.4575,M,-17.3240,M,2.0,0000*71
$GPGGA,232409.00,4737.5644879,N,12220.3049864,W,4,18,0.7,2.4631,M,-17.3240,M,2.0,0000*7E
$GPGGA,232410.00,4737.5644863,N,12220.3049840,W,4,18,0.7,2.4634,M,-17.3240,M,2.0,0000*7E
$GPGGA,232411.00,4737.5644866,N,12220.3049839,W,4,18,0.7,2.4595,M,-17.3240,M,2.0,0000*7C
$GPGGA,232412.00,4737.5644852,N,12220.3049832,W,4,18,0.7,2.4522,M,-17.3240,M,2.0,0000*7F
$GPGGA,232413.00,4737.5644855,N,12220.3049844,W,4,18,0.7,2.4555,M,-17.3240,M,2.0,0000*78
$GPGGA,232414.00,4737.5644879,N,12220.3049836,W,4,18,0.7,2.4667,M,-17.3240,M,1.0,0000*75
$GPGGA,232415.00,4737.5644851,N,12220.3049839,W,4,18,0.7,2.4604,M,-17.3240,M,2.0,0000*77
$GPGGA,232416.00,4737.5644851,N,12220.3049853,W,4,18,0.7,2.4560,M,-17.3240,M,2.0,0000*79
$GPGGA,232417.00,4737.5644856,N,12220.3049861,W,4,18,0.7,2.4533,M,-17.3240,M,2.0,0000*78
$GPGGA,232418.00,4737.5644843,N,12220.3049868,W,4,18,0.7,2.4603,M,-17.3240,M,2.0,0000*7A
$GPGGA,232419.00,4737.5644857,N,12220.3049856,W,4,18,0.7,2.4596,M,-17.3240,M,2.0,0000*7C
$GPGGA,232420.00,4737.5644865,N,12220.3049849,W,4,18,0.7,2.4603,M,-17.3240,M,2.0,0000*76
$GPGGA,232421.00,4737.5644853,N,12220.3049844,W,4,18,0.7,2.4638,M,-17.3240,M,2.0,0000*77
$GPGGA,232422.00,4737.5644863,N,12220.3049873,W,4,18,0.7,2.4631,M,-17.3240,M,2.0,0000*7A
$GPGGA,232423.00,4737.5644857,N,12220.3049846,W,4,18,0.7,2.4656,M,-17.3240,M,1.0,0000*78
$GPGGA,232424.00,4737.5644852,N,12220.3049837,W,4,18,0.7,2.4627,M,-17.3240,M,2.0,0000*79
$GPGGA,232425.00,4737.5644857,N,12220.3049840,W,4,18,0.7,2.4608,M,-17.3240,M,1.0,0000*73
$GPGGA,232426.00,4737.5644862,N,12220.3049825,W,4,18,0.7,2.4669,M,-17.3240,M,2.0,0000*71
$GPGGA,232427.00,4737.5644845,N,12220.3049841,W,4,18,0.7,2.4627,M,-17.3240,M,2.0,0000*7D
$GPGGA,232428.00,4737.5644838,N,12220.3049854,W,4,18,0.7,2.4604,M,-17.3240,M,2.0,0000*7D
$GPGGA,232429.00,4737.5644810,N,12220.3049863,W,4,18,0.7,2.4550,M,-17.3240,M,2.0,0000*70
$GPGGA,232430.00,4737.5644809,N,12220.3049871,W,4,18,0.7,2.4526,M,-17.3240,M,2.0,0000*72
$GPGGA,232431.00,4737.5644809,N,12220.3049866,W,4,18,0.7,2.4555,M,-17.3240,M,2.0,0000*71
$GPGGA,232432.00,4737.5644839,N,12220.3049851,W,4,18,0.7,2.4640,M,-17.3240,M,2.0,0000*72
$GPGGA,232433.00,4737.5644850,N,12220.3049838,W,4,18,0.7,2.4673,M,-17.3240,M,2.0,0000*73
$GPGGA,232434.00,4737.5644860,N,12220.3049848,W,4,18,0.7,2.4762,M,-17.3240,M,2.0,0000*71
$GPGGA,232435.00,4737.5644843,N,12220.3049846,W,4,18,0.7,2.4673,M,-17.3240,M,2.0,0000*7E
$GPGGA,232436.00,4737.5644848,N,12220.3049852,W,4,18,0.7,2.4625,M,-17.3240,M,2.0,0000*70
$GPGGA,232437.00,4737.5644834,N,12220.3049854,W,4,18,0.7,2.4674,M,-17.3240,M,1.0,0000*7B
$GPGGA,232438.00,4737.5644840,N,12220.3049856,W,4,18,0.7,2.4648,M,-17.3240,M,2.0,0000*79
$GPGGA,232439.00,4737.5644866,N,12220.3049860,W,4,18,0.7,2.4716,M,-17.3240,M,2.0,0000*73
$GPGGA,232440.00,4737.5644862,N,12220.3049855,W,4,18,0.7,2.4724,M,-17.3240,M,2.0,0000*7E
$GPGGA,232441.00,4737.5644858,N,12220.3049849,W,4,18,0.7,2.4714,M,-17.3240,M,2.0,0000*78
$GPGGA,232442.00,4737.5644839,N,12220.3049860,W,4,18,0.7,2.4597,M,-17.3240,M,1.0,0000*7D
$GPGGA,232443.00,4737.5644844,N,12220.3049850,W,4,18,0.7,2.4575,M,-17.3240,M,2.0,0000*7A
$GPGGA,232444.00,4737.5644853,N,12220.3049872,W,4,18,0.7,2.4559,M,-17.3240,M,2.0,0000*75
$GPGGA,232445.00,4737.5644845,N,12220.3049859,W,4,18,0.7,2.4559,M,-17.3240,M,2.0,0000*7A
$GPGGA,232446.00,4737.5644836,N,12220.3049873,W,4,18,0.7,2.4565,M,-17.3240,M,2.0,0000*7A
$GPGGA,232447.00,4737.5644865,N,12220.3049855,W,4,18,0.7,2.4666,M,-17.3240,M,2.0,0000*79
$GPGGA,232448.00,4737.5644860,N,12220.3049850,W,4,18,0.7,2.4620,M,-17.3240,M,2.0,0000*74
$GPGGA,232449.00,4737.5644879,N,12220.3049857,W,4,18,0.7,2.4684,M,-17.3240,M,2.0,0000*74
$GPGGA,232450.00,4737.5644861,N,12220.3049848,W,4,18,0.7,2.4680,M,-17.3240,M,2.0,0000*7F
$GPGGA,232451.00,4737.5644836,N,12220.3049833,W,4,18,0.7,2.4674,M,-17.3240,M,2.0,0000*7B
$GPGGA,232452.00,4737.5644810,N,12220.3049884,W,4,18,0.7,2.4577,M,-17.3240,M,1.0,0000*73
$GPGGA,232453.00,4737.5644808,N,12220.3049872,W,4,18,0.7,2.4600,M,-17.3240,M,2.0,0000*72
$GPGGA,232454.00,4737.5644815,N,12220.3049889,W,4,18,0.7,2.4597,M,-17.3240,M,1.0,0000*73
$GPGGA,232455.00,4737.5644807,N,12220.3049880,W,4,18,0.7,2.4638,M,-17.3240,M,2.0,0000*7D
$GPGGA,232456.00,4737.5644817,N,12220.3049855,W,4,18,0.7,2.4669,M,-17.3240,M,2.0,0000*73
$GPGGA,232457.00,4737.5644829,N,12220.3049860,W,4,18,0.7,2.4711,M,-17.3240,M,2.0,0000*77
$GPGGA,232458.00,4737.5644847,N,12220.3049858,W,4,18,0.7,2.4764,M,-17.3240,M,2.0,0000*79
$GPGGA,232459.00,4737.5644850,N,12220.3049850,W,4,18,0.7,2.4761,M,-17.3240,M,2.0,0000*73
$GPGGA,232500.00,4737.5644837,N,12220.3049862,W,4,18,0.7,2.4635,M,-17.3240,M,2.0,0000*7E
$GPGGA,232501.00,4737.5644829,N,12220.3049870,W,4,18,0.7,2.4580,M,-17.3240,M,2.0,0000*7E
$GPGGA,232502.00,4737.5644820,N,12220.3049902,W,4,18,0.7,2.4618,M,-17.3240,M,2.0,0000*72
$GPGGA,232503.00,4737.5644824,N,12220.3049925,W,4,18,0.7,2.4642,M,-17.3240,M,2.0,0000*7D
$GPGGA,232504.00,4737.5644815,N,12220.3049902,W,4,18,0.7,2.4725,M,-17.3240,M,2.0,0000*7D
$GPGGA,232505.00,4737.5644820,N,12220.3049899,W,4,18,0.7,2.4768,M,-17.3240,M,2.0,0000*70
$GPGGA,232506.00,4737.5644817,N,12220.3049908,W,4,18,0.7,2.4619,M,-17.3240,M,2.0,0000*79
$GPGGA,232507.00,4737.5644824,N,12220.3049898,W,4,18,0.7,2.4571,M,-17.3240,M,2.0,0000*7D
$GPGGA,232508.00,4737.5644815,N,12220.3049900,W,4,18,0.7,2.4583,M,-17.3240,M,2.0,0000*7D
$GPGGA,232509.00,4737.5644834,N,12220.3049898,W,4,18,0.7,2.4632,M,-17.3240,M,2.0,0000*76
$GPGGA,232510.00,4737.5644828,N,12220.3049915,W,4,18,0.7,2.4598,M,-17.3240,M,1.0,0000*77
$GPGGA,232511.00,4737.5644817,N,12220.3049905,W,4,18,0.7,2.4593,M,-17.3240,M,2.0,0000*73
$GPGGA,232512.00,4737.5644799,N,12220.3049918,W,4,18,0.7,2.4563,M,-17.3240,M,2.0,0000*7A
$GPGGA,232513.00,4737.5644820,N,12220.3049913,W,4,18,0.7,2.4555,M,-17.3240,M,2.0,0000*78
$GPGGA,232514.00,4737.5644836,N,12220.3049910,W,4,18,0.7,2.4593,M,-17.3240,M,2.0,0000*71
$GPGGA,232515.00,4737.5644827,N,12220.3049882,W,4,18,0.7,2.4580,M,-17.3240,M,2.0,0000*78
$GPGGA,232516.00,4737.5644837,N,12220.3049904,W,4,16,0.8,2.4578,M,-17.3240,M,2.0,0000*73
$GPGGA,232517.00,4737.5644810,N,12220.3049935,W,4,16,0.8,2.4417,M,-17.3240,M,1.0,0000*7E
$GPGGA,232518.00,4737.5644801,N,12220.3049944,W,4,18,0.7,2.4488,M,-17.3240,M,2.0,0000*73
$GPGGA,232519.00,4737.5644800,N,12220.3049969,W,4,18,0.7,2.4444,M,-17.3240,M,2.0,0000*7C
$GPGGA,232520.00,4737.5644795,N,12220.3049956,W,4,18,0.7,2.4470,M,-17.3240,M,2.0,0000*7E
$GPGGA,232521.00,4737.5644802,N,12220.3049932,W,4,18,0.7,2.4501,M,-17.3240,M,2.0,0000*7B
$GPGGA,232522.00,4737.5644812,N,12220.3049912,W,4,18,0.7,2.4482,M,-17.3240,M,2.0,0000*71
$GPGGA,232523.00,4737.5644807,N,12220.3049907,W,4,18,0.7,2.4474,M,-17.3240,M,2.0,0000*79
$GPGGA,232524.00,4737.5644805,N,12220.3049936,W,4,18,0.7,2.4445,M,-17.3240,M,2.0,0000*7C
$GPGGA,232525.00,4737.5644815,N,12220.3049932,W,4,15,0.9,2.4517,M,-17.3240,M,2.0,0000*7D
$GPGGA,232526.00,4737.5644807,N,12220.3049932,W,4,17,0.8,2.4460,M,-17.3240,M,2.0,0000*7F
$GPGGA,232527.00,4737.5644791,N,12220.3049951,W,4,18,0.7,2.4385,M,-17.3240,M,2.0,0000*77
$GPGGA,232528.00,4737.5644783,N,12220.3049965,W,4,18,0.7,2.4368,M,-17.3240,M,2.0,0000*7F
$GPGGA,232529.00,4737.5644766,N,12220.3049967,W,4,18,0.7,2.4347,M,-17.3240,M,2.0,0000*7A
$GPGGA,232530.00,4737.5644762,N,12220.3049956,W,4,18,0.7,2.4285,M,-17.3240,M,2.0,0000*7B
$GPGGA,232531.00,4737.5644800,N,12220.3049973,W,4,18,0.7,2.4364,M,-17.3240,M,2.0,0000*78
$GPGGA,232532.00,4737.5644819,N,12220.3049962,W,4,18,0.7,2.4430,M,-17.3240,M,2.0,0000*75
$GPGGA,232533.00,4737.5644815,N,12220.3049943,W,4,18,0.7,2.4411,M,-17.3240,M,2.0,0000*78
$GPGGA,232534.00,4737.5644814,N,12220.3049947,W,4,18,0.7,2.4451,M,-17.3240,M,2.0,0000*7E
$GPGGA,232535.00,4737.5644781,N,12220.3049958,W,4,18,0.7,2.4404,M,-17.3240,M,2.0,0000*72
$GPGGA,232536.00,4737.5644769,N,12220.3049981,W,4,18,0.7,2.4404,M,-17.3240,M,2.0,0000*73
$GPGGA,232537.00,4737.5644760,N,12220.3049959,W,4,18,0.7,2.4462,M,-17.3240,M,2.0,0000*7E
$GPGGA,232538.00,4737.5644763,N,12220.3049971,W,4,18,0.7,2.4407,M,-17.3240,M,2.0,0000*7B
$GPGGA,232539.00,4737.5644779,N,12220.3049958,W,4,18,0.7,2.4426,M,-17.3240,M,2.0,0000*79
$GPGGA,232540.00,4737.5644763,N,12220.3049980,W,4,18,0.7,2.4400,M,-17.3240,M,1.0,0000*7E
$GPGGA,232541.00,4737.5644755,N,12220.3049992,W,4,18,0.7,2.4404,M,-17.3240,M,2.0,0000*7E
$GPGGA,232542.00,4737.5644757,N,12220.3049989,W,4,18,0.7,2.4441,M,-17.3240,M,1.0,0000*77
$GPGGA,232543.00,4737.5644761,N,12220.3049977,W,4,18,0.7,2.4449,M,-17.3240,M,2.0,0000*79
$GPGGA,232544.00,4737.5644749,N,12220.3049977,W,4,18,0.7,2.4451,M,-17.3240,M,2.0,0000*7D
$GPGGA,232545.00,4737.5644763,N,12220.3049986,W,4,18,0.7,2.4499,M,-17.3240,M,2.0,0000*7E
$GPGGA,232546.00,4737.5644760,N,12220.3049984,W,4,18,0.7,2.4450,M,-17.3240,M,2.0,0000*79
$GPGGA,232547.00,4737.5644738,N,12220.3049989,W,4,18,0.7,2.4395,M,-17.3240,M,2.0,0000*76
$GPGGA,232548.00,4737.5644758,N,12220.3049994,W,4,18,0.7,2.4442,M,-17.3240,M,2.0,0000*7E
$GPGGA,232549.00,4737.5644750,N,12220.3049978,W,4,18,0.7,2.4407,M,-17.3240,M,2.0,0000*74
$GPGGA,232550.00,4737.5644752,N,12220.3049969,W,4,18,0.7,2.4409,M,-17.3240,M,2.0,0000*70
$GPGGA,232551.00,4737.5644757,N,12220.3049989,W,4,18,0.7,2.4417,M,-17.3240,M,2.0,0000*75
$GPGGA,232552.00,4737.5644751,N,12220.3049984,W,4,18,0.7,2.4426,M,-17.3240,M,2.0,0000*7F
$GPGGA,232553.00,4737.5644760,N,12220.3049997,W,4,18,0.7,2.4390,M,-17.3240,M,2.0,0000*74
$GPGGA,232554.00,4737.5644763,N,12220.3049973,W,4,18,0.7,2.4447,M,-17.3240,M,1.0,0000*74
$GPGGA,232555.00,4737.5644768,N,12220.3049962,W,4,18,0.7,2.4432,M,-17.3240,M,2.0,0000*7F
$GPGGA,232556.00,4737.5644780,N,12220.3049954,W,4,18,0.7,2.4522,M,-17.3240,M,2.0,0000*7F
$GPGGA,232557.00,4737.5644760,N,12220.3049985,W,4,18,0.7,2.4513,M,-17.3240,M,2.0,0000*7E
$GPGGA,232558.00,4737.5644753,N,12220.3049998,W,4,18,0.7,2.4471,M,-17.3240,M,2.0,0000*78
$GPGGA,232559.00,4737.5644744,N,12220.3049997,W,4,18,0.7,2.4507,M,-17.3240,M,2.0,0000*70
$GPGGA,232600.00,4737.5644718,N,12220.3050004,W,4,18,0.7,2.4478,M,-17.3240,M,2.0,0000*74
$GPGGA,232601.00,4737.5644711,N,12220.3049984,W,4,18,0.7,2.4514,M,-17.3240,M,2.0,0000*7E
$GPGGA,232602.00,4737.5644729,N,12220.3049975,W,4,18,0.7,2.4480,M,-17.3240,M,2.0,0000*74
$GPGGA,232603.00,4737.5644771,N,12220.3049984,W,4,18,0.7,2.4530,M,-17.3240,M,2.0,0000*7C
$GPGGA,232604.00,4737.5644777,N,12220.3049978,W,4,18,0.7,2.4587,M,-17.3240,M,2.0,0000*72
$GPGGA,232605.00,4737.5644763,N,12220.3049982,W,4,18,0.7,2.4556,M,-17.3240,M,2.0,0000*7F
$GPGGA,232606.00,4737.5644749,N,12220.3049973,W,4,18,0.7,2.4597,M,-17.3240,M,1.0,0000*74
$GPGGA,232607.00,4737.5644736,N,12220.3049968,W,4,18,0.7,2.4669,M,-17.3240,M,2.0,0000*76
$GPGGA,232608.00,4737.5644759,N,12220.3049964,W,4,18,0.7,2.4579,M,-17.3240,M,2.0,0000*7E
$GPGGA,232609.00,4737.5644763,N,12220.3049995,W,4,18,0.7,2.4592,M,-17.3240,M,2.0,0000*7D
$GPGGA,232610.00,4737.5644777,N,12220.3049978,W,4,18,0.7,2.4579,M,-17.3240,M,2.0,0000*76
$GPGGA,232611.00,4737.5644762,N,12220.3049975,W,4,15,0.9,2.4557,M,-17.3240,M,2.0,0000*71
$GPGGA,232612.00,4737.5644763,N,12220.3049944,W,4,18,0.7,2.4512,M,-17.3240,M,2.0,0000*73
$GPGGA,232613.00,4737.5644767,N,12220.3050001,W,4,18,0.7,2.4438,M,-17.3240,M,2.0,0000*7F
$GPGGA,232614.00,4737.5644775,N,12220.3050014,W,4,18,0.7,2.4468,M,-17.3240,M,2.0,0000*7A
$GPGGA,232615.00,4737.5644767,N,12220.3049969,W,4,18,0.7,2.4486,M,-17.3240,M,2.0,0000*73
$GPGGA,232616.00,4737.5644787,N,12220.3049976,W,4,18,0.7,2.4489,M,-17.3240,M,2.0,0000*7F
$GPGGA,232617.00,4737.5644777,N,12220.3049994,W,4,18,0.7,2.4446,M,-17.3240,M,2.0,0000*7E
$GPGGA,232618.00,4737.5644786,N,12220.3049984,W,4,18,0.7,2.4479,M,-17.3240,M,2.0,0000*72
$GPGGA,232619.00,4737.5644795,N,12220.3049980,W,4,18,0.7,2.4466,M,-17.3240,M,2.0,0000*7B
$GPGGA,232620.00,4737.5644819,N,12220.3049965,W,4,18,0.7,2.4495,M,-17.3240,M,2.0,0000*7D
$GPGGA,232621.00,4737.5644800,N,12220.3049970,W,4,18,0.7,2.4499,M,-17.3240,M,2.0,0000*7C
$GPGGA,232622.00,4737.5644769,N,12220.3049971,W,4,18,0.7,2.4476,M,-17.3240,M,2.0,0000*7F
$GPGGA,232623.00,4737.5644761,N,12220.3049995,W,4,18,0.7,2.4434,M,-17.3240,M,2.0,0000*7A
$GPGGA,232624.00,4737.5644751,N,12220.3049979,W,4,18,0.7,2.4374,M,-17.3240,M,2.0,0000*7F
$GPGGA,232625.00,4737.5644777,N,12220.3049965,W,4,18,0.7,2.4424,M,-17.3240,M,2.0,0000*75
$GPGGA,232626.00,4737.5644808,N,12220.3049949,W,4,18,0.7,2.4499,M,-17.3240,M,1.0,0000*7A
$GPGGA,232627.00,4737.5644794,N,12220.3049949,W,4,18,0.7,2.4453,M,-17.3240,M,2.0,0000*74
$GPGGA,232628.00,4737.5644784,N,12220.3049966,W,4,18,0.7,2.4489,M,-17.3240,M,2.0,0000*70
$GPGGA,232629.00,4737.5644776,N,12220.3049978,W,4,18,0.7,2.4479,M,-17.3240,M,2.0,0000*7C
$GPGGA,232630.00,4737.5644774,N,12220.3049958,W,4,18,0.7,2.4472,M,-17.3240,M,1.0,0000*7C
$GPGGA,232631.00,4737.5644753,N,12220.3049977,W,4,16,0.8,2.4444,M,-17.3240,M,2.0,0000*72
$GPGGA,232632.00,4737.5644775,N,12220.3049973,W,4,17,0.8,2.4471,M,-17.3240,M,1.0,0000*75
$GPGGA,232633.00,4737.5644808,N,12220.3049958,W,4,18,0.7,2.4466,M,-17.3240,M,2.0,0000*7D
$GPGGA,232634.00,4737.5644810,N,12220.3049962,W,4,18,0.7,2.4484,M,-17.3240,M,2.0,0000*76
$GPGGA,232635.00,4737.5644790,N,12220.3049961,W,4,18,0.7,2.4401,M,-17.3240,M,2.0,0000*7E
$GPGGA,232636.00,4737.5644777,N,12220.3049957,W,4,18,0.7,2.4388,M,-17.3240,M,2.0,0000*77
$GPGGA,232637.00,4737.5644777,N,12220.3049976,W,4,18,0.7,2.4398,M,-17.3240,M,2.0,0000*74
$GPGGA,232638.00,4737.5644771,N,12220.3049956,W,4,18,0.7,2.4457,M,-17.3240,M,2.0,0000*7B
$GPGGA,232639.00,4737.5644780,N,12220.3049974,W,4,18,0.7,2.4424,M,-17.3240,M,2.0,0000*70
$GPGGA,232640.00,4737.5644796,N,12220.3049959,W,4,18,0.7,2.4402,M,-17.3240,M,2.0,0000*72
$GPGGA,232641.00,4737.5644791,N,12220.3049939,W,4,18,0.7,2.4455,M,-17.3240,M,2.0,0000*70
$GPGGA,232642.00,4737.5644764,N,12220.3049935,W,4,18,0.7,2.4424,M,-17.3240,M,2.0,0000*73
$GPGGA,232643.00,4737.5644753,N,12220.3049963,W,4,18,0.7,2.4383,M,-17.3240,M,2.0,0000*7F
$GPGGA,232644.00,4737.5644740,N,12220.3049978,W,4,18,0.7,2.4419,M,-17.3240,M,2.0,0000*74
$GPGGA,232645.00,4737.5644744,N,12220.3049977,W,4,18,0.7,2.4377,M,-17.3240,M,2.0,0000*71
$GPGGA,232646.00,4737.5644770,N,12220.3049977,W,4,18,0.7,2.4383,M,-17.3240,M,2.0,0000*7E
$GPGGA,232647.00,4737.5644779,N,12220.3049956,W,4,18,0.7,2.4389,M,-17.3240,M,2.0,0000*7F
$GPGGA,232648.00,4737.5644800,N,12220.3049951,W,4,18,0.7,2.4360,M,-17.3240,M,2.0,0000*71
$GPGGA,232649.00,4737.5644801,N,12220.3049945,W,4,17,0.7,2.4412,M,-17.3240,M,2.0,0000*79
$GPGGA,232650.00,4737.5644767,N,12220.3049945,W,4,14,1.0,2.4339,M,-17.3240,M,1.0,0000*76
$GPGGA,232651.00,4737.5644786,N,12220.3049997,W,4,17,0.8,2.4469,M,-17.3240,M,2.0,0000*7C
$GPGGA,232652.00,4737.5644764,N,12220.3049996,W,4,17,0.8,2.4314,M,-17.3240,M,2.0,0000*7F
$GPGGA,232653.00,4737.5644748,N,12220.3049973,W,4,17,0.8,2.4259,M,-17.3240,M,2.0,0000*73
$GPGGA,232654.00,4737.5644723,N,12220.3050006,W,4,17,0.7,2.4359,M,-17.3240,M,2.0,0000*74
$GPGGA,232655.00,4737.5644713,N,12220.3049935,W,4,17,0.8,2.4269,M,-17.3240,M,2.0,0000*7A
$GPGGA,232656.00,4737.5644741,N,12220.3049878,W,4,16,0.8,2.4428,M,-17.3240,M,2.0,0000*74
$GPGGA,232657.00,4737.5644781,N,12220.3049920,W,4,16,0.8,2.4324,M,-17.3240,M,1.0,0000*7D
$GPGGA,232658.00,4737.5644774,N,12220.3049956,W,4,18,0.7,2.4243,M,-17.3240,M,2.0,0000*7B
$GPGGA,232659.00,4737.5644791,N,12220.3049957,W,4,18,0.7,2.4340,M,-17.3240,M,2.0,0000*72
$GPGGA,232700.00,4737.5644804,N,12220.3049986,W,4,18,0.7,2.4331,M,-17.3240,M,2.0,0000*76
$GPGGA,232701.00,4737.5644784,N,12220.3049933,W,4,18,0.7,2.4331,M,-17.3240,M,3.0,0000*7F
$GPGGA,232702.00,4737.5644785,N,12220.3049922,W,4,18,0.7,2.4382,M,-17.3240,M,2.0,0000*74
$GPGGA,232703.00,4737.5644792,N,12220.3049941,W,4,18,0.7,2.4355,M,-17.3240,M,2.0,0000*7C
$GPGGA,232704.00,4737.5644791,N,12220.3049936,W,4,18,0.7,2.4293,M,-17.3240,M,2.0,0000*73
$GPGGA,232705.00,4737.5644788,N,12220.3049940,W,4,18,0.7,2.4308,M,-17.3240,M,2.0,0000*78
$GPGGA,232706.00,4737.5644801,N,12220.3049936,W,4,18,0.7,2.4316,M,-17.3240,M,2.0,0000*7B
$GPGGA,232707.00,4737.5644796,N,12220.3049930,W,4,18,0.7,2.4324,M,-17.3240,M,2.0,0000*7C
$GPGGA,232708.00,4737.5644782,N,12220.3049932,W,4,18,0.7,2.4323,M,-17.3240,M,2.0,0000*73
$GPGGA,232709.00,4737.5644768,N,12220.3049942,W,4,18,0.7,2.4291,M,-17.3240,M,2.0,0000*79
$GPGGA,232710.00,4737.5644765,N,12220.3049943,W,4,18,0.7,2.4280,M,-17.3240,M,2.0,0000*7D
$GPGGA,232711.00,4737.5644800,N,12220.3049959,W,4,18,0.7,2.4325,M,-17.3240,M,1.0,0000*76
$GPGGA,232712.00,4737.5644805,N,12220.3049956,W,4,18,0.7,2.4342,M,-17.3240,M,2.0,0000*7D
$GPGGA,232713.00,4737.5644811,N,12220.3049947,W,4,18,0.7,2.4356,M,-17.3240,M,2.0,0000*7C
$GPGGA,232714.00,4737.5644809,N,12220.3049965,W,4,18,0.7,2.4327,M,-17.3240,M,2.0,0000*74
$GPGGA,232715.00,4737.5644785,N,12220.3049979,W,4,18,0.7,2.4272,M,-17.3240,M,2.0,0000*72
$GPGGA,232716.00,4737.5644787,N,12220.3049973,W,4,18,0.7,2.4246,M,-17.3240,M,2.0,0000*7E
$GPGGA,232717.00,4737.5644795,N,12220.3049976,W,4,18,0.7,2.4268,M,-17.3240,M,2.0,0000*75
$GPGGA,232718.00,4737.5644810,N,12220.3049967,W,4,18,0.7,2.4309,M,-17.3240,M,1.0,0000*7D
$GPGGA,232719.00,4737.5644799,N,12220.3049974,W,4,18,0.7,2.4234,M,-17.3240,M,2.0,0000*7C
$GPGGA,232720.00,4737.5644794,N,12220.3049966,W,4,18,0.7,2.4238,M,-17.3240,M,2.0,0000*74
$GPGGA,232721.00,4737.5644785,N,12220.3049981,W,4,18,0.7,2.4201,M,-17.3240,M,2.0,0000*76
$GPGGA,232722.00,4737.5644755,N,12220.3049983,W,4,15,0.9,2.4143,M,-17.3240,M,2.0,0000*7C
$GPGGA,232723.00,4737.5644780,N,12220.3049985,W,4,18,0.7,2.4199,M,-17.3240,M,2.0,0000*77
$GPGGA,232724.00,4737.5644807,N,12220.3049922,W,4,18,0.7,2.4168,M,-17.3240,M,2.0,0000*73
$GPGGA,232725.00,4737.5644796,N,12220.3049935,W,4,18,0.7,2.4282,M,-17.3240,M,2.0,0000*74
$GPGGA,232726.00,4737.5644799,N,12220.3049927,W,4,18,0.7,2.4250,M,-17.3240,M,2.0,0000*74
$GPGGA,232727.00,4737.5644826,N,12220.3049932,W,4,18,0.7,2.4279,M,-17.3240,M,2.0,0000*71
$GPGGA,232728.00,4737.5644828,N,12220.3049942,W,4,18,0.7,2.4255,M,-17.3240,M,2.0,0000*79
$GPGGA,232729.00,4737.5644823,N,12220.3049973,W,4,18,0.7,2.4236,M,-17.3240,M,2.0,0000*74
$GPGGA,232730.00,4737.5644828,N,12220.3049966,W,4,18,0.7,2.4242,M,-17.3240,M,2.0,0000*70
$GPGGA,232731.00,4737.5644811,N,12220.3049962,W,4,18,0.7,2.4197,M,-17.3240,M,2.0,0000*74
$GPGGA,232732.00,4737.5644806,N,12220.3049950,W,4,18,0.7,2.4171,M,-17.3240,M,2.0,0000*78
$GPGGA,232733.00,4737.5644804,N,12220.3049959,W,4,18,0.7,2.4133,M,-17.3240,M,2.0,0000*74
$GPGGA,232734.00,4737.5644805,N,12220.3049973,W,4,18,0.7,2.4140,M,-17.3240,M,2.0,0000*7E
$GPGGA,232735.00,4737.5644804,N,12220.3049954,W,4,18,0.7,2.4208,M,-17.3240,M,2.0,0000*74
$GPGGA,232736.00,4737.5644791,N,12220.3049949,W,4,18,0.7,2.4229,M,-17.3240,M,2.0,0000*7B
$GPGGA,232737.00,4737.5644770,N,12220.3049970,W,4,18,0.7,2.4205,M,-17.3240,M,2.0,0000*71
$GPGGA,232738.00,4737.5644769,N,12220.3049972,W,4,18,0.7,2.4188,M,-17.3240,M,2.0,0000*72
$GPGGA,232739.00,4737.5644766,N,12220.3049948,W,4,18,0.7,2.4199,M,-17.3240,M,2.0,0000*75
$GPGGA,232740.00,4737.5644785,N,12220.3049937,W,4,18,0.7,2.4205,M,-17.3240,M,2.0,0000*78
$GPGGA,232741.00,4737.5644804,N,12220.3049924,W,4,18,0.7,2.4219,M,-17.3240,M,2.0,0000*70
$GPGGA,232742.00,4737.5644823,N,12220.3049930,W,4,18,0.7,2.4208,M,-17.3240,M,2.0,0000*73
$GPGGA,232743.00,4737.5644796,N,12220.3049942,W,4,18,0.7,2.4189,M,-17.3240,M,2.0,0000*7C
$GPGGA,232744.00,4737.5644791,N,12220.3049961,W,4,18,0.7,2.4228,M,-17.3240,M,2.0,0000*75
$GPGGA,232745.00,4737.5644795,N,12220.3049958,W,4,18,0.7,2.4227,M,-17.3240,M,2.0,0000*75
$GPGGA,232746.00,4737.5644782,N,12220.3049973,W,4,18,0.7,2.4197,M,-17.3240,M,2.0,0000*71
$GPGGA,232747.00,4737.5644787,N,12220.3049965,W,4,18,0.7,2.4176,M,-17.3240,M,2.0,0000*7D
$GPGGA,232748.00,4737.5644802,N,12220.3049957,W,4,18,0.7,2.4177,M,-17.3240,M,2.0,0000*70
$GPGGA,232749.00,4737.5644790,N,12220.3049938,W,4,18,0.7,2.4214,M,-17.3240,M,2.0,0000*7A
$GPGGA,232750.00,4737.5644793,N,12220.3049927,W,4,18,0.7,2.4220,M,-17.3240,M,2.0,0000*78
$GPGGA,232751.00,4737.5644811,N,12220.3049895,W,4,16,0.8,2.4036,M,-17.3240,M,2.0,0000*70
$GPGGA,232752.00,4737.5644792,N,12220.3049919,W,4,16,0.8,2.4258,M,-17.3240,M,2.0,0000*78
$GPGGA,232753.00,4737.5644771,N,12220.3049925,W,4,18,0.7,2.4266,M,-17.3240,M,2.0,0000*77
$GPGGA,232754.00,4737.5644757,N,12220.3049956,W,4,18,0.7,2.4274,M,-17.3240,M,2.0,0000*73
$GPGGA,232755.00,4737.5644737,N,12220.3049967,W,4,18,0.7,2.4261,M,-17.3240,M,2.0,0000*72
$GPGGA,232756.00,4737.5644742,N,12220.3049966,W,4,18,0.7,2.4262,M,-17.3240,M,2.0,0000*71
$GPGGA,232757.00,4737.5644769,N,12220.3049962,W,4,18,0.7,2.4244,M,-17.3240,M,2.0,0000*79
$GPGGA,232758.00,4737.5644792,N,12220.3049954,W,4,18,0.7,2.4215,M,-17.3240,M,2.0,0000*73
$GPGGA,232759.00,4737.5644792,N,12220.3049959,W,4,17,0.7,2.4277,M,-17.3240,M,2.0,0000*74
$GPGGA,232800.00,4737.5644801,N,12220.3049953,W,4,17,0.7,2.4335,M,-17.3240,M,2.0,0000*7F
$GPGGA,232801.00,4737.5644757,N,12220.3049979,W,4,17,0.7,2.4263,M,-17.3240,M,2.0,0000*78
$GPGGA,232802.00,4737.5644751,N,12220.3049974,W,4,17,0.7,2.4285,M,-17.3240,M,2.0,0000*78
$GPGGA,232803.00,4737.5644749,N,12220.3049976,W,4,17,0.7,2.4283,M,-17.3240,M,2.0,0000*74
$GPGGA,232804.00,4737.5644767,N,12220.3049997,W,4,17,0.7,2.4327,M,-17.3240,M,2.0,0000*7F
$GPGGA,232805.00,4737.5644777,N,12220.3050018,W,4,17,0.7,2.4331,M,-17.3240,M,2.0,0000*7E
$GPGGA,232806.00,4737.5644797,N,12220.3049999,W,4,17,0.7,2.4377,M,-17.3240,M,2.0,0000*79
$GPGGA,232807.00,4737.5644777,N,12220.3049995,W,4,17,0.7,2.4348,M,-17.3240,M,2.0,0000*76
$GPGGA,232808.00,4737.5644789,N,12220.3049994,W,4,17,0.7,2.4348,M,-17.3240,M,2.0,0000*79
$GPGGA,232809.00,4737.5644766,N,12220.3049996,W,4,17,0.7,2.4321,M,-17.3240,M,2.0,0000*74
$GPGGA,232810.00,4737.5644738,N,12220.3049985,W,4,17,0.7,2.4361,M,-17.3240,M,2.0,0000*71
$GPGGA,232811.00,4737.5644745,N,12220.3050003,W,4,17,0.7,2.4403,M,-17.3240,M,2.0,0000*76
$GPGGA,232812.00,4737.5644721,N,12220.3050005,W,4,17,0.7,2.4390,M,-17.3240,M,2.0,0000*7C
$GPGGA,232813.00,4737.5644733,N,12220.3049991,W,4,17,0.7,2.4401,M,-17.3240,M,2.0,0000*7D
