$GPGGA,003311.00,,,,,0,00,,,M,,M,,*48
$GPGGA,003311.10,,,,,0,00,,,M,,M,,*49
$GPGGA,003312.00,,,,,0,00,,,M,,M,,*4B
$GPGGA,003313.00,,,,,0,00,,,M,,M,,*4A
$GPGGA,003314.00,,,,,0,00,,,M,,M,,*4D
$GPGGA,003315.00,,,,,0,00,,,M,,M,,*4C
$GPGGA,003316.00,,,,,0,00,,,M,,M,,*4F
$GPGGA,003317.00,,,,,0,00,,,M,,M,,*4E
$GPGGA,003318.00,,,,,0,00,,,M,,M,,*41
$GPGGA,003319.00,,,,,0,00,,,M,,M,,*40
$GPGGA,003320.00,,,,,0,00,,,M,,M,,*4A
$GPGGA,003321.00,4737.3087036,N,12220.2754726,W,1,06,5.8,-29.9567,M,-17.3267,M,2.0,0000*60
$GPGGA,003322.00,4737.3080005,N,12220.2754348,W,1,06,5.4,-30.1380,M,-17.3267,M,2.0,0000*6B
$GPGGA,003323.00,4737.3084068,N,12220.2781106,W,1,07,5.1,-26.5562,M,-17.3268,M,2.0,0000*67
$GPGGA,003324.00,4737.3098624,N,12220.2899916,W,1,07,4.9,-4.7579,M,-17.3268,M,3.0,0000*5C
$GPGGA,003325.00,4737.3101086,N,12220.2940282,W,1,08,4.8,1.3546,M,-17.3269,M,2.0,0000*7F
$GPGGA,003326.00,4737.3100489,N,12220.2978200,W,1,07,6.5,5.7229,M,-17.3269,M,3.0,0000*78
$GPGGA,003327.00,4737.3100438,N,12220.3012386,W,2,09,4.0,11.9270,M,-17.3269,M,2.0,0000*44
$GPGGA,003328.00,4737.3102050,N,12220.3007935,W,1,10,3.6,11.9864,M,-17.3269,M,2.0,0000*40
$GPGGA,003329.00,4737.3103704,N,12220.2998760,W,2,10,3.6,12.2636,M,-17.3269,M,2.0,0000*44
$GPGGA,003330.00,4737.3104494,N,12220.2981944,W,1,09,3.7,11.5068,M,-17.3269,M,3.0,0000*43
$GPGGA,003331.00,4737.3103973,N,12220.2978229,W,2,10,3.6,13.1759,M,-17.3269,M,2.0,0000*4F
$GPGGA,003332.00,4737.3108705,N,12220.2939333,W,5,05,5.7,9.3580,M,-17.3269,M,3.0,0000*7D
$GPGGA,003333.00,4737.3112868,N,12220.2937386,W,5,05,5.7,9.7425,M,-17.3269,M,3.0,0000*79
$GPGGA,003334.00,4737.3120848,N,12220.2939695,W,5,06,3.7,7.2134,M,-17.3269,M,2.0,0000*7E
$GPGGA,003335.00,4737.3129139,N,12220.2954538,W,5,05,5.7,8.7423,M,-17.3269,M,2.0,0000*7A
$GPGGA,003336.00,4737.3129480,N,12220.2956817,W,5,06,3.7,8.9153,M,-17.3269,M,3.0,0000*74
$GPGGA,003337.00,4737.3126906,N,12220.2955402,W,2,11,2.7,11.4783,M,-17.3269,M,2.0,0000*4D
$GPGGA,003338.00,4737.3131539,N,12220.2949027,W,2,10,3.9,10.9206,M,-17.3269,M,2.0,0000*40
$GPGGA,003339.00,4737.3135864,N,12220.2941228,W,2,11,2.7,9.4008,M,-17.3268,M,2.0,0000*73
$GPGGA,003340.00,4737.3140758,N,12220.2944068,W,2,12,2.7,9.4768,M,-17.3268,M,3.0,0000*7F
$GPGGA,003341.00,4737.3148679,N,12220.2945962,W,2,12,2.7,8.9961,M,-17.3268,M,2.0,0000*7C
$GPGGA,003342.00,4737.3155623,N,12220.2951447,W,2,12,2.7,8.9064,M,-17.3268,M,2.0,0000*7F
$GPGGA,003343.00,4737.3161357,N,12220.2955246,W,2,12,2.7,8.4566,M,-17.3268,M,2.0,0000*76
$GPGGA,003344.00,4737.3167879,N,12220.2958295,W,2,12,2.7,8.5083,M,-17.3268,M,3.0,0000*7D
$GPGGA,003345.00,4737.3166791,N,12220.2984447,W,5,06,9.0,10.7354,M,-17.3268,M,2.0,0000*41
$GPGGA,003346.00,4737.3172694,N,12220.2979979,W,5,06,9.0,9.8836,M,-17.3268,M,3.0,0000*78
$GPGGA,003347.00,4737.3186727,N,12220.2951383,W,2,12,2.7,7.8416,M,-17.3268,M,2.0,0000*71
$GPGGA,003348.00,4737.3185721,N,12220.2972680,W,5,06,5.2,7.9851,M,-17.3268,M,2.0,0000*72
$GPGGA,003349.00,4737.3193521,N,12220.2979443,W,5,07,3.3,9.3464,M,-17.3268,M,2.0,0000*78
$GPGGA,003350.00,4737.3200317,N,12220.2987424,W,5,07,3.3,10.7046,M,-17.3268,M,2.0,0000*42
$GPGGA,003351.00,4737.3206361,N,12220.2987390,W,5,07,3.3,10.5424,M,-17.3268,M,2.0,0000*4E
$GPGGA,003352.00,4737.3212657,N,12220.2983371,W,5,08,1.7,9.5962,M,-17.3268,M,2.0,0000*7D
$GPGGA,003353.00,4737.3219375,N,12220.2981671,W,5,08,1.7,9.1372,M,-17.3268,M,3.0,0000*7B
$GPGGA,003354.00,4737.3226977,N,12220.2976848,W,5,08,1.7,8.2378,M,-17.3268,M,3.0,0000*7C
$GPGGA,003355.00,4737.3234426,N,12220.2974175,W,5,09,1.6,7.6069,M,-17.3267,M,2.0,0000*74
$GPGGA,003356.00,4737.3241951,N,12220.2974451,W,5,09,1.6,7.6574,M,-17.3267,M,3.0,0000*73
$GPGGA,003357.00,4737.3249513,N,12220.2975117,W,5,09,1.6,7.5647,M,-17.3267,M,2.0,0000*77
$GPGGA,003358.00,4737.3256778,N,12220.2976897,W,5,09,1.6,7.5817,M,-17.3267,M,2.0,0000*70
$GPGGA,003359.00,4737.3262752,N,12220.2978025,W,5,10,1.4,7.9183,M,-17.3267,M,3.0,0000*72
$GPGGA,003400.00,4737.3272055,N,12220.2975409,W,5,10,1.4,8.5412,M,-17.3267,M,2.0,0000*70
$GPGGA,003401.00,4737.3278984,N,12220.2973847,W,5,09,1.4,9.5870,M,-17.3267,M,2.0,0000*7F
$GPGGA,003402.00,,,,,0,00,,,M,,M,,*4D
$GPGGA,003403.00,,,,,0,00,,,M,,M,,*4C
$GPGGA,003404.00,4737.3286375,N,12220.2969345,W,1,10,2.0,9.2059,M,-17.3267,M,2.0,0000*72
$GPGGA,003405.00,4737.3289959,N,12220.2969219,W,1,10,2.0,9.0932,M,-17.3267,M,2.0,0000*76
$GPGGA,003406.00,4737.3290465,N,12220.2969374,W,1,11,1.8,8.8351,M,-17.3267,M,2.0,0000*79
$GPGGA,003407.00,4737.3290649,N,12220.2969380,W,1,11,1.8,8.9623,M,-17.3267,M,3.0,0000*7F
$GPGGA,003408.00,4737.3300178,N,12220.2953676,W,5,05,5.7,10.3168,M,-17.3267,M,2.0,0000*48
$GPGGA,003409.00,4737.3303356,N,12220.2953041,W,5,05,5.7,10.4995,M,-17.3267,M,2.0,0000*4B
$GPGGA,003410.00,4737.3306412,N,12220.2955148,W,5,05,6.4,12.3658,M,-17.3267,M,2.0,0000*44
$GPGGA,003411.00,4737.3311113,N,12220.2975652,W,2,11,1.8,13.0570,M,-17.3267,M,2.0,0000*4B
$GPGGA,003412.00,4737.3315984,N,12220.2976972,W,2,11,1.8,13.4067,M,-17.3267,M,2.0,0000*43
$GPGGA,003413.00,4737.3320727,N,12220.2977063,W,2,11,1.8,13.4104,M,-17.3267,M,2.0,0000*4F
$GPGGA,003414.00,4737.3325688,N,12220.2977287,W,2,12,1.8,13.5335,M,-17.3266,M,2.0,0000*42
$GPGGA,003415.00,4737.3330205,N,12220.2978379,W,2,12,1.8,13.4026,M,-17.3266,M,2.0,0000*49
$GPGGA,003416.00,4737.3335537,N,12220.2980042,W,2,12,1.8,13.1155,M,-17.3266,M,3.0,0000*44
$GPGGA,003417.00,4737.3339461,N,12220.2980027,W,5,05,8.8,10.1276,M,-17.3266,M,2.0,0000*40
$GPGGA,003418.00,4737.3346578,N,12220.2980874,W,5,05,5.7,10.2388,M,-17.3266,M,2.0,0000*41
$GPGGA,003419.00,4737.3356873,N,12220.2976982,W,5,06,5.4,10.2742,M,-17.3266,M,3.0,0000*45
$GPGGA,003420.00,4737.3363566,N,12220.2985419,W,5,06,5.4,12.8866,M,-17.3266,M,2.0,0000*43
$GPGGA,003421.00,4737.3369266,N,12220.2979421,W,5,05,6.4,12.2893,M,-17.3266,M,2.0,0000*47
$GPGGA,003422.00,4737.3374616,N,12220.2965878,W,5,06,5.3,9.9919,M,-17.3266,M,2.0,0000*73
$GPGGA,003423.00,4737.3381119,N,12220.2963968,W,5,06,5.3,9.8887,M,-17.3266,M,2.0,0000*71
$GPGGA,003424.00,4737.3387345,N,12220.2965932,W,5,05,5.7,10.1478,M,-17.3266,M,2.0,0000*48
$GPGGA,003425.00,4737.3392856,N,12220.2963484,W,5,05,5.7,9.3170,M,-17.3266,M,2.0,0000*75
$GPGGA,003426.00,4737.3398921,N,12220.2953559,W,5,06,5.3,7.6185,M,-17.3265,M,2.0,0000*7A
$GPGGA,003427.00,4737.3405560,N,12220.2939410,W,5,05,5.7,5.1216,M,-17.3265,M,2.0,0000*7A
$GPGGA,003428.00,4737.3411226,N,12220.2934857,W,5,05,5.7,4.3965,M,-17.3265,M,2.0,0000*7B
$GPGGA,003429.00,4737.3417265,N,12220.2932694,W,5,06,5.3,3.8222,M,-17.3265,M,3.0,0000*7E
$GPGGA,003430.00,4737.3423859,N,12220.2932258,W,5,06,5.3,3.5192,M,-17.3265,M,3.0,0000*75
$GPGGA,003431.00,4737.3429490,N,12220.2938107,W,5,06,5.3,4.5718,M,-17.3265,M,2.0,0000*76
$GPGGA,003432.00,4737.3435440,N,12220.2942848,W,5,06,5.3,5.4966,M,-17.3265,M,2.0,0000*7D
$GPGGA,003433.00,4737.3441994,N,12220.2944380,W,5,06,5.3,5.6189,M,-17.3265,M,2.0,0000*79
$GPGGA,003434.00,4737.3449404,N,12220.2944749,W,5,06,5.3,5.6818,M,-17.3265,M,2.0,0000*72
$GPGGA,003435.00,4737.3457028,N,12220.2946137,W,5,05,5.6,5.8092,M,-17.3265,M,3.0,0000*78
$GPGGA,003436.00,4737.3463111,N,12220.2947065,W,5,05,5.6,5.8405,M,-17.3265,M,2.0,0000*7B
$GPGGA,003437.00,4737.3468661,N,12220.2949405,W,5,06,5.3,6.1531,M,-17.3265,M,2.0,0000*77
$GPGGA,003438.00,4737.3474355,N,12220.2954121,W,5,06,5.3,6.7500,M,-17.3265,M,2.0,0000*7C
$GPGGA,003439.00,4737.3480324,N,12220.2985087,W,2,12,1.7,13.3923,M,-17.3265,M,2.0,0000*4E
$GPGGA,003440.00,4737.3484242,N,12220.2958089,W,5,05,5.6,6.9316,M,-17.3264,M,2.0,0000*7C
$GPGGA,003441.00,4737.3489190,N,12220.2982229,W,2,11,1.3,13.3385,M,-17.3265,M,3.0,0000*44
$GPGGA,003442.00,4737.3495567,N,12220.2953050,W,5,05,5.6,6.1150,M,-17.3264,M,2.0,0000*79
$GPGGA,003443.00,4737.3501910,N,12220.2956189,W,5,05,5.6,6.6972,M,-17.3264,M,2.0,0000*77
$GPGGA,003444.00,4737.3507603,N,12220.2961996,W,5,05,5.6,7.8374,M,-17.3264,M,2.0,0000*7A
$GPGGA,003445.00,4737.3515471,N,12220.2982442,W,2,12,1.7,13.8405,M,-17.3264,M,2.0,0000*46
$GPGGA,003446.00,4737.3520778,N,12220.2968656,W,5,05,5.6,9.3058,M,-17.3264,M,2.0,0000*72
$GPGGA,003447.00,4737.3526197,N,12220.2969291,W,5,05,5.6,9.0816,M,-17.3264,M,2.0,0000*7D
$GPGGA,003448.00,4737.3531477,N,12220.2969966,W,5,05,5.6,9.0438,M,-17.3264,M,2.0,0000*7C
$GPGGA,003449.00,4737.3538424,N,12220.2984235,W,2,12,1.7,13.8356,M,-17.3264,M,2.0,0000*44
$GPGGA,003450.00,4737.3543803,N,12220.2969352,W,5,05,5.6,8.4924,M,-17.3264,M,3.0,0000*76
$GPGGA,003451.00,4737.3549403,N,12220.2976083,W,5,05,5.6,9.9109,M,-17.3264,M,2.0,0000*7A
$GPGGA,003452.00,4737.3556927,N,12220.2983322,W,2,12,1.8,13.4813,M,-17.3264,M,2.0,0000*41
$GPGGA,003453.00,4737.3562953,N,12220.2983272,W,2,09,2.2,13.6264,M,-17.3264,M,3.0,0000*4A
$GPGGA,003454.00,4737.3569716,N,12220.2982534,W,2,12,1.8,13.7560,M,-17.3264,M,2.0,0000*4D
$GPGGA,003455.00,4737.3576499,N,12220.2982534,W,2,13,1.7,13.8359,M,-17.3264,M,2.0,0000*4B
$GPGGA,003456.00,4737.3582752,N,12220.2984700,W,2,14,1.6,13.8479,M,-17.3264,M,2.0,0000*47
$GPGGA,003457.00,4737.3585586,N,12220.2968688,W,5,05,5.6,9.2402,M,-17.3263,M,3.0,0000*71
$GPGGA,003458.00,4737.3588135,N,12220.2968218,W,5,05,5.6,9.1626,M,-17.3263,M,3.0,0000*75
$GPGGA,003459.00,4737.3595974,N,12220.2987203,W,1,14,1.6,14.5201,M,-17.3263,M,4.0,0000*40
$GPGGA,003500.00,4737.3593111,N,12220.2959331,W,5,05,5.6,8.0831,M,-17.3263,M,3.0,0000*75
$GPGGA,003501.00,4737.3605139,N,12220.2984869,W,2,13,2.4,14.1792,M,-17.3263,M,3.0,0000*4B
$GPGGA,003502.00,4737.3613081,N,12220.2984848,W,2,14,1.1,14.1426,M,-17.3263,M,3.0,0000*43
$GPGGA,003503.00,4737.3621270,N,12220.2984888,W,2,15,1.0,13.9229,M,-17.3263,M,3.0,0000*45
$GPGGA,003504.00,4737.3618887,N,12220.2958204,W,5,05,5.7,7.9964,M,-17.3263,M,3.0,0000*77
$GPGGA,003505.00,4737.3626606,N,12220.2962207,W,5,05,5.6,8.6183,M,-17.3263,M,3.0,0000*76
$GPGGA,003506.00,4737.3632107,N,12220.2960048,W,5,05,5.6,8.3625,M,-17.3263,M,3.0,0000*73
$GPGGA,003507.00,4737.3641905,N,12220.2991235,W,2,15,1.1,14.6361,M,-17.3263,M,4.0,0000*45
$GPGGA,003508.00,4737.3645520,N,12220.2988077,W,2,14,1.1,14.8794,M,-17.3263,M,3.0,0000*4F
$GPGGA,003509.00,4737.3649693,N,12220.2984919,W,2,15,1.1,15.1556,M,-17.3263,M,2.0,0000*40
$GPGGA,003510.00,4737.3654829,N,12220.2983969,W,2,15,1.1,15.6897,M,-17.3263,M,3.0,0000*4D
$GPGGA,003511.00,4737.3662098,N,12220.2986978,W,2,14,1.1,16.6180,M,-17.3263,M,3.0,0000*43
$GPGGA,003512.00,4737.3669878,N,12220.2990328,W,1,13,1.2,16.5062,M,-17.3263,M,3.0,0000*4C
$GPGGA,003513.00,4737.3676448,N,12220.2991864,W,1,15,1.1,16.1153,M,-17.3263,M,4.0,0000*4B
$GPGGA,003514.00,4737.3678482,N,12220.2967225,W,5,05,5.6,9.9505,M,-17.3262,M,4.0,0000*74
$GPGGA,003515.00,4737.3685536,N,12220.2965502,W,5,06,5.3,8.6991,M,-17.3262,M,3.0,0000*77
$GPGGA,003516.00,4737.3691626,N,12220.2965162,W,5,05,6.2,8.1244,M,-17.3262,M,3.0,0000*74
$GPGGA,003517.00,4737.3702777,N,12220.2997583,W,2,14,1.2,14.5542,M,-17.3262,M,3.0,0000*45
$GPGGA,003518.00,4737.3701930,N,12220.3041981,W,5,05,6.2,17.1604,M,-17.3263,M,3.0,0000*4E
$GPGGA,003519.00,4737.3712390,N,12220.3008063,W,5,05,6.2,12.9901,M,-17.3262,M,3.0,0000*43
$GPGGA,003520.00,4737.3720819,N,12220.2997436,W,2,14,1.1,14.0563,M,-17.3262,M,4.0,0000*4B
$GPGGA,003521.00,4737.3727268,N,12220.2997193,W,2,15,1.1,14.2882,M,-17.3262,M,3.0,0000*4D
$GPGGA,003522.00,4737.3733659,N,12220.2994527,W,2,13,1.3,13.9689,M,-17.3262,M,3.0,0000*48
$GPGGA,003523.00,4737.3740156,N,12220.2995142,W,2,15,0.9,14.9147,M,-17.3262,M,2.0,0000*4D
$GPGGA,003524.00,4737.3746104,N,12220.2995699,W,2,14,1.0,15.1975,M,-17.3262,M,2.0,0000*43
$GPGGA,003525.00,4737.3749128,N,12220.2990317,W,5,05,5.6,11.0761,M,-17.3262,M,2.0,0000*4E
$GPGGA,003526.00,4737.3758522,N,12220.2993641,W,5,06,5.3,11.8228,M,-17.3262,M,2.0,0000*40
$GPGGA,003527.00,4737.3767899,N,12220.2996695,W,2,13,1.1,14.7683,M,-17.3262,M,2.0,0000*46
$GPGGA,003528.00,4737.3771886,N,12220.3004121,W,5,05,6.2,13.5241,M,-17.3262,M,2.0,0000*40
$GPGGA,003529.00,4737.3776033,N,12220.3000952,W,5,05,5.6,13.3739,M,-17.3261,M,2.0,0000*40
$GPGGA,003530.00,4737.3785573,N,12220.2997900,W,2,12,1.7,14.2900,M,-17.3261,M,2.0,0000*42
$GPGGA,003531.00,4737.3790482,N,12220.2995573,W,2,14,1.0,13.9940,M,-17.3261,M,2.0,0000*4B
$GPGGA,003532.00,4737.3794474,N,12220.2989230,W,2,12,1.1,13.1568,M,-17.3261,M,2.0,0000*41
$GPGGA,003533.00,,,,,0,00,,,M,,M,,*4E
$GPGGA,003534.00,,,,,0,00,,,M,,M,,*49
$GPGGA,003535.00,,,,,0,00,,,M,,M,,*48
$GPGGA,003536.00,,,,,0,00,,,M,,M,,*4B
$GPGGA,003537.00,4737.3827913,N,12220.2975760,W,1,09,3.6,13.4306,M,-17.3261,M,2.0,0000*4B
$GPGGA,003538.00,4737.3833385,N,12220.2974481,W,1,11,3.1,12.5179,M,-17.3261,M,2.0,0000*4D
$GPGGA,003539.00,4737.3841214,N,12220.2977032,W,1,11,3.1,12.7464,M,-17.3260,M,2.0,0000*45
$GPGGA,003540.00,4737.3827428,N,12220.2993630,W,5,05,5.6,13.1493,M,-17.3261,M,2.0,0000*42
$GPGGA,003541.00,4737.3870308,N,12220.2972859,W,1,13,2.8,11.2748,M,-17.3260,M,2.0,0000*45
$GPGGA,003542.00,4737.3879428,N,12220.2969764,W,1,11,3.2,11.0127,M,-17.3260,M,2.0,0000*45
$GPGGA,003543.00,4737.3878377,N,12220.2964537,W,2,12,1.1,9.6542,M,-17.3260,M,2.0,0000*78
$GPGGA,003544.00,4737.3876040,N,12220.2966095,W,5,07,4.8,7.6780,M,-17.3260,M,2.0,0000*74
$GPGGA,003545.00,4737.3877107,N,12220.2959144,W,5,06,5.3,5.2425,M,-17.3260,M,2.0,0000*76
$GPGGA,003546.00,4737.3881324,N,12220.2949147,W,2,16,1.0,5.1616,M,-17.3260,M,3.0,0000*7C
$GPGGA,003547.00,4737.3881134,N,12220.2946694,W,2,16,1.0,5.2448,M,-17.3260,M,2.0,0000*73
$GPGGA,003548.00,4737.3881121,N,12220.2957396,W,2,16,1.0,8.2740,M,-17.3260,M,2.0,0000*79
$GPGGA,003549.00,4737.3883739,N,12220.2941311,W,5,07,1.4,13.3292,M,-17.3260,M,3.0,0000*4E
$GPGGA,003550.00,4737.3882546,N,12220.2942820,W,5,08,1.4,10.3180,M,-17.3260,M,2.0,0000*4A
$GPGGA,003551.00,4737.3884541,N,12220.2944793,W,5,09,1.4,9.6996,M,-17.3260,M,2.0,0000*78
$GPGGA,003552.00,4737.3883156,N,12220.2947174,W,5,09,1.4,9.2011,M,-17.3260,M,2.0,0000*70
$GPGGA,003553.00,4737.3880846,N,12220.2948508,W,5,09,1.4,8.8270,M,-17.3260,M,2.0,0000*74
$GPGGA,003554.00,4737.3879453,N,12220.2950724,W,5,10,1.3,8.9923,M,-17.3260,M,2.0,0000*7B
$GPGGA,003555.00,4737.3879155,N,12220.2954029,W,5,10,1.3,9.3211,M,-17.3260,M,2.0,0000*76
$GPGGA,003556.00,4737.3878539,N,12220.2953358,W,5,10,1.3,9.0811,M,-17.3260,M,2.0,0000*71
$GPGGA,003557.00,4737.3878618,N,12220.2951721,W,5,10,1.3,8.8040,M,-17.3260,M,2.0,0000*7D
$GPGGA,003558.00,4737.3879105,N,12220.2949482,W,5,10,1.3,8.8641,M,-17.3260,M,2.0,0000*7C
$GPGGA,003559.00,4737.3879542,N,12220.2946120,W,5,10,1.3,8.8429,M,-17.3260,M,2.0,0000*74
$GPGGA,003600.00,4737.3879476,N,12220.2946159,W,5,10,1.3,9.5039,M,-17.3260,M,3.0,0000*7B
$GPGGA,003601.00,4737.3879814,N,12220.2947100,W,5,10,1.3,10.4444,M,-17.3260,M,2.0,0000*49
$GPGGA,003602.00,4737.3881051,N,12220.2946931,W,5,10,1.3,11.1697,M,-17.3260,M,2.0,0000*47
$GPGGA,003603.00,4737.3881640,N,12220.2946565,W,5,10,1.3,11.4717,M,-17.3260,M,2.0,0000*41
$GPGGA,003604.00,4737.3881538,N,12220.2945859,W,5,10,1.3,11.6401,M,-17.3260,M,2.0,0000*4D
$GPGGA,003605.00,4737.3881456,N,12220.2945945,W,5,10,1.3,11.9157,M,-17.3260,M,2.0,0000*40
$GPGGA,003606.00,4737.3880879,N,12220.2945772,W,5,10,1.3,12.0872,M,-17.3260,M,3.0,0000*4C
$GPGGA,003607.00,4737.3879853,N,12220.2944269,W,5,10,1.3,11.8542,M,-17.3260,M,2.0,0000*49
$GPGGA,003608.00,4737.3878674,N,12220.2943035,W,5,10,1.3,11.4925,M,-17.3260,M,2.0,0000*41
$GPGGA,003609.00,4737.3877870,N,12220.2943096,W,5,12,0.8,11.4034,M,-17.3260,M,2.0,0000*4D
$GPGGA,003610.00,4737.3877407,N,12220.2944062,W,5,13,0.8,11.5619,M,-17.3260,M,2.0,0000*4C
$GPGGA,003611.00,4737.3876400,N,12220.2944501,W,5,13,0.8,11.4932,M,-17.3260,M,2.0,0000*4C
$GPGGA,003612.00,4737.3874952,N,12220.2944500,W,5,13,0.8,11.2102,M,-17.3260,M,2.0,0000*4B
$GPGGA,003613.00,4737.3873785,N,12220.2944514,W,5,13,0.8,10.9426,M,-17.3260,M,2.0,0000*45
$GPGGA,003614.00,4737.3874302,N,12220.2944339,W,5,11,1.6,11.0108,M,-17.3260,M,3.0,0000*4A
$GPGGA,003615.00,4737.3877495,N,12220.2935316,W,5,08,1.9,8.2712,M,-17.3260,M,2.0,0000*7B
$GPGGA,003616.00,4737.3892816,N,12220.2955564,W,5,12,1.1,9.4460,M,-17.3260,M,3.0,0000*72
$GPGGA,003617.00,4737.3900700,N,12220.2960342,W,4,12,1.1,7.3301,M,-17.3260,M,2.0,0000*7C
$GPGGA,003618.00,4737.3907497,N,12220.2960393,W,4,12,1.1,7.3164,M,-17.3260,M,2.0,0000*74
$GPGGA,003619.00,4737.3914376,N,12220.2960212,W,4,13,0.9,7.3538,M,-17.3260,M,2.0,0000*72
$GPGGA,003620.00,4737.3921408,N,12220.2960370,W,4,14,0.8,7.3556,M,-17.3259,M,2.0,0000*71
$GPGGA,003621.00,4737.3928149,N,12220.2960461,W,4,14,0.8,7.3414,M,-17.3259,M,2.0,0000*79
$GPGGA,003622.00,4737.3935243,N,12220.2960730,W,4,14,0.8,7.3113,M,-17.3259,M,2.0,0000*7A
$GPGGA,003623.00,4737.3942022,N,12220.2960667,W,4,13,0.9,7.2592,M,-17.3259,M,2.0,0000*77
$GPGGA,003624.00,4737.3948649,N,12220.2960763,W,4,13,0.9,7.1988,M,-17.3259,M,2.0,0000*70
$GPGGA,003625.00,4737.3954962,N,12220.2960722,W,4,14,0.8,7.1416,M,-17.3259,M,2.0,0000*73
$GPGGA,003626.00,4737.3961327,N,12220.2960853,W,4,13,0.8,7.1035,M,-17.3259,M,2.0,0000*76
$GPGGA,003627.00,4737.3967509,N,12220.2960605,W,4,12,0.9,7.1249,M,-17.3259,M,2.0,0000*7F
$GPGGA,003628.00,4737.3973126,N,12220.2960879,W,4,11,1.0,7.1372,M,-17.3259,M,2.0,0000*7B
$GPGGA,003629.00,4737.3978413,N,12220.2961217,W,4,10,1.2,7.1040,M,-17.3259,M,2.0,0000*70
$GPGGA,003630.00,4737.3984054,N,12220.2961534,W,4,09,1.7,7.1069,M,-17.3259,M,2.0,0000*7C
$GPGGA,003631.00,4737.3990390,N,12220.2962053,W,4,09,1.5,7.0934,M,-17.3259,M,2.0,0000*76
$GPGGA,003632.00,4737.3995920,N,12220.2962241,W,4,10,1.5,7.1679,M,-17.3259,M,2.0,0000*7F
$GPGGA,003633.00,4737.4001951,N,12220.2962696,W,4,11,1.2,7.0879,M,-17.3259,M,2.0,0000*7C
$GPGGA,003634.00,4737.4008240,N,12220.2962832,W,4,10,1.5,7.0570,M,-17.3258,M,2.0,0000*7A
$GPGGA,003635.00,4737.4013860,N,12220.2962979,W,4,09,2.0,7.0275,M,-17.3258,M,2.0,0000*7B
$GPGGA,003636.00,4737.4019426,N,12220.2963227,W,4,10,1.5,7.0734,M,-17.3258,M,2.0,0000*73
$GPGGA,003637.00,4737.4024747,N,12220.2963030,W,4,08,1.7,7.1869,M,-17.3258,M,2.0,0000*71
$GPGGA,003638.00,4737.4031235,N,12220.2963437,W,5,08,2.8,7.1086,M,-17.3258,M,2.0,0000*7D
$GPGGA,003639.00,4737.4037161,N,12220.2963081,W,5,10,1.3,6.9861,M,-17.3258,M,2.0,0000*78
$GPGGA,003640.00,4737.4043168,N,12220.2964494,W,4,09,1.3,7.1796,M,-17.3258,M,3.0,0000*7D
$GPGGA,003641.00,4737.4048674,N,12220.2964457,W,5,06,2.6,7.2276,M,-17.3258,M,2.0,0000*73
$GPGGA,003642.00,4737.4055924,N,12220.2963804,W,4,09,2.1,6.9789,M,-17.3258,M,2.0,0000*7D
$GPGGA,003643.00,4737.4061700,N,12220.2963762,W,4,10,1.8,7.0352,M,-17.3258,M,2.0,0000*74
$GPGGA,003644.00,4737.4067300,N,12220.2963729,W,5,07,2.7,6.9997,M,-17.3258,M,2.0,0000*7E
$GPGGA,003645.00,4737.4073274,N,12220.2963443,W,5,07,2.4,6.8600,M,-17.3258,M,2.0,0000*74
$GPGGA,003646.00,4737.4079047,N,12220.2961847,W,5,06,3.5,6.8232,M,-17.3258,M,2.0,0000*71
$GPGGA,003647.00,4737.4085451,N,12220.2960888,W,5,06,3.5,6.7308,M,-17.3258,M,2.0,0000*75
$GPGGA,003648.00,4737.4091772,N,12220.2960890,W,5,06,3.5,6.7032,M,-17.3257,M,2.0,0000*71
$GPGGA,003649.00,4737.4094346,N,12220.2960460,W,2,13,1.5,7.2251,M,-17.3257,M,3.0,0000*76
$GPGGA,003650.00,4737.4104857,N,12220.2961268,W,5,06,3.5,6.7171,M,-17.3257,M,2.0,0000*77
$GPGGA,003651.00,4737.4111838,N,12220.2961973,W,5,06,3.5,6.6317,M,-17.3257,M,2.0,0000*79
$GPGGA,003652.00,4737.4119029,N,12220.2961920,W,4,07,2.4,6.6476,M,-17.3257,M,2.0,0000*7C
$GPGGA,003653.00,4737.4125433,N,12220.2962805,W,5,05,5.5,6.7399,M,-17.3257,M,2.0,0000*7A
$GPGGA,003654.00,4737.4132834,N,12220.2962418,W,5,06,3.1,6.6900,M,-17.3257,M,2.0,0000*7A
$GPGGA,003655.00,4737.4138737,N,12220.2963953,W,5,06,2.6,6.8473,M,-17.3257,M,2.0,0000*7F
$GPGGA,003656.00,4737.4146761,N,12220.2959960,W,2,11,1.7,7.3954,M,-17.3257,M,2.0,0000*7E
$GPGGA,003657.00,4737.4153294,N,12220.2963308,W,5,07,2.3,6.6608,M,-17.3257,M,2.0,0000*7C
$GPGGA,003658.00,4737.4157691,N,12220.2958669,W,5,06,5.2,5.9655,M,-17.3257,M,3.0,0000*7E
$GPGGA,003659.00,4737.4163907,N,12220.2958380,W,5,05,5.9,5.9201,M,-17.3257,M,2.0,0000*76
$GPGGA,003700.00,4737.4173316,N,12220.2957616,W,5,07,3.6,6.4023,M,-17.3256,M,2.0,0000*73
$GPGGA,003701.00,4737.4181273,N,12220.2956412,W,5,06,3.9,6.2999,M,-17.3256,M,2.0,0000*7A
$GPGGA,003702.00,4737.4201718,N,12220.3008618,W,5,07,3.9,18.7990,M,-17.3257,M,2.0,0000*42
$GPGGA,003703.00,4737.4194591,N,12220.2956239,W,5,09,2.1,5.2215,M,-17.3256,M,2.0,0000*72
$GPGGA,003704.00,4737.4200412,N,12220.2960348,W,5,06,3.1,5.0020,M,-17.3256,M,2.0,0000*7B
$GPGGA,003705.00,4737.4206231,N,12220.2965573,W,5,06,3.5,4.5695,M,-17.3256,M,2.0,0000*78
$GPGGA,003706.00,4737.4212204,N,12220.2966398,W,5,07,2.4,4.5354,M,-17.3256,M,2.0,0000*71
$GPGGA,003707.00,4737.4219144,N,12220.2966374,W,5,07,2.4,4.2502,M,-17.3256,M,2.0,0000*7C
$GPGGA,003708.00,4737.4231397,N,12220.2957076,W,2,16,1.2,5.7824,M,-17.3256,M,2.0,0000*79
$GPGGA,003709.00,4737.4232138,N,12220.2971521,W,5,07,3.1,4.2779,M,-17.3256,M,2.0,0000*7A
$GPGGA,003710.00,4737.4241218,N,12220.2971625,W,5,07,3.4,3.8101,M,-17.3256,M,3.0,0000*70
$GPGGA,003711.00,4737.4250256,N,12220.2970686,W,5,07,2.4,4.6360,M,-17.3256,M,3.0,0000*7E
$GPGGA,003712.00,4737.4256574,N,12220.2970773,W,5,08,2.3,4.7011,M,-17.3256,M,3.0,0000*7B
$GPGGA,003713.00,4737.4262693,N,12220.2969881,W,5,05,5.7,4.6115,M,-17.3256,M,3.0,0000*77
$GPGGA,003714.00,4737.4272950,N,12220.2945286,W,2,15,1.4,6.2327,M,-17.3255,M,3.0,0000*75
$GPGGA,003715.00,4737.4263658,N,12220.2976277,W,5,07,2.2,15.8781,M,-17.3256,M,2.0,0000*4E
$GPGGA,003716.00,4737.4282525,N,12220.2946662,W,2,14,1.2,5.7454,M,-17.3255,M,3.0,0000*79
$GPGGA,003717.00,4737.4287445,N,12220.2945294,W,2,14,1.5,5.7558,M,-17.3255,M,3.0,0000*7E
$GPGGA,003718.00,4737.4294337,N,12220.2943443,W,2,12,1.4,5.2421,M,-17.3255,M,3.0,0000*76
$GPGGA,003719.00,4737.4296956,N,12220.2975018,W,5,07,2.9,10.8880,M,-17.3255,M,3.0,0000*43
$GPGGA,003720.00,4737.4302796,N,12220.2969614,W,5,05,5.5,8.0963,M,-17.3255,M,3.0,0000*74
$GPGGA,003721.00,4737.4308239,N,12220.2972786,W,5,07,3.4,7.6553,M,-17.3255,M,2.0,0000*7D
$GPGGA,003722.00,4737.4315198,N,12220.2974071,W,5,05,5.5,7.9530,M,-17.3255,M,2.0,0000*7C
$GPGGA,003723.00,4737.4320963,N,12220.2977969,W,5,06,5.1,8.1495,M,-17.3255,M,3.0,0000*7B
$GPGGA,003724.00,4737.4329258,N,12220.3030111,W,5,06,3.9,24.5333,M,-17.3255,M,3.0,0000*45
$GPGGA,003725.00,4737.4325349,N,12220.2976246,W,5,07,2.3,12.9550,M,-17.3255,M,2.0,0000*43
$GPGGA,003726.00,4737.4344686,N,12220.2926255,W,2,15,1.3,6.0367,M,-17.3254,M,2.0,0000*7E
$GPGGA,003727.00,4737.4360410,N,12220.2955709,W,5,07,2.4,5.0040,M,-17.3254,M,3.0,0000*78
$GPGGA,003728.00,4737.4368939,N,12220.2934679,W,2,16,0.9,5.3931,M,-17.3254,M,2.0,0000*7D
$GPGGA,003729.00,4737.4377056,N,12220.2943801,W,5,08,2.1,0.9222,M,-17.3254,M,2.0,0000*77
$GPGGA,003730.00,4737.4386237,N,12220.2939921,W,2,14,1.1,4.4371,M,-17.3254,M,2.0,0000*7D
$GPGGA,003731.00,4737.4392535,N,12220.2941894,W,2,15,1.3,4.2038,M,-17.3254,M,3.0,0000*76
$GPGGA,003732.00,4737.4398200,N,12220.2945473,W,2,11,1.7,4.2080,M,-17.3254,M,2.0,0000*7D
$GPGGA,003733.00,4737.4403142,N,12220.2926508,W,5,05,6.1,-1.5427,M,-17.3254,M,2.0,0000*51
$GPGGA,003734.00,4737.4408053,N,12220.2945865,W,2,13,1.1,3.9696,M,-17.3254,M,2.0,0000*73
$GPGGA,003735.00,4737.4411248,N,12220.2946071,W,2,12,1.5,4.6444,M,-17.3254,M,2.0,0000*7C
$GPGGA,003736.00,4737.4415255,N,12220.2944662,W,2,12,1.5,4.6319,M,-17.3254,M,2.0,0000*7E
$GPGGA,003737.00,4737.4425437,N,12220.2933701,W,5,08,2.1,2.7955,M,-17.3253,M,2.0,0000*73
$GPGGA,003738.00,4737.4427072,N,12220.2947045,W,1,14,1.4,4.8504,M,-17.3253,M,3.0,0000*70
$GPGGA,003739.00,4737.4434135,N,12220.2945965,W,1,12,1.5,4.3876,M,-17.3253,M,2.0,0000*7D
$GPGGA,003740.00,4737.4440463,N,12220.2950818,W,2,14,1.4,4.0981,M,-17.3253,M,2.0,0000*77
$GPGGA,003741.00,4737.4449701,N,12220.2952246,W,2,14,0.9,4.0874,M,-17.3253,M,2.0,0000*7C
$GPGGA,003742.00,4737.4460770,N,12220.2941934,W,5,04,6.6,0.5360,M,-17.3253,M,3.0,0000*7F
$GPGGA,003743.00,4737.4463710,N,12220.2952130,W,2,13,1.4,4.4948,M,-17.3253,M,2.0,0000*75
$GPGGA,003744.00,4737.4468974,N,12220.2952189,W,2,14,1.4,4.8115,M,-17.3253,M,2.0,0000*7C
$GPGGA,003745.00,4737.4474560,N,12220.2952985,W,2,13,1.4,4.8851,M,-17.3253,M,3.0,0000*72
$GPGGA,003746.00,4737.4481103,N,12220.2951551,W,2,12,1.6,4.7264,M,-17.3253,M,2.0,0000*7D
$GPGGA,003747.00,4737.4488312,N,12220.2950517,W,2,13,1.4,4.9540,M,-17.3253,M,2.0,0000*78
$GPGGA,003748.00,4737.4496805,N,12220.2950410,W,2,11,1.5,4.8991,M,-17.3253,M,3.0,0000*70
$GPGGA,003749.00,4737.4506968,N,12220.2947506,W,5,05,2.9,0.9442,M,-17.3253,M,2.0,0000*79
$GPGGA,003750.00,4737.4509141,N,12220.2948078,W,2,15,0.9,5.5541,M,-17.3253,M,2.0,0000*71
$GPGGA,003751.00,4737.4519548,N,12220.2951409,W,2,13,1.0,5.3146,M,-17.3252,M,2.0,0000*7C
$GPGGA,003752.00,4737.4526570,N,12220.2949957,W,2,15,0.9,4.8596,M,-17.3252,M,3.0,0000*7B
$GPGGA,003753.00,4737.4535243,N,12220.2962408,W,5,05,5.4,1.2748,M,-17.3252,M,2.0,0000*70
$GPGGA,003754.00,4737.4539689,N,12220.2957110,W,2,13,1.1,4.9569,M,-17.3252,M,2.0,0000*7D
$GPGGA,003755.00,4737.4545699,N,12220.2955190,W,2,15,0.9,5.4088,M,-17.3252,M,2.0,0000*75
$GPGGA,003756.00,4737.4551989,N,12220.2952988,W,2,14,0.9,5.3063,M,-17.3252,M,3.0,0000*79
$GPGGA,003757.00,4737.4558072,N,12220.2954795,W,2,14,0.9,5.3820,M,-17.3252,M,2.0,0000*76
$GPGGA,003758.00,4737.4561749,N,12220.2957535,W,1,14,0.9,5.2954,M,-17.3252,M,2.0,0000*77
$GPGGA,003759.00,4737.4559119,N,12220.2987152,W,5,05,2.8,4.3337,M,-17.3252,M,3.0,0000*7F
$GPGGA,003800.00,4737.4572909,N,12220.2956659,W,2,14,0.9,5.4909,M,-17.3252,M,3.0,0000*79
$GPGGA,003801.00,4737.4582289,N,12220.2955833,W,2,12,1.2,4.7908,M,-17.3252,M,3.0,0000*7A
$GPGGA,003802.00,4737.4589199,N,12220.2955322,W,2,13,1.6,4.3531,M,-17.3252,M,4.0,0000*7B
$GPGGA,003803.00,4737.4587058,N,12220.2982534,W,5,06,3.5,1.9053,M,-17.3252,M,5.0,0000*7E
$GPGGA,003804.00,4737.4598029,N,12220.2959531,W,5,05,5.4,1.3087,M,-17.3252,M,3.0,0000*73
$GPGGA,003805.00,4737.4609940,N,12220.2949301,W,2,10,1.6,3.8887,M,-17.3251,M,2.0,0000*7D
$GPGGA,003806.00,4737.4616444,N,12220.2946526,W,2,14,1.4,3.9805,M,-17.3251,M,3.0,0000*79
$GPGGA,003807.00,4737.4630266,N,12220.2949697,W,5,05,5.4,0.9701,M,-17.3251,M,2.0,0000*76
$GPGGA,003808.00,4737.4634375,N,12220.2941795,W,1,12,1.6,3.8946,M,-17.3251,M,2.0,0000*7E
$GPGGA,003809.00,4737.4645677,N,12220.2946868,W,5,08,2.2,1.2618,M,-17.3251,M,2.0,0000*70
$GPGGA,003810.00,4737.4652099,N,12220.2943894,W,5,07,3.9,0.9511,M,-17.3251,M,2.0,0000*7B
$GPGGA,003811.00,4737.4657843,N,12220.2941883,W,5,07,3.9,0.6070,M,-17.3251,M,2.0,0000*79
$GPGGA,003812.00,4737.4661497,N,12220.2945501,W,2,16,1.3,3.8469,M,-17.3251,M,3.0,0000*76
$GPGGA,003813.00,4737.4665523,N,12220.2948519,W,2,16,1.3,4.1180,M,-17.3251,M,3.0,0000*75
$GPGGA,003814.00,4737.4662062,N,12220.2987587,W,5,05,5.4,5.8082,M,-17.3251,M,2.0,0000*7D
$GPGGA,003815.00,4737.4663389,N,12220.2976544,W,5,07,3.8,7.5184,M,-17.3251,M,2.0,0000*7A
$GPGGA,003816.00,4737.4666397,N,12220.2968874,W,5,07,3.8,8.1275,M,-17.3251,M,2.0,0000*74
$GPGGA,003817.00,4737.4668645,N,12220.2965019,W,5,07,3.1,8.7938,M,-17.3251,M,3.0,0000*73
$GPGGA,003818.00,4737.4671597,N,12220.2957354,W,5,06,3.6,8.1146,M,-17.3251,M,2.0,0000*73
$GPGGA,003819.00,4737.4673710,N,12220.2950375,W,5,06,3.6,7.5643,M,-17.3251,M,2.0,0000*70
$GPGGA,003820.00,4737.4676088,N,12220.2942505,W,5,07,3.4,7.1581,M,-17.3251,M,3.0,0000*70
$GPGGA,003821.00,4737.4677754,N,12220.2936815,W,5,07,3.4,6.5817,M,-17.3250,M,2.0,0000*7E
$GPGGA,003822.00,4737.4679513,N,12220.2946136,W,5,08,1.4,8.0641,M,-17.3251,M,2.0,0000*77
$GPGGA,003823.00,4737.4679111,N,12220.2947055,W,5,10,1.3,8.4917,M,-17.3251,M,3.0,0000*72
$GPGGA,003824.00,4737.4679278,N,12220.2947360,W,5,10,1.3,8.7420,M,-17.3251,M,2.0,0000*77
$GPGGA,003825.00,4737.4679572,N,12220.2947513,W,5,09,1.3,9.2858,M,-17.3251,M,2.0,0000*76
$GPGGA,003826.00,4737.4680134,N,12220.2946889,W,5,08,2.7,9.3520,M,-17.3251,M,3.0,0000*7E
$GPGGA,003827.00,4737.4679923,N,12220.2946597,W,5,08,2.7,9.2305,M,-17.3251,M,3.0,0000*75
$GPGGA,003828.00,4737.4679208,N,12220.2945491,W,5,08,2.7,9.0316,M,-17.3251,M,2.0,0000*7D
$GPGGA,003829.00,4737.4678261,N,12220.2944392,W,5,09,2.6,8.9761,M,-17.3251,M,3.0,0000*7A
$GPGGA,003830.00,4737.4678222,N,12220.2944231,W,5,08,2.7,8.7530,M,-17.3251,M,2.0,0000*74
$GPGGA,003831.00,4737.4678385,N,12220.2944118,W,5,09,2.6,8.6242,M,-17.3251,M,3.0,0000*73
$GPGGA,003832.00,4737.4678874,N,12220.2944064,W,5,08,2.7,8.7545,M,-17.3251,M,2.0,0000*7F
$GPGGA,003833.00,4737.4679682,N,12220.2944393,W,5,08,2.7,9.0455,M,-17.3251,M,3.0,0000*74
$GPGGA,003834.00,4737.4679817,N,12220.2944950,W,5,11,1.2,9.4452,M,-17.3251,M,3.0,0000*79
$GPGGA,003835.00,4737.4679477,N,12220.2946108,W,5,11,1.2,9.7197,M,-17.3251,M,2.0,0000*7B
$GPGGA,003836.00,4737.4679720,N,12220.2946155,W,5,11,1.2,9.9347,M,-17.3251,M,3.0,0000*71
$GPGGA,003837.00,4737.4680109,N,12220.2946455,W,5,11,1.2,9.9237,M,-17.3251,M,3.0,0000*78
$GPGGA,003838.00,4737.4681371,N,12220.2944926,W,5,09,1.4,9.6954,M,-17.3251,M,3.0,0000*7E
$GPGGA,003839.00,4737.4682814,N,12220.2942752,W,5,09,1.4,9.3358,M,-17.3251,M,2.0,0000*7D
$GPGGA,003840.00,4737.4684947,N,12220.2933180,W,5,08,2.7,3.3055,M,-17.3250,M,3.0,0000*78
$GPGGA,003841.00,4737.4689822,N,12220.2938003,W,5,10,1.2,4.1320,M,-17.3250,M,3.0,0000*7C
$GPGGA,003842.00,4737.4698290,N,12220.2936011,W,5,10,1.3,3.5356,M,-17.3250,M,3.0,0000*72
$GPGGA,003843.00,4737.4707776,N,12220.2941195,W,4,12,1.0,4.0215,M,-17.3250,M,2.0,0000*71
$GPGGA,003844.00,4737.4712987,N,12220.2939912,W,4,13,1.0,4.0490,M,-17.3250,M,2.0,0000*70
$GPGGA,003845.00,4737.4718713,N,12220.2937943,W,4,12,1.1,4.0504,M,-17.3250,M,2.0,0000*7E
$GPGGA,003846.00,4737.4724844,N,12220.2936323,W,4,10,1.4,4.0473,M,-17.3250,M,2.0,0000*74
$GPGGA,003847.00,4737.4730693,N,12220.2934564,W,4,11,1.2,3.9895,M,-17.3250,M,2.0,0000*7E
$GPGGA,003848.00,4737.4736430,N,12220.2934129,W,4,10,1.4,4.0089,M,-17.3250,M,3.0,0000*7C
$GPGGA,003849.00,4737.4742729,N,12220.2933854,W,4,11,1.4,3.9675,M,-17.3250,M,2.0,0000*7A
$GPGGA,003850.00,4737.4749148,N,12220.2933306,W,4,11,1.4,3.9849,M,-17.3250,M,2.0,0000*75
$GPGGA,003851.00,4737.4756206,N,12220.2933633,W,4,11,1.4,4.0342,M,-17.3250,M,2.0,0000*7E
$GPGGA,003852.00,4737.4763093,N,12220.2933922,W,4,11,1.4,4.1068,M,-17.3249,M,3.0,0000*79
$GPGGA,003853.00,4737.4770195,N,12220.2934204,W,4,12,1.2,4.1473,M,-17.3249,M,2.0,0000*7F
$GPGGA,003854.00,4737.4777404,N,12220.2934999,W,4,13,0.9,4.0848,M,-17.3249,M,3.0,0000*72
$GPGGA,003855.00,4737.4784732,N,12220.2936154,W,4,13,0.9,4.0411,M,-17.3249,M,3.0,0000*72
$GPGGA,003856.00,4737.4791713,N,12220.2937298,W,4,14,0.8,4.0345,M,-17.3249,M,3.0,0000*74
$GPGGA,003857.00,4737.4798808,N,12220.2938954,W,4,14,0.8,3.9862,M,-17.3249,M,2.0,0000*7C
$GPGGA,003858.00,4737.4805445,N,12220.2940248,W,4,14,0.8,3.9520,M,-17.3249,M,2.0,0000*7F
$GPGGA,003859.00,4737.4812191,N,12220.2941144,W,4,14,0.8,3.9328,M,-17.3249,M,2.0,0000*74
$GPGGA,003900.00,4737.4818807,N,12220.2941979,W,4,14,0.8,3.9446,M,-17.3249,M,3.0,0000*7D
$GPGGA,003901.00,4737.4825573,N,12220.2942847,W,4,14,0.8,3.9556,M,-17.3249,M,3.0,0000*73
$GPGGA,003902.00,4737.4832462,N,12220.2943322,W,4,13,0.8,3.9824,M,-17.3249,M,3.0,0000*71
$GPGGA,003903.00,4737.4839582,N,12220.2943591,W,4,12,0.9,4.0034,M,-17.3249,M,3.0,0000*7D
$GPGGA,003904.00,4737.4846575,N,12220.2943634,W,4,11,1.2,3.9161,M,-17.3249,M,3.0,0000*70
$GPGGA,003905.00,4737.4853129,N,12220.2944062,W,4,13,0.9,3.9322,M,-17.3249,M,3.0,0000*77
$GPGGA,003906.00,4737.4859759,N,12220.2945001,W,4,12,1.2,4.0284,M,-17.3248,M,2.0,0000*73
$GPGGA,003907.00,4737.4865959,N,12220.2946032,W,4,12,1.2,4.1365,M,-17.3248,M,3.0,0000*7E
$GPGGA,003908.00,4737.4871834,N,12220.2946988,W,4,12,0.9,4.1400,M,-17.3248,M,2.0,0000*79
$GPGGA,003909.00,4737.4878086,N,12220.2948515,W,4,13,0.9,4.1969,M,-17.3248,M,2.0,0000*75
$GPGGA,003910.00,4737.4884439,N,12220.2950129,W,4,14,0.9,4.1982,M,-17.3248,M,3.0,0000*7F
$GPGGA,003911.00,4737.4891208,N,12220.2952361,W,4,12,0.9,4.2159,M,-17.3248,M,3.0,0000*79
$GPGGA,003912.00,4737.4897731,N,12220.2954353,W,4,15,0.8,4.1949,M,-17.3248,M,2.0,0000*79
$GPGGA,003913.00,4737.4904003,N,12220.2955333,W,4,15,0.8,4.2612,M,-17.3248,M,2.0,0000*70
$GPGGA,003914.00,4737.4910772,N,12220.2955655,W,4,15,0.8,4.2303,M,-17.3248,M,2.0,0000*73
$GPGGA,003915.00,4737.4917435,N,12220.2956461,W,4,15,0.8,4.1964,M,-17.3248,M,2.0,0000*7B
$GPGGA,003916.00,4737.4924240,N,12220.2956836,W,4,15,0.8,4.1921,M,-17.3248,M,3.0,0000*72
$GPGGA,003917.00,4737.4930902,N,12220.2957084,W,4,15,0.8,4.1974,M,-17.3248,M,2.0,0000*7A
$GPGGA,003918.00,4737.4937833,N,12220.2956553,W,4,15,0.8,4.1798,M,-17.3248,M,2.0,0000*73
$GPGGA,003919.00,4737.4944877,N,12220.2956315,W,4,14,0.8,4.1656,M,-17.3248,M,3.0,0000*71
$GPGGA,003920.00,4737.4951839,N,12220.2955680,W,4,14,0.8,4.1779,M,-17.3247,M,3.0,0000*7C
$GPGGA,003921.00,4737.4958685,N,12220.2955939,W,4,14,0.8,4.1963,M,-17.3247,M,3.0,0000*75
$GPGGA,003922.00,4737.4965534,N,12220.2956035,W,4,14,0.8,4.1899,M,-17.3247,M,2.0,0000*72
$GPGGA,003923.00,4737.4972356,N,12220.2956381,W,4,14,0.8,4.1762,M,-17.3247,M,2.0,0000*70
$GPGGA,003924.00,4737.4979029,N,12220.2956504,W,4,13,0.9,4.1475,M,-17.3247,M,3.0,0000*7E
$GPGGA,003925.00,4737.4985927,N,12220.2956915,W,4,13,0.9,4.1206,M,-17.3247,M,2.0,0000*74
$GPGGA,003926.00,4737.4992563,N,12220.2957646,W,4,13,0.9,4.1198,M,-17.3247,M,2.0,0000*71
$GPGGA,003927.00,4737.4999239,N,12220.2957865,W,4,14,0.8,4.1498,M,-17.3247,M,2.0,0000*7F
$GPGGA,003928.00,4737.5005773,N,12220.2958285,W,4,14,0.8,4.1346,M,-17.3247,M,2.0,0000*79
$GPGGA,003929.00,4737.5012420,N,12220.2958378,W,4,14,0.8,4.1377,M,-17.3247,M,2.0,0000*7A
$GPGGA,003930.00,4737.5019000,N,12220.2958438,W,4,14,0.8,4.1251,M,-17.3247,M,3.0,0000*78
$GPGGA,003931.00,4737.5025602,N,12220.2958574,W,4,15,0.8,4.1222,M,-17.3247,M,2.0,0000*7F
$GPGGA,003932.00,4737.5031889,N,12220.2958778,W,4,15,0.8,4.0956,M,-17.3247,M,2.0,0000*73
$GPGGA,003933.00,4737.5037988,N,12220.2958824,W,4,15,0.8,4.0822,M,-17.3247,M,3.0,0000*71
$GPGGA,003934.00,4737.5044087,N,12220.2958542,W,4,15,0.8,4.0755,M,-17.3246,M,2.0,0000*76
$GPGGA,003935.00,4737.5050316,N,12220.2957832,W,4,15,0.8,4.0876,M,-17.3246,M,2.0,0000*72
$GPGGA,003936.00,4737.5056141,N,12220.2957642,W,4,15,0.8,4.0886,M,-17.3246,M,2.0,0000*71
$GPGGA,003937.00,4737.5062443,N,12220.2957590,W,4,15,0.8,4.0936,M,-17.3246,M,2.0,0000*76
$GPGGA,003938.00,4737.5069072,N,12220.2957405,W,4,15,0.8,4.0749,M,-17.3246,M,3.0,0000*7E
$GPGGA,003939.00,4737.5075877,N,12220.2957621,W,4,15,0.8,4.0566,M,-17.3246,M,2.0,0000*75
$GPGGA,003940.00,4737.5082077,N,12220.2957993,W,4,15,0.8,4.0457,M,-17.3246,M,3.0,0000*7F
$GPGGA,003941.00,4737.5088180,N,12220.2958243,W,4,15,0.8,4.0265,M,-17.3246,M,2.0,0000*72
$GPGGA,003942.00,4737.5094433,N,12220.2958584,W,4,15,0.8,4.0208,M,-17.3246,M,2.0,0000*76
$GPGGA,003943.00,4737.5100686,N,12220.2959151,W,4,15,0.8,4.0238,M,-17.3246,M,2.0,0000*79
$GPGGA,003944.00,4737.5106777,N,12220.2959636,W,4,15,0.8,4.0472,M,-17.3246,M,2.0,0000*79
$GPGGA,003945.00,4737.5113406,N,12220.2959729,W,4,15,0.8,4.0289,M,-17.3246,M,2.0,0000*74
$GPGGA,003946.00,4737.5120024,N,12220.2959889,W,4,15,0.8,3.9968,M,-17.3246,M,2.0,0000*7C
$GPGGA,003947.00,4737.5126522,N,12220.2960441,W,4,16,0.7,3.9938,M,-17.3246,M,2.0,0000*73
$GPGGA,003948.00,4737.5133044,N,12220.2960857,W,4,16,0.7,3.9683,M,-17.3245,M,2.0,0000*7A
$GPGGA,003949.00,4737.5139535,N,12220.2960889,W,4,16,0.7,3.9627,M,-17.3245,M,2.0,0000*7F
$GPGGA,003950.00,4737.5146072,N,12220.2961016,W,4,16,0.7,3.9742,M,-17.3245,M,3.0,0000*75
$GPGGA,003951.00,4737.5152511,N,12220.2960887,W,4,16,0.7,3.9705,M,-17.3245,M,2.0,0000*72
$GPGGA,003952.00,4737.5158809,N,12220.2960817,W,4,16,0.7,3.9543,M,-17.3245,M,3.0,0000*77
$GPGGA,003953.00,4737.5164973,N,12220.2960595,W,4,15,0.8,3.9346,M,-17.3245,M,2.0,0000*7C
$GPGGA,003954.00,4737.5171296,N,12220.2960437,W,4,15,0.8,3.9243,M,-17.3245,M,2.0,0000*72
$GPGGA,003955.00,4737.5177460,N,12220.2960470,W,4,15,0.8,3.9115,M,-17.3245,M,2.0,0000*79
$GPGGA,003956.00,4737.5183502,N,12220.2960223,W,4,16,0.7,3.9514,M,-17.3245,M,3.0,0000*7C
$GPGGA,003957.00,4737.5189323,N,12220.2960272,W,4,16,0.7,3.9510,M,-17.3245,M,2.0,0000*73
$GPGGA,003958.00,4737.5194881,N,12220.2960561,W,4,15,0.8,3.9189,M,-17.3245,M,3.0,0000*7F
$GPGGA,003959.00,4737.5200460,N,12220.2961284,W,4,16,0.7,3.9003,M,-17.3245,M,2.0,0000*70
$GPGGA,004000.00,4737.5206264,N,12220.2961439,W,4,16,0.7,3.8856,M,-17.3245,M,2.0,0000*7F
$GPGGA,004001.00,4737.5212057,N,12220.2961290,W,4,16,0.7,3.8854,M,-17.3245,M,3.0,0000*7F
$GPGGA,004002.00,4737.5217542,N,12220.2961154,W,4,15,0.8,3.8932,M,-17.3244,M,2.0,0000*7E
$GPGGA,004003.00,4737.5223403,N,12220.2961180,W,4,16,0.7,3.8728,M,-17.3244,M,3.0,0000*7D
$GPGGA,004004.00,4737.5229399,N,12220.2961468,W,4,16,0.7,3.8436,M,-17.3244,M,3.0,0000*7B
$GPGGA,004005.00,4737.5235744,N,12220.2962474,W,4,16,0.7,3.8425,M,-17.3244,M,2.0,0000*7E
$GPGGA,004006.00,4737.5242132,N,12220.2963823,W,4,16,0.7,3.8301,M,-17.3244,M,3.0,0000*75
$GPGGA,004007.00,4737.5249057,N,12220.2964891,W,4,16,0.7,3.8556,M,-17.3244,M,2.0,0000*76
$GPGGA,004008.00,4737.5256277,N,12220.2965401,W,4,16,0.7,3.8799,M,-17.3244,M,2.0,0000*72
$GPGGA,004009.00,4737.5263204,N,12220.2966138,W,4,16,0.7,3.8812,M,-17.3244,M,2.0,0000*71
$GPGGA,004010.00,4737.5269894,N,12220.2966801,W,4,16,0.7,3.8812,M,-17.3244,M,2.0,0000*73
$GPGGA,004011.00,4737.5276235,N,12220.2967162,W,4,16,0.7,3.8737,M,-17.3244,M,2.0,0000*78
$GPGGA,004012.00,4737.5282398,N,12220.2966819,W,4,16,0.7,3.8566,M,-17.3244,M,2.0,0000*74
$GPGGA,004013.00,4737.5288330,N,12220.2966141,W,4,16,0.7,3.8269,M,-17.3244,M,3.0,0000*70
$GPGGA,004014.00,4737.5294125,N,12220.2965961,W,4,16,0.7,3.8209,M,-17.3244,M,2.0,0000*72
$GPGGA,004015.00,4737.5300011,N,12220.2966161,W,4,16,0.7,3.8666,M,-17.3244,M,2.0,0000*7F
$GPGGA,004016.00,4737.5305800,N,12220.2966276,W,4,16,0.7,3.8646,M,-17.3243,M,2.0,0000*71
$GPGGA,004017.00,4737.5311721,N,12220.2966387,W,4,16,0.7,3.8564,M,-17.3243,M,2.0,0000*75
$GPGGA,004018.00,4737.5317389,N,12220.2966510,W,4,15,0.8,3.8534,M,-17.3243,M,3.0,0000*7A
$GPGGA,004019.00,4737.5323248,N,12220.2966627,W,4,16,0.7,3.8404,M,-17.3243,M,2.0,0000*78
$GPGGA,004020.00,4737.5328745,N,12220.2967048,W,4,16,0.7,3.8680,M,-17.3243,M,3.0,0000*70
$GPGGA,004021.00,4737.5334112,N,12220.2967345,W,4,16,0.7,3.8427,M,-17.3243,M,2.0,0000*78
$GPGGA,004022.00,4737.5339500,N,12220.2968093,W,4,16,0.7,3.8417,M,-17.3243,M,2.0,0000*75
$GPGGA,004023.00,4737.5345229,N,12220.2968351,W,4,16,0.7,3.8279,M,-17.3243,M,2.0,0000*70
$GPGGA,004024.00,4737.5350759,N,12220.2968624,W,4,16,0.7,3.7499,M,-17.3243,M,2.0,0000*71
$GPGGA,004025.00,4737.5356116,N,12220.2968608,W,4,16,0.7,3.7266,M,-17.3243,M,2.0,0000*73
$GPGGA,004026.00,4737.5360818,N,12220.2969011,W,4,16,0.7,3.7235,M,-17.3243,M,2.0,0000*7B
$GPGGA,004027.00,4737.5365314,N,12220.2969098,W,4,15,0.8,3.6761,M,-17.3243,M,3.0,0000*71
$GPGGA,004028.00,4737.5369932,N,12220.2968989,W,4,15,0.8,3.6622,M,-17.3243,M,2.0,0000*73
$GPGGA,004029.00,4737.5374872,N,12220.2967622,W,4,15,0.8,3.6371,M,-17.3243,M,2.0,0000*79
$GPGGA,004030.00,4737.5380679,N,12220.2964936,W,4,15,0.8,3.6052,M,-17.3243,M,2.0,0000*74
$GPGGA,004031.00,4737.5386304,N,12220.2962226,W,4,15,0.8,3.5899,M,-17.3243,M,2.0,0000*7C
$GPGGA,004032.00,4737.5391318,N,12220.2959402,W,4,14,0.8,3.5408,M,-17.3242,M,2.0,0000*78
$GPGGA,004033.00,4737.5394939,N,12220.2959077,W,4,13,1.1,3.5239,M,-17.3242,M,3.0,0000*79
$GPGGA,004034.00,4737.5398584,N,12220.2960980,W,4,15,0.8,3.4823,M,-17.3242,M,2.0,0000*7C
$GPGGA,004035.00,4737.5402630,N,12220.2963396,W,4,15,0.8,3.4338,M,-17.3242,M,2.0,0000*7A
$GPGGA,004036.00,4737.5406225,N,12220.2966026,W,4,15,0.8,3.4396,M,-17.3242,M,2.0,0000*74
$GPGGA,004037.00,4737.5407768,N,12220.2967236,W,4,15,0.8,3.3406,M,-17.3242,M,2.0,0000*73
$GPGGA,004038.00,4737.5408265,N,12220.2967107,W,4,14,0.8,3.3100,M,-17.3242,M,3.0,0000*79
$GPGGA,004039.00,4737.5408508,N,12220.2966909,W,4,16,0.7,3.2973,M,-17.3242,M,2.0,0000*72
$GPGGA,004040.00,4737.5408482,N,12220.2966897,W,4,15,0.8,3.2946,M,-17.3242,M,3.0,0000*72
$GPGGA,004041.00,4737.5408504,N,12220.2966936,W,4,15,0.8,3.2982,M,-17.3242,M,2.0,0000*7F
$GPGGA,004042.00,4737.5408468,N,12220.2966872,W,4,13,0.9,3.2979,M,-17.3242,M,2.0,0000*75
$GPGGA,004043.00,4737.5408495,N,12220.2966905,W,4,16,0.7,3.2928,M,-17.3242,M,3.0,0000*79
$GPGGA,004044.00,4737.5408504,N,12220.2966920,W,4,16,0.7,3.2894,M,-17.3242,M,2.0,0000*77
$GPGGA,004045.00,4737.5408507,N,12220.2966913,W,4,16,0.7,3.2931,M,-17.3242,M,2.0,0000*7B
$GPGGA,004046.00,4737.5408495,N,12220.2966914,W,4,16,0.7,3.2906,M,-17.3242,M,3.0,0000*70
$GPGGA,004047.00,4737.5408493,N,12220.2966946,W,4,17,0.7,3.2946,M,-17.3242,M,2.0,0000*74
$GPGGA,004048.00,4737.5408504,N,12220.2966926,W,4,16,0.7,3.2859,M,-17.3242,M,3.0,0000*7D
$GPGGA,004049.00,4737.5408508,N,12220.2966931,W,4,16,0.7,3.2863,M,-17.3242,M,2.0,0000*7E
$GPGGA,004050.00,4737.5408497,N,12220.2966915,W,4,16,0.7,3.2870,M,-17.3242,M,3.0,0000*74
$GPGGA,004051.00,4737.5408504,N,12220.2966906,W,4,16,0.7,3.2903,M,-17.3242,M,2.0,0000*78
$GPGGA,004052.00,4737.5408498,N,12220.2966932,W,4,17,0.7,3.2900,M,-17.3242,M,2.0,0000*7A
$GPGGA,004053.00,4737.5408498,N,12220.2966932,W,4,17,0.7,3.2954,M,-17.3242,M,2.0,0000*7A
$GPGGA,004054.00,4737.5408506,N,12220.2966903,W,4,17,0.7,3.2840,M,-17.3242,M,2.0,0000*7D
$GPGGA,004055.00,4737.5408484,N,12220.2966911,W,4,17,0.7,3.2887,M,-17.3242,M,3.0,0000*7E
$GPGGA,004056.00,4737.5408504,N,12220.2966915,W,4,18,0.6,3.2752,M,-17.3242,M,2.0,0000*78
$GPGGA,004057.00,4737.5408509,N,12220.2966916,W,4,18,0.7,3.2789,M,-17.3242,M,2.0,0000*70
$GPGGA,004058.00,4737.5408510,N,12220.2966927,W,4,16,0.7,3.2838,M,-17.3242,M,2.0,0000*7E
$GPGGA,004059.00,4737.5408518,N,12220.2966943,W,4,16,0.7,3.2792,M,-17.3242,M,2.0,0000*7A
$GPGGA,004100.00,4737.5408534,N,12220.2966925,W,4,16,0.7,3.2868,M,-17.3242,M,2.0,0000*73
$GPGGA,004101.00,4737.5408534,N,12220.2966914,W,4,17,0.7,3.2792,M,-17.3242,M,2.0,0000*7B
$GPGGA,004102.00,4737.5408531,N,12220.2966921,W,4,18,0.6,3.2819,M,-17.3242,M,2.0,0000*79
$GPGGA,004103.00,4737.5408514,N,12220.2966905,W,4,18,0.6,3.2855,M,-17.3242,M,2.0,0000*71
$GPGGA,004104.00,4737.5408516,N,12220.2966911,W,4,18,0.6,3.2750,M,-17.3242,M,2.0,0000*7B
$GPGGA,004105.00,4737.5408525,N,12220.2966914,W,4,19,0.6,3.2737,M,-17.3242,M,2.0,0000*7F
$GPGGA,004106.00,4737.5408520,N,12220.2966891,W,4,18,0.6,3.2750,M,-17.3242,M,3.0,0000*74
$GPGGA,004107.00,4737.5408514,N,12220.2966902,W,4,18,0.6,3.2817,M,-17.3242,M,2.0,0000*74
$GPGGA,004108.00,4737.5408516,N,12220.2966895,W,4,18,0.6,3.2810,M,-17.3242,M,2.0,0000*71
$GPGGA,004109.00,4737.5408512,N,12220.2966913,W,4,19,0.6,3.2739,M,-17.3242,M,3.0,0000*7F
$GPGGA,004110.00,4737.5408502,N,12220.2966933,W,4,18,0.7,3.2798,M,-17.3242,M,2.0,0000*7E
$GPGGA,004111.00,4737.5408518,N,12220.2966910,W,4,18,0.6,3.2693,M,-17.3242,M,2.0,0000*7E
$GPGGA,004112.00,4737.5408484,N,12220.2966915,W,4,18,0.6,3.2764,M,-17.3242,M,2.0,0000*75
$GPGGA,004113.00,4737.5408471,N,12220.2966923,W,4,18,0.6,3.2786,M,-17.3242,M,2.0,0000*77
$GPGGA,004114.00,4737.5408477,N,12220.2966904,W,4,18,0.6,3.2771,M,-17.3242,M,3.0,0000*7A
$GPGGA,004115.00,4737.5408482,N,12220.2966914,W,4,18,0.6,3.2796,M,-17.3242,M,2.0,0000*78
$GPGGA,004116.00,4737.5408482,N,12220.2966916,W,4,19,0.6,3.2747,M,-17.3242,M,3.0,0000*75
$GPGGA,004117.00,4737.5408488,N,12220.2966942,W,4,18,0.6,3.2818,M,-17.3242,M,2.0,0000*7A
$GPGGA,004118.00,4737.5408484,N,12220.2966947,W,4,18,0.6,3.2808,M,-17.3242,M,2.0,0000*7D
$GPGGA,004119.00,4737.5408472,N,12220.2966949,W,4,18,0.6,3.2820,M,-17.3242,M,3.0,0000*70
$GPGGA,004120.00,4737.5408465,N,12220.2966941,W,4,18,0.6,3.2778,M,-17.3242,M,2.0,0000*77
$GPGGA,004121.00,4737.5408462,N,12220.2966920,W,4,18,0.6,3.2788,M,-17.3242,M,3.0,0000*78
$GPGGA,004122.00,4737.5408447,N,12220.2966938,W,4,18,0.6,3.2733,M,-17.3242,M,3.0,0000*75
$GPGGA,004123.00,4737.5408481,N,12220.2966940,W,4,18,0.6,3.2772,M,-17.3242,M,2.0,0000*75
$GPGGA,004124.00,4737.5408481,N,12220.2966918,W,4,17,0.7,3.2812,M,-17.3242,M,2.0,0000*78
$GPGGA,004125.00,4737.5408469,N,12220.2966935,W,4,17,0.7,3.2739,M,-17.3242,M,2.0,0000*76
$GPGGA,004126.00,4737.5408442,N,12220.2966916,W,4,17,0.7,3.2750,M,-17.3242,M,2.0,0000*72
$GPGGA,004127.00,4737.5408507,N,12220.2966851,W,4,14,0.8,3.3079,M,-17.3242,M,3.0,0000*71
$GPGGA,004128.00,4737.5408410,N,12220.2966972,W,4,17,0.7,3.2984,M,-17.3242,M,2.0,0000*7E
$GPGGA,004129.00,4737.5408590,N,12220.2967139,W,4,16,0.7,3.3200,M,-17.3242,M,2.0,0000*77
$GPGGA,004130.00,4737.5408687,N,12220.2966872,W,4,15,0.9,3.2951,M,-17.3242,M,3.0,0000*7F
$GPGGA,004131.00,4737.5408496,N,12220.2966912,W,4,15,0.9,3.2903,M,-17.3242,M,2.0,0000*7D
$GPGGA,004132.00,4737.5408534,N,12220.2966906,W,4,16,0.8,3.2975,M,-17.3242,M,2.0,0000*71
$GPGGA,004133.00,4737.5408474,N,12220.2967004,W,4,15,0.9,3.2998,M,-17.3242,M,2.0,0000*7E
$GPGGA,004134.00,4737.5408493,N,12220.2966970,W,4,16,0.8,3.3052,M,-17.3242,M,2.0,0000*77
$GPGGA,004135.00,4737.5408497,N,12220.2967002,W,4,16,0.8,3.3013,M,-17.3242,M,2.0,0000*7A
$GPGGA,004136.00,4737.5408593,N,12220.2967062,W,4,15,0.9,3.3152,M,-17.3242,M,2.0,0000*7C
$GPGGA,004137.00,4737.5408489,N,12220.2966970,W,4,16,0.7,3.3020,M,-17.3242,M,3.0,0000*74
$GPGGA,004138.00,4737.5408513,N,12220.2966964,W,4,15,0.9,3.2969,M,-17.3242,M,2.0,0000*75
$GPGGA,004139.00,4737.5408530,N,12220.2966964,W,4,15,0.9,3.3103,M,-17.3242,M,2.0,0000*70
$GPGGA,004140.00,4737.5408491,N,12220.2966989,W,4,16,0.8,3.3045,M,-17.3242,M,3.0,0000*77
$GPGGA,004141.00,4737.5408541,N,12220.2966973,W,4,14,0.9,3.3249,M,-17.3242,M,3.0,0000*72
$GPGGA,004142.00,4737.5408569,N,12220.2967118,W,4,15,0.9,3.3051,M,-17.3242,M,2.0,0000*74
$GPGGA,004143.00,4737.5408659,N,12220.2967027,W,4,15,0.9,3.3289,M,-17.3242,M,3.0,0000*7E
$GPGGA,004144.00,4737.5408571,N,12220.2966984,W,4,14,0.9,3.2945,M,-17.3242,M,3.0,0000*7A
$GPGGA,004145.00,4737.5408451,N,12220.2967004,W,4,16,0.7,3.2986,M,-17.3242,M,2.0,0000*7A
$GPGGA,004146.00,4737.5408470,N,12220.2966978,W,4,16,0.7,3.2912,M,-17.3242,M,2.0,0000*74
$GPGGA,004147.00,4737.5408474,N,12220.2966971,W,4,16,0.7,3.2865,M,-17.3242,M,2.0,0000*79
$GPGGA,004148.00,4737.5408477,N,12220.2966998,W,4,17,0.7,3.2926,M,-17.3242,M,2.0,0000*75
$GPGGA,004149.00,4737.5408481,N,12220.2967004,W,4,18,0.7,3.2913,M,-17.3242,M,2.0,0000*79
$GPGGA,004150.00,4737.5408475,N,12220.2966995,W,4,18,0.7,3.2913,M,-17.3242,M,2.0,0000*7A
$GPGGA,004151.00,4737.5408477,N,12220.2966968,W,4,16,0.7,3.2978,M,-17.3242,M,3.0,0000*79
$GPGGA,004152.00,4737.5408473,N,12220.2966978,W,4,18,0.7,3.2900,M,-17.3242,M,2.0,0000*7F
$GPGGA,004153.00,4737.5408503,N,12220.2966986,W,4,19,0.6,3.2970,M,-17.3242,M,2.0,0000*7E
$GPGGA,004154.00,4737.5408508,N,12220.2966976,W,4,19,0.6,3.2957,M,-17.3242,M,3.0,0000*79
$GPGGA,004155.00,4737.5408533,N,12220.2966951,W,4,19,0.6,3.2921,M,-17.3242,M,2.0,0000*75
$GPGGA,004156.00,4737.5408483,N,12220.2966947,W,4,18,0.6,3.2978,M,-17.3242,M,2.0,0000*76
$GPGGA,004157.00,4737.5408535,N,12220.2966965,W,4,18,0.7,3.2813,M,-17.3242,M,3.0,0000*77
$GPGGA,004158.00,4737.5408517,N,12220.2966963,W,4,15,0.8,3.2744,M,-17.3242,M,2.0,0000*70
$GPGGA,004159.00,4737.5408550,N,12220.2966952,W,4,17,0.7,3.2766,M,-17.3242,M,2.0,0000*7D
$GPGGA,004200.00,4737.5408616,N,12220.2967004,W,4,13,0.9,3.2972,M,-17.3242,M,2.0,0000*79
$GPGGA,004201.00,4737.5408625,N,12220.2966949,W,4,15,0.9,3.3017,M,-17.3242,M,2.0,0000*74
$GPGGA,004202.00,4737.5408663,N,12220.2966975,W,4,15,0.9,3.3051,M,-17.3242,M,2.0,0000*78
$GPGGA,004203.00,4737.5408660,N,12220.2966970,W,4,15,0.9,3.3023,M,-17.3242,M,2.0,0000*7A
$GPGGA,004204.00,4737.5408658,N,12220.2967000,W,4,15,0.9,3.3058,M,-17.3242,M,2.0,0000*75
$GPGGA,004205.00,4737.5408635,N,12220.2966949,W,4,14,0.9,3.2973,M,-17.3242,M,2.0,0000*7A
$GPGGA,004206.00,4737.5408645,N,12220.2966930,W,4,15,0.9,3.3018,M,-17.3242,M,3.0,0000*75
$GPGGA,004207.00,4737.5408662,N,12220.2966970,W,4,15,0.9,3.3083,M,-17.3242,M,2.0,0000*76
$GPGGA,004208.00,4737.5408607,N,12220.2966948,W,4,15,0.9,3.3006,M,-17.3242,M,2.0,0000*7C
$GPGGA,004209.00,4737.5408677,N,12220.2966961,W,4,14,1.0,3.3055,M,-17.3242,M,2.0,0000*7E
$GPGGA,004210.00,4737.5408662,N,12220.2966917,W,4,15,0.9,3.3138,M,-17.3242,M,2.0,0000*70
$GPGGA,004211.00,4737.5408610,N,12220.2966891,W,4,15,0.9,3.2952,M,-17.3242,M,2.0,0000*7E
$GPGGA,004212.00,4737.5408624,N,12220.2966915,W,4,15,0.9,3.3054,M,-17.3242,M,3.0,0000*78
$GPGGA,004213.00,4737.5408642,N,12220.2966994,W,4,14,0.9,3.3151,M,-17.3242,M,2.0,0000*74
$GPGGA,004214.00,4737.5408600,N,12220.2967007,W,4,14,0.9,3.3030,M,-17.3242,M,2.0,0000*71
$GPGGA,004215.00,4737.5408631,N,12220.2966973,W,4,14,0.9,3.3003,M,-17.3242,M,2.0,0000*79
$GPGGA,004216.00,4737.5408663,N,12220.2966961,W,4,15,0.9,3.2944,M,-17.3242,M,2.0,0000*74
$GPGGA,004217.00,4737.5408645,N,12220.2966923,W,4,15,0.9,3.2981,M,-17.3242,M,2.0,0000*7E
$GPGGA,004218.00,4737.5408605,N,12220.2966909,W,4,15,0.9,3.2998,M,-17.3242,M,2.0,0000*75
$GPGGA,004219.00,4737.5408597,N,12220.2966878,W,4,16,0.7,3.3006,M,-17.3242,M,3.0,0000*78
$GPGGA,004220.00,4737.5408587,N,12220.2966911,W,4,16,0.7,3.2981,M,-17.3242,M,2.0,0000*7B
$GPGGA,004221.00,4737.5408565,N,12220.2966922,W,4,17,0.7,3.2970,M,-17.3242,M,2.0,0000*79
$GPGGA,004222.00,4737.5408583,N,12220.2966954,W,4,17,0.7,3.3040,M,-17.3242,M,2.0,0000*78
$GPGGA,004223.00,4737.5408576,N,12220.2966944,W,4,17,0.7,3.2960,M,-17.3242,M,2.0,0000*78
$GPGGA,004224.00,4737.5408609,N,12220.2966945,W,4,17,0.7,3.2982,M,-17.3242,M,2.0,0000*79
$GPGGA,004225.00,4737.5408578,N,12220.2966964,W,4,15,0.8,3.2970,M,-17.3242,M,2.0,0000*7E
$GPGGA,004226.00,4737.5408589,N,12220.2967001,W,4,17,0.7,3.2973,M,-17.3242,M,3.0,0000*77
$GPGGA,004227.00,4737.5408567,N,12220.2966988,W,4,15,0.8,3.2990,M,-17.3242,M,2.0,0000*7E
$GPGGA,004228.00,4737.5408482,N,12220.2966903,W,4,16,0.7,3.2601,M,-17.3242,M,2.0,0000*73
$GPGGA,004229.00,4737.5408501,N,12220.2966981,W,4,16,0.7,3.2762,M,-17.3242,M,2.0,0000*76
$GPGGA,004230.00,4737.5408499,N,12220.2966962,W,4,16,0.7,3.2803,M,-17.3242,M,2.0,0000*7B
$GPGGA,004231.00,4737.5408498,N,12220.2966917,W,4,18,0.6,3.2823,M,-17.3242,M,2.0,0000*74
$GPGGA,004232.00,4737.5408495,N,12220.2966916,W,4,17,0.7,3.2788,M,-17.3242,M,3.0,0000*7A
$GPGGA,004233.00,4737.5408521,N,12220.2966932,W,4,17,0.7,3.2791,M,-17.3242,M,2.0,0000*7A
$GPGGA,004234.00,4737.5408522,N,12220.2966954,W,4,16,0.7,3.2799,M,-17.3242,M,2.0,0000*77
$GPGGA,004235.00,4737.5408464,N,12220.2966923,W,4,16,0.7,3.2728,M,-17.3242,M,2.0,0000*7F
$GPGGA,004236.00,4737.5408472,N,12220.2966899,W,4,16,0.7,3.2726,M,-17.3242,M,2.0,0000*75
$GPGGA,004237.00,4737.5408503,N,12220.2966952,W,4,15,0.9,3.2824,M,-17.3242,M,2.0,0000*75
$GPGGA,004238.00,4737.5408510,N,12220.2966913,W,4,15,0.9,3.2775,M,-17.3242,M,2.0,0000*76
$GPGGA,004239.00,4737.5408519,N,12220.2966942,W,4,16,0.7,3.2915,M,-17.3242,M,2.0,0000*7F
$GPGGA,004240.00,4737.5408513,N,12220.2966932,W,4,16,0.7,3.2875,M,-17.3242,M,3.0,0000*7A
$GPGGA,004241.00,4737.5408484,N,12220.2966927,W,4,18,0.6,3.2884,M,-17.3242,M,2.0,0000*70
$GPGGA,004242.00,4737.5408495,N,12220.2966938,W,4,18,0.6,3.2850,M,-17.3242,M,2.0,0000*74
$GPGGA,004243.00,4737.5408474,N,12220.2966943,W,4,17,0.7,3.2723,M,-17.3242,M,2.0,0000*73
$GPGGA,004244.00,4737.5408490,N,12220.2966963,W,4,16,0.7,3.2744,M,-17.3242,M,2.0,0000*7C
$GPGGA,004245.00,4737.5408706,N,12220.2967276,W,4,17,0.7,3.3347,M,-17.3242,M,2.0,0000*78
$GPGGA,004246.00,4737.5410747,N,12220.2969951,W,4,17,0.7,3.4163,M,-17.3242,M,2.0,0000*74
$GPGGA,004247.00,4737.5414463,N,12220.2973809,W,4,18,0.7,3.4100,M,-17.3242,M,3.0,0000*78
$GPGGA,004248.00,4737.5418706,N,12220.2978000,W,4,18,0.7,3.4210,M,-17.3242,M,2.0,0000*72
$GPGGA,004249.00,4737.5422611,N,12220.2982547,W,4,18,0.7,3.4239,M,-17.3242,M,2.0,0000*75
$GPGGA,004250.00,4737.5427310,N,12220.2987653,W,4,17,0.7,3.2493,M,-17.3242,M,2.0,0000*70
$GPGGA,004251.00,4737.5432489,N,12220.2991268,W,4,18,0.7,3.3042,M,-17.3242,M,2.0,0000*7F
$GPGGA,004252.00,4737.5437063,N,12220.2994327,W,4,19,0.6,3.2600,M,-17.3242,M,2.0,0000*77
$GPGGA,004253.00,4737.5442082,N,12220.2998242,W,4,17,0.7,3.3132,M,-17.3242,M,2.0,0000*7D
$GPGGA,004254.00,4737.5447397,N,12220.3003199,W,4,17,0.7,3.3362,M,-17.3242,M,3.0,0000*71
$GPGGA,004255.00,4737.5452180,N,12220.3008024,W,4,17,0.7,3.3678,M,-17.3242,M,2.0,0000*73
$GPGGA,004256.00,4737.5457457,N,12220.3012735,W,4,17,0.7,3.3711,M,-17.3242,M,2.0,0000*78
$GPGGA,004257.00,4737.5463038,N,12220.3017967,W,4,17,0.7,3.3818,M,-17.3242,M,2.0,0000*79
$GPGGA,004258.00,4737.5468270,N,12220.3022700,W,4,18,0.7,3.3567,M,-17.3242,M,2.0,0000*70
$GPGGA,004259.00,4737.5473567,N,12220.3027295,W,4,18,0.7,3.3416,M,-17.3242,M,2.0,0000*71
$GPGGA,004300.00,4737.5478717,N,12220.3032178,W,4,16,0.8,3.3281,M,-17.3242,M,3.0,0000*7E
$GPGGA,004301.00,4737.5483716,N,12220.3036618,W,4,18,0.7,3.2935,M,-17.3242,M,2.0,0000*7A
$GPGGA,004302.00,4737.5489015,N,12220.3040490,W,4,18,0.7,3.3028,M,-17.3242,M,3.0,0000*71
$GPGGA,004303.00,4737.5495145,N,12220.3043886,W,4,19,0.6,3.3029,M,-17.3242,M,2.0,0000*71
$GPGGA,004304.00,4737.5501068,N,12220.3046358,W,4,18,0.7,3.3268,M,-17.3242,M,2.0,0000*7E
$GPGGA,004305.00,4737.5507425,N,12220.3048166,W,4,16,0.7,3.4001,M,-17.3242,M,2.0,0000*71
$GPGGA,004306.00,4737.5513861,N,12220.3050301,W,4,16,0.8,3.4986,M,-17.3242,M,2.0,0000*78
$GPGGA,004307.00,4737.5520224,N,12220.3053030,W,4,18,0.7,3.4699,M,-17.3242,M,2.0,0000*70
$GPGGA,004308.00,4737.5526911,N,12220.3056630,W,4,18,0.7,3.4668,M,-17.3242,M,3.0,0000*78
$GPGGA,004309.00,4737.5533782,N,12220.3059693,W,4,18,0.7,3.4476,M,-17.3242,M,2.0,0000*73
$GPGGA,004310.00,4737.5540442,N,12220.3061247,W,4,18,0.7,3.4456,M,-17.3242,M,2.0,0000*74
$GPGGA,004311.00,4737.5547148,N,12220.3061527,W,4,19,0.6,3.4188,M,-17.3241,M,2.0,0000*79
$GPGGA,004312.00,4737.5553411,N,12220.3060026,W,4,18,0.7,3.4760,M,-17.3241,M,2.0,0000*73
$GPGGA,004313.00,4737.5559294,N,12220.3056499,W,4,18,0.7,3.4711,M,-17.3241,M,3.0,0000*71
$GPGGA,004314.00,4737.5564451,N,12220.3050659,W,4,18,0.7,3.4982,M,-17.3241,M,2.0,0000*7A
$GPGGA,004315.00,4737.5569303,N,12220.3044490,W,4,19,0.6,3.4792,M,-17.3241,M,2.0,0000*7B
$GPGGA,004316.00,4737.5573349,N,12220.3038640,W,4,16,0.7,3.4614,M,-17.3241,M,2.0,0000*78
$GPGGA,004317.00,4737.5576776,N,12220.3033564,W,4,17,0.7,3.4684,M,-17.3241,M,2.0,0000*72
$GPGGA,004318.00,4737.5579731,N,12220.3029351,W,4,14,0.8,3.4005,M,-17.3241,M,3.0,0000*78
$GPGGA,004319.00,4737.5580520,N,12220.3028261,W,4,14,0.8,3.3578,M,-17.3241,M,3.0,0000*76
$GPGGA,004320.00,4737.5580474,N,12220.3028688,W,4,15,0.8,3.3461,M,-17.3241,M,2.0,0000*76
$GPGGA,004321.00,4737.5580505,N,12220.3028679,W,4,16,0.7,3.3485,M,-17.3241,M,3.0,0000*79
