$GPGGA,003627.00,4737.3967509,N,12220.2960605,W,4,12,0.9,7.1249,M,-17.3259,M,2.0,0000*7F
$GPGGA,003628.00,4737.3973126,N,12220.2960879,W,4,11,1.0,7.1372,M,-17.3259,M,2.0,0000*7B
$GPGGA,003629.00,4737.3978413,N,12220.2961217,W,4,10,1.2,7.1040,M,-17.3259,M,2.0,0000*70
$GPGGA,003630.00,4737.3984054,N,12220.2961534,W,4,09,1.7,7.1069,M,-17.3259,M,2.0,0000*7C
$GPGGA,003631.00,4737.3990390,N,12220.2962053,W,4,09,1.5,7.0934,M,-17.3259,M,2.0,0000*76
$GPGGA,003632.00,4737.3995920,N,12220.2962241,W,4,10,1.5,7.1679,M,-17.3259,M,2.0,0000*7F
$GPGGA,003633.00,4737.4001951,N,12220.2962696,W,4,11,1.2,7.0879,M,-17.3259,M,2.0,0000*7C
$GPGGA,003634.00,4737.4008240,N,12220.2962832,W,4,10,1.5,7.0570,M,-17.3258,M,2.0,0000*7A
$GPGGA,003635.00,4737.4013860,N,12220.2962979,W,4,09,2.0,7.0275,M,-17.3258,M,2.0,0000*7B
$GPGGA,003636.00,4737.4019426,N,12220.2963227,W,4,10,1.5,7.0734,M,-17.3258,M,2.0,0000*73
$GPGGA,003637.00,4737.4024747,N,12220.2963030,W,4,08,1.7,7.1869,M,-17.3258,M,2.0,0000*71
$GPGGA,003638.00,4737.4031235,N,12220.2963437,W,5,08,2.8,7.1086,M,-17.3258,M,2.0,0000*7D
$GPGGA,003639.00,4737.4037161,N,12220.2963081,W,5,10,1.3,6.9861,M,-17.3258,M,2.0,0000*78
$GPGGA,003640.00,4737.4043168,N,12220.2964494,W,4,09,1.3,7.1796,M,-17.3258,M,3.0,0000*7D
$GPGGA,003641.00,4737.4048674,N,12220.2964457,W,5,06,2.6,7.2276,M,-17.3258,M,2.0,0000*73
$GPGGA,003642.00,4737.4055924,N,12220.2963804,W,4,09,2.1,6.9789,M,-17.3258,M,2.0,0000*7D
$GPGGA,003643.00,4737.4061700,N,12220.2963762,W,4,10,1.8,7.0352,M,-17.3258,M,2.0,0000*74
$GPGGA,003644.00,4737.4067300,N,12220.2963729,W,5,07,2.7,6.9997,M,-17.3258,M,2.0,0000*7E
$GPGGA,003645.00,4737.4073274,N,12220.2963443,W,5,07,2.4,6.8600,M,-17.3258,M,2.0,0000*74
$GPGGA,003646.00,4737.4079047,N,12220.2961847,W,5,06,3.5,6.8232,M,-17.3258,M,2.0,0000*71
$GPGGA,003647.00,4737.4085451,N,12220.2960888,W,5,06,3.5,6.7308,M,-17.3258,M,2.0,0000*75
$GPGGA,003648.00,4737.4091772,N,12220.2960890,W,5,06,3.5,6.7032,M,-17.3257,M,2.0,0000*71
$GPGGA,003649.00,4737.4094346,N,12220.2960460,W,2,13,1.5,7.2251,M,-17.3257,M,3.0,0000*76
$GPGGA,003650.00,4737.4104857,N,12220.2961268,W,5,06,3.5,6.7171,M,-17.3257,M,2.0,0000*77
$GPGGA,003651.00,4737.4111838,N,12220.2961973,W,5,06,3.5,6.6317,M,-17.3257,M,2.0,0000*79
$GPGGA,003652.00,4737.4119029,N,12220.2961920,W,4,07,2.4,6.6476,M,-17.3257,M,2.0,0000*7C
$GPGGA,003653.00,4737.4125433,N,12220.2962805,W,5,05,5.5,6.7399,M,-17.3257,M,2.0,0000*7A
$GPGGA,003654.00,4737.4132834,N,12220.2962418,W,5,06,3.1,6.6900,M,-17.3257,M,2.0,0000*7A
$GPGGA,003655.00,4737.4138737,N,12220.2963953,W,5,06,2.6,6.8473,M,-17.3257,M,2.0,0000*7F
$GPGGA,003656.00,4737.4146761,N,12220.2959960,W,2,11,1.7,7.3954,M,-17.3257,M,2.0,0000*7E
$GPGGA,003657.00,4737.4153294,N,12220.2963308,W,5,07,2.3,6.6608,M,-17.3257,M,2.0,0000*7C
$GPGGA,003658.00,4737.4157691,N,12220.2958669,W,5,06,5.2,5.9655,M,-17.3257,M,3.0,0000*7E
$GPGGA,003659.00,4737.4163907,N,12220.2958380,W,5,05,5.9,5.9201,M,-17.3257,M,2.0,0000*76
$GPGGA,003700.00,4737.4173316,N,12220.2957616,W,5,07,3.6,6.4023,M,-17.3256,M,2.0,0000*73
$GPGGA,003701.00,4737.4181273,N,12220.2956412,W,5,06,3.9,6.2999,M,-17.3256,M,2.0,0000*7A
$GPGGA,003702.00,4737.4201718,N,12220.3008618,W,5,07,3.9,18.7990,M,-17.3257,M,2.0,0000*42
$GPGGA,003703.00,4737.4194591,N,12220.2956239,W,5,09,2.1,5.2215,M,-17.3256,M,2.0,0000*72
$GPGGA,003704.00,4737.4200412,N,12220.2960348,W,5,06,3.1,5.0020,M,-17.3256,M,2.0,0000*7B
$GPGGA,003705.00,4737.4206231,N,12220.2965573,W,5,06,3.5,4.5695,M,-17.3256,M,2.0,0000*78
$GPGGA,003706.00,4737.4212204,N,12220.2966398,W,5,07,2.4,4.5354,M,-17.3256,M,2.0,0000*71
$GPGGA,003707.00,4737.4219144,N,12220.2966374,W,5,07,2.4,4.2502,M,-17.3256,M,2.0,0000*7C
$GPGGA,003708.00,4737.4231397,N,12220.2957076,W,2,16,1.2,5.7824,M,-17.3256,M,2.0,0000*79
$GPGGA,003709.00,4737.4232138,N,12220.2971521,W,5,07,3.1,4.2779,M,-17.3256,M,2.0,0000*7A
$GPGGA,003710.00,4737.4241218,N,12220.2971625,W,5,07,3.4,3.8101,M,-17.3256,M,3.0,0000*70
$GPGGA,003711.00,4737.4250256,N,12220.2970686,W,5,07,2.4,4.6360,M,-17.3256,M,3.0,0000*7E
$GPGGA,003712.00,4737.4256574,N,12220.2970773,W,5,08,2.3,4.7011,M,-17.3256,M,3.0,0000*7B
$GPGGA,003713.00,4737.4262693,N,12220.2969881,W,5,05,5.7,4.6115,M,-17.3256,M,3.0,0000*77
$GPGGA,003714.00,4737.4272950,N,12220.2945286,W,2,15,1.4,6.2327,M,-17.3255,M,3.0,0000*75
$GPGGA,003715.00,4737.4263658,N,12220.2976277,W,5,07,2.2,15.8781,M,-17.3256,M,2.0,0000*4E
$GPGGA,003716.00,4737.4282525,N,12220.2946662,W,2,14,1.2,5.7454,M,-17.3255,M,3.0,0000*79
$GPGGA,003717.00,4737.4287445,N,12220.2945294,W,2,14,1.5,5.7558,M,-17.3255,M,3.0,0000*7E
$GPGGA,003718.00,4737.4294337,N,12220.2943443,W,2,12,1.4,5.2421,M,-17.3255,M,3.0,0000*76
$GPGGA,003719.00,4737.4296956,N,12220.2975018,W,5,07,2.9,10.8880,M,-17.3255,M,3.0,0000*43
$GPGGA,003720.00,4737.4302796,N,12220.2969614,W,5,05,5.5,8.0963,M,-17.3255,M,3.0,0000*74
$GPGGA,003721.00,4737.4308239,N,12220.2972786,W,5,07,3.4,7.6553,M,-17.3255,M,2.0,0000*7D
$GPGGA,003722.00,4737.4315198,N,12220.2974071,W,5,05,5.5,7.9530,M,-17.3255,M,2.0,0000*7C
$GPGGA,003723.00,4737.4320963,N,12220.2977969,W,5,06,5.1,8.1495,M,-17.3255,M,3.0,0000*7B
$GPGGA,003724.00,4737.4329258,N,12220.3030111,W,5,06,3.9,24.5333,M,-17.3255,M,3.0,0000*45
$GPGGA,003725.00,4737.4325349,N,12220.2976246,W,5,07,2.3,12.9550,M,-17.3255,M,2.0,0000*43
$GPGGA,003726.00,4737.4344686,N,12220.2926255,W,2,15,1.3,6.0367,M,-17.3254,M,2.0,0000*7E
$GPGGA,003727.00,4737.4360410,N,12220.2955709,W,5,07,2.4,5.0040,M,-17.3254,M,3.0,0000*78
$GPGGA,003728.00,4737.4368939,N,12220.2934679,W,2,16,0.9,5.3931,M,-17.3254,M,2.0,0000*7D
$GPGGA,003729.00,4737.4377056,N,12220.2943801,W,5,08,2.1,0.9222,M,-17.3254,M,2.0,0000*77
$GPGGA,003730.00,4737.4386237,N,12220.2939921,W,2,14,1.1,4.4371,M,-17.3254,M,2.0,0000*7D
$GPGGA,003731.00,4737.4392535,N,12220.2941894,W,2,15,1.3,4.2038,M,-17.3254,M,3.0,0000*76
$GPGGA,003732.00,4737.4398200,N,12220.2945473,W,2,11,1.7,4.2080,M,-17.3254,M,2.0,0000*7D
$GPGGA,003733.00,4737.4403142,N,12220.2926508,W,5,05,6.1,-1.5427,M,-17.3254,M,2.0,0000*51
$GPGGA,003734.00,4737.4408053,N,12220.2945865,W,2,13,1.1,3.9696,M,-17.3254,M,2.0,0000*73
$GPGGA,003735.00,4737.4411248,N,12220.2946071,W,2,12,1.5,4.6444,M,-17.3254,M,2.0,0000*7C
$GPGGA,003736.00,4737.4415255,N,12220.2944662,W,2,12,1.5,4.6319,M,-17.3254,M,2.0,0000*7E
$GPGGA,003737.00,4737.4425437,N,12220.2933701,W,5,08,2.1,2.7955,M,-17.3253,M,2.0,0000*73
$GPGGA,003738.00,4737.4427072,N,12220.2947045,W,1,14,1.4,4.8504,M,-17.3253,M,3.0,0000*70
$GPGGA,003739.00,4737.4434135,N,12220.2945965,W,1,12,1.5,4.3876,M,-17.3253,M,2.0,0000*7D
$GPGGA,003740.00,4737.4440463,N,12220.2950818,W,2,14,1.4,4.0981,M,-17.3253,M,2.0,0000*77
$GPGGA,003741.00,4737.4449701,N,12220.2952246,W,2,14,0.9,4.0874,M,-17.3253,M,2.0,0000*7C
$GPGGA,003742.00,4737.4460770,N,12220.2941934,W,5,04,6.6,0.5360,M,-17.3253,M,3.0,0000*7F
$GPGGA,003743.00,4737.4463710,N,12220.2952130,W,2,13,1.4,4.4948,M,-17.3253,M,2.0,0000*75
$GPGGA,003744.00,4737.4468974,N,12220.2952189,W,2,14,1.4,4.8115,M,-17.3253,M,2.0,0000*7C
$GPGGA,003745.00,4737.4474560,N,12220.2952985,W,2,13,1.4,4.8851,M,-17.3253,M,3.0,0000*72
$GPGGA,003746.00,4737.4481103,N,12220.2951551,W,2,12,1.6,4.7264,M,-17.3253,M,2.0,0000*7D
$GPGGA,003747.00,4737.4488312,N,12220.2950517,W,2,13,1.4,4.9540,M,-17.3253,M,2.0,0000*78
$GPGGA,003748.00,4737.4496805,N,12220.2950410,W,2,11,1.5,4.8991,M,-17.3253,M,3.0,0000*70
$GPGGA,003749.00,4737.4506968,N,12220.2947506,W,5,05,2.9,0.9442,M,-17.3253,M,2.0,0000*79
$GPGGA,003750.00,4737.4509141,N,12220.2948078,W,2,15,0.9,5.5541,M,-17.3253,M,2.0,0000*71
$GPGGA,003751.00,4737.4519548,N,12220.2951409,W,2,13,1.0,5.3146,M,-17.3252,M,2.0,0000*7C
$GPGGA,003752.00,4737.4526570,N,12220.2949957,W,2,15,0.9,4.8596,M,-17.3252,M,3.0,0000*7B
$GPGGA,003753.00,4737.4535243,N,12220.2962408,W,5,05,5.4,1.2748,M,-17.3252,M,2.0,0000*70
$GPGGA,003754.00,4737.4539689,N,12220.2957110,W,2,13,1.1,4.9569,M,-17.3252,M,2.0,0000*7D
$GPGGA,003755.00,4737.4545699,N,12220.2955190,W,2,15,0.9,5.4088,M,-17.3252,M,2.0,0000*75
$GPGGA,003756.00,4737.4551989,N,12220.2952988,W,2,14,0.9,5.3063,M,-17.3252,M,3.0,0000*79
$GPGGA,003757.00,4737.4558072,N,12220.2954795,W,2,14,0.9,5.3820,M,-17.3252,M,2.0,0000*76
$GPGGA,003758.00,4737.4561749,N,12220.2957535,W,1,14,0.9,5.2954,M,-17.3252,M,2.0,0000*77
$GPGGA,003759.00,4737.4559119,N,12220.2987152,W,5,05,2.8,4.3337,M,-17.3252,M,3.0,0000*7F
$GPGGA,003800.00,4737.4572909,N,12220.2956659,W,2,14,0.9,5.4909,M,-17.3252,M,3.0,0000*79
$GPGGA,003801.00,4737.4582289,N,12220.2955833,W,2,12,1.2,4.7908,M,-17.3252,M,3.0,0000*7A
$GPGGA,003802.00,4737.4589199,N,12220.2955322,W,2,13,1.6,4.3531,M,-17.3252,M,4.0,0000*7B
$GPGGA,003803.00,4737.4587058,N,12220.2982534,W,5,06,3.5,1.9053,M,-17.3252,M,5.0,0000*7E
$GPGGA,003804.00,4737.4598029,N,12220.2959531,W,5,05,5.4,1.3087,M,-17.3252,M,3.0,0000*73
$GPGGA,003805.00,4737.4609940,N,12220.2949301,W,2,10,1.6,3.8887,M,-17.3251,M,2.0,0000*7D
$GPGGA,003806.00,4737.4616444,N,12220.2946526,W,2,14,1.4,3.9805,M,-17.3251,M,3.0,0000*79
$GPGGA,003807.00,4737.4630266,N,12220.2949697,W,5,05,5.4,0.9701,M,-17.3251,M,2.0,0000*76
$GPGGA,003808.00,4737.4634375,N,12220.2941795,W,1,12,1.6,3.8946,M,-17.3251,M,2.0,0000*7E
$GPGGA,003809.00,4737.4645677,N,12220.2946868,W,5,08,2.2,1.2618,M,-17.3251,M,2.0,0000*70
$GPGGA,003810.00,4737.4652099,N,12220.2943894,W,5,07,3.9,0.9511,M,-17.3251,M,2.0,0000*7B
$GPGGA,003811.00,4737.4657843,N,12220.2941883,W,5,07,3.9,0.6070,M,-17.3251,M,2.0,0000*79
$GPGGA,003812.00,4737.4661497,N,12220.2945501,W,2,16,1.3,3.8469,M,-17.3251,M,3.0,0000*76
$GPGGA,003813.00,4737.4665523,N,12220.2948519,W,2,16,1.3,4.1180,M,-17.3251,M,3.0,0000*75
$GPGGA,003814.00,4737.4662062,N,12220.2987587,W,5,05,5.4,5.8082,M,-17.3251,M,2.0,0000*7D
$GPGGA,003815.00,4737.4663389,N,12220.2976544,W,5,07,3.8,7.5184,M,-17.3251,M,2.0,0000*7A
$GPGGA,003816.00,4737.4666397,N,12220.2968874,W,5,07,3.8,8.1275,M,-17.3251,M,2.0,0000*74
$GPGGA,003817.00,4737.4668645,N,12220.2965019,W,5,07,3.1,8.7938,M,-17.3251,M,3.0,0000*73
$GPGGA,003818.00,4737.4671597,N,12220.2957354,W,5,06,3.6,8.1146,M,-17.3251,M,2.0,0000*73
$GPGGA,003819.00,4737.4673710,N,12220.2950375,W,5,06,3.6,7.5643,M,-17.3251,M,2.0,0000*70
$GPGGA,003820.00,4737.4676088,N,12220.2942505,W,5,07,3.4,7.1581,M,-17.3251,M,3.0,0000*70
$GPGGA,003821.00,4737.4677754,N,12220.2936815,W,5,07,3.4,6.5817,M,-17.3250,M,2.0,0000*7E
$GPGGA,003822.00,4737.4679513,N,12220.2946136,W,5,08,1.4,8.0641,M,-17.3251,M,2.0,0000*77
$GPGGA,003823.00,4737.4679111,N,12220.2947055,W,5,10,1.3,8.4917,M,-17.3251,M,3.0,0000*72
$GPGGA,003824.00,4737.4679278,N,12220.2947360,W,5,10,1.3,8.7420,M,-17.3251,M,2.0,0000*77
$GPGGA,003825.00,4737.4679572,N,12220.2947513,W,5,09,1.3,9.2858,M,-17.3251,M,2.0,0000*76
$GPGGA,003826.00,4737.4680134,N,12220.2946889,W,5,08,2.7,9.3520,M,-17.3251,M,3.0,0000*7E
$GPGGA,003827.00,4737.4679923,N,12220.2946597,W,5,08,2.7,9.2305,M,-17.3251,M,3.0,0000*75
$GPGGA,003828.00,4737.4679208,N,12220.2945491,W,5,08,2.7,9.0316,M,-17.3251,M,2.0,0000*7D
$GPGGA,003829.00,4737.4678261,N,12220.2944392,W,5,09,2.6,8.9761,M,-17.3251,M,3.0,0000*7A
$GPGGA,003830.00,4737.4678222,N,12220.2944231,W,5,08,2.7,8.7530,M,-17.3251,M,2.0,0000*74
$GPGGA,003831.00,4737.4678385,N,12220.2944118,W,5,09,2.6,8.6242,M,-17.3251,M,3.0,0000*73
$GPGGA,003832.00,4737.4678874,N,12220.2944064,W,5,08,2.7,8.7545,M,-17.3251,M,2.0,0000*7F
$GPGGA,003833.00,4737.4679682,N,12220.2944393,W,5,08,2.7,9.0455,M,-17.3251,M,3.0,0000*74
$GPGGA,003834.00,4737.4679817,N,12220.2944950,W,5,11,1.2,9.4452,M,-17.3251,M,3.0,0000*79
$GPGGA,003835.00,4737.4679477,N,12220.2946108,W,5,11,1.2,9.7197,M,-17.3251,M,2.0,0000*7B
$GPGGA,003836.00,4737.4679720,N,12220.2946155,W,5,11,1.2,9.9347,M,-17.3251,M,3.0,0000*71
$GPGGA,003837.00,4737.4680109,N,12220.2946455,W,5,11,1.2,9.9237,M,-17.3251,M,3.0,0000*78
$GPGGA,003838.00,4737.4681371,N,12220.2944926,W,5,09,1.4,9.6954,M,-17.3251,M,3.0,0000*7E
$GPGGA,003839.00,4737.4682814,N,12220.2942752,W,5,09,1.4,9.3358,M,-17.3251,M,2.0,0000*7D
$GPGGA,003840.00,4737.4684947,N,12220.2933180,W,5,08,2.7,3.3055,M,-17.3250,M,3.0,0000*78
$GPGGA,003841.00,4737.4689822,N,12220.2938003,W,5,10,1.2,4.1320,M,-17.3250,M,3.0,0000*7C
$GPGGA,003842.00,4737.4698290,N,12220.2936011,W,5,10,1.3,3.5356,M,-17.3250,M,3.0,0000*72
$GPGGA,003843.00,4737.4707776,N,12220.2941195,W,4,12,1.0,4.0215,M,-17.3250,M,2.0,0000*71
$GPGGA,003844.00,4737.4712987,N,12220.2939912,W,4,13,1.0,4.0490,M,-17.3250,M,2.0,0000*70
$GPGGA,003845.00,4737.4718713,N,12220.2937943,W,4,12,1.1,4.0504,M,-17.3250,M,2.0,0000*7E
$GPGGA,003846.00,4737.4724844,N,12220.2936323,W,4,10,1.4,4.0473,M,-17.3250,M,2.0,0000*74
$GPGGA,003847.00,4737.4730693,N,12220.2934564,W,4,11,1.2,3.9895,M,-17.3250,M,2.0,0000*7E
$GPGGA,003848.00,4737.4736430,N,12220.2934129,W,4,10,1.4,4.0089,M,-17.3250,M,3.0,0000*7C
$GPGGA,003849.00,4737.4742729,N,12220.2933854,W,4,11,1.4,3.9675,M,-17.3250,M,2.0,0000*7A
$GPGGA,003850.00,4737.4749148,N,12220.2933306,W,4,11,1.4,3.9849,M,-17.3250,M,2.0,0000*75
$GPGGA,003851.00,4737.4756206,N,12220.2933633,W,4,11,1.4,4.0342,M,-17.3250,M,2.0,0000*7E
$GPGGA,003852.00,4737.4763093,N,12220.2933922,W,4,11,1.4,4.1068,M,-17.3249,M,3.0,0000*79
$GPGGA,003853.00,4737.4770195,N,12220.2934204,W,4,12,1.2,4.1473,M,-17.3249,M,2.0,0000*7F
$GPGGA,003854.00,4737.4777404,N,12220.2934999,W,4,13,0.9,4.0848,M,-17.3249,M,3.0,0000*72
$GPGGA,003855.00,4737.4784732,N,12220.2936154,W,4,13,0.9,4.0411,M,-17.3249,M,3.0,0000*72
$GPGGA,003856.00,4737.4791713,N,12220.2937298,W,4,14,0.8,4.0345,M,-17.3249,M,3.0,0000*74
$GPGGA,003857.00,4737.4798808,N,12220.2938954,W,4,14,0.8,3.9862,M,-17.3249,M,2.0,0000*7C
$GPGGA,003858.00,4737.4805445,N,12220.2940248,W,4,14,0.8,3.9520,M,-17.3249,M,2.0,0000*7F
$GPGGA,003859.00,4737.4812191,N,12220.2941144,W,4,14,0.8,3.9328,M,-17.3249,M,2.0,0000*74
$GPGGA,003900.00,4737.4818807,N,12220.2941979,W,4,14,0.8,3.9446,M,-17.3249,M,3.0,0000*7D
$GPGGA,003901.00,4737.4825573,N,12220.2942847,W,4,14,0.8,3.9556,M,-17.3249,M,3.0,0000*73
$GPGGA,003902.00,4737.4832462,N,12220.2943322,W,4,13,0.8,3.9824,M,-17.3249,M,3.0,0000*71
$GPGGA,003903.00,4737.4839582,N,12220.2943591,W,4,12,0.9,4.0034,M,-17.3249,M,3.0,0000*7D
$GPGGA,003904.00,4737.4846575,N,12220.2943634,W,4,11,1.2,3.9161,M,-17.3249,M,3.0,0000*70
$GPGGA,003905.00,4737.4853129,N,12220.2944062,W,4,13,0.9,3.9322,M,-17.3249,M,3.0,0000*77
$GPGGA,003906.00,4737.4859759,N,12220.2945001,W,4,12,1.2,4.0284,M,-17.3248,M,2.0,0000*73
$GPGGA,003907.00,4737.4865959,N,12220.2946032,W,4,12,1.2,4.1365,M,-17.3248,M,3.0,0000*7E
$GPGGA,003908.00,4737.4871834,N,12220.2946988,W,4,12,0.9,4.1400,M,-17.3248,M,2.0,0000*79
$GPGGA,003909.00,4737.4878086,N,12220.2948515,W,4,13,0.9,4.1969,M,-17.3248,M,2.0,0000*75
$GPGGA,003910.00,4737.4884439,N,12220.2950129,W,4,14,0.9,4.1982,M,-17.3248,M,3.0,0000*7F
$GPGGA,003911.00,4737.4891208,N,12220.2952361,W,4,12,0.9,4.2159,M,-17.3248,M,3.0,0000*79
$GPGGA,003912.00,4737.4897731,N,12220.2954353,W,4,15,0.8,4.1949,M,-17.3248,M,2.0,0000*79
$GPGGA,003913.00,4737.4904003,N,12220.2955333,W,4,15,0.8,4.2612,M,-17.3248,M,2.0,0000*70
$GPGGA,003914.00,4737.4910772,N,12220.2955655,W,4,15,0.8,4.2303,M,-17.3248,M,2.0,0000*73
$GPGGA,003915.00,4737.4917435,N,12220.2956461,W,4,15,0.8,4.1964,M,-17.3248,M,2.0,0000*7B
$GPGGA,003916.00,4737.4924240,N,12220.2956836,W,4,15,0.8,4.1921,M,-17.3248,M,3.0,0000*72
$GPGGA,003917.00,4737.4930902,N,12220.2957084,W,4,15,0.8,4.1974,M,-17.3248,M,2.0,0000*7A
$GPGGA,003918.00,4737.4937833,N,12220.2956553,W,4,15,0.8,4.1798,M,-17.3248,M,2.0,0000*73
$GPGGA,003919.00,4737.4944877,N,12220.2956315,W,4,14,0.8,4.1656,M,-17.3248,M,3.0,0000*71
$GPGGA,003920.00,4737.4951839,N,12220.2955680,W,4,14,0.8,4.1779,M,-17.3247,M,3.0,0000*7C
$GPGGA,003921.00,4737.4958685,N,12220.2955939,W,4,14,0.8,4.1963,M,-17.3247,M,3.0,0000*75
$GPGGA,003922.00,4737.4965534,N,12220.2956035,W,4,14,0.8,4.1899,M,-17.3247,M,2.0,0000*72
$GPGGA,003923.00,4737.4972356,N,12220.2956381,W,4,14,0.8,4.1762,M,-17.3247,M,2.0,0000*70
$GPGGA,003924.00,4737.4979029,N,12220.2956504,W,4,13,0.9,4.1475,M,-17.3247,M,3.0,0000*7E
$GPGGA,003925.00,4737.4985927,N,12220.2956915,W,4,13,0.9,4.1206,M,-17.3247,M,2.0,0000*74
$GPGGA,003926.00,4737.4992563,N,12220.2957646,W,4,13,0.9,4.1198,M,-17.3247,M,2.0,0000*71
$GPGGA,003927.00,4737.4999239,N,12220.2957865,W,4,14,0.8,4.1498,M,-17.3247,M,2.0,0000*7F
$GPGGA,003928.00,4737.5005773,N,12220.2958285,W,4,14,0.8,4.1346,M,-17.3247,M,2.0,0000*79
$GPGGA,003929.00,4737.5012420,N,12220.2958378,W,4,14,0.8,4.1377,M,-17.3247,M,2.0,0000*7A
$GPGGA,003930.00,4737.5019000,N,12220.2958438,W,4,14,0.8,4.1251,M,-17.3247,M,3.0,0000*78
$GPGGA,003931.00,4737.5025602,N,12220.2958574,W,4,15,0.8,4.1222,M,-17.3247,M,2.0,0000*7F
$GPGGA,003932.00,4737.5031889,N,12220.2958778,W,4,15,0.8,4.0956,M,-17.3247,M,2.0,0000*73
$GPGGA,003933.00,4737.5037988,N,12220.2958824,W,4,15,0.8,4.0822,M,-17.3247,M,3.0,0000*71
$GPGGA,003934.00,4737.5044087,N,12220.2958542,W,4,15,0.8,4.0755,M,-17.3246,M,2.0,0000*76
$GPGGA,003935.00,4737.5050316,N,12220.2957832,W,4,15,0.8,4.0876,M,-17.3246,M,2.0,0000*72
$GPGGA,003936.00,4737.5056141,N,12220.2957642,W,4,15,0.8,4.0886,M,-17.3246,M,2.0,0000*71
$GPGGA,003937.00,4737.5062443,N,12220.2957590,W,4,15,0.8,4.0936,M,-17.3246,M,2.0,0000*76
$GPGGA,003938.00,4737.5069072,N,12220.2957405,W,4,15,0.8,4.0749,M,-17.3246,M,3.0,0000*7E
$GPGGA,003939.00,4737.5075877,N,12220.2957621,W,4,15,0.8,4.0566,M,-17.3246,M,2.0,0000*75
$GPGGA,003940.00,4737.5082077,N,12220.2957993,W,4,15,0.8,4.0457,M,-17.3246,M,3.0,0000*7F
$GPGGA,003941.00,4737.5088180,N,12220.2958243,W,4,15,0.8,4.0265,M,-17.3246,M,2.0,0000*72
$GPGGA,003942.00,4737.5094433,N,12220.2958584,W,4,15,0.8,4.0208,M,-17.3246,M,2.0,0000*76
$GPGGA,003943.00,4737.5100686,N,12220.2959151,W,4,15,0.8,4.0238,M,-17.3246,M,2.0,0000*79
$GPGGA,003944.00,4737.5106777,N,12220.2959636,W,4,15,0.8,4.0472,M,-17.3246,M,2.0,0000*79
$GPGGA,003945.00,4737.5113406,N,12220.2959729,W,4,15,0.8,4.0289,M,-17.3246,M,2.0,0000*74
$GPGGA,003946.00,4737.5120024,N,12220.2959889,W,4,15,0.8,3.9968,M,-17.3246,M,2.0,0000*7C
$GPGGA,003947.00,4737.5126522,N,12220.2960441,W,4,16,0.7,3.9938,M,-17.3246,M,2.0,0000*73
