$GPGGA,222903.00,4737.2418220,N,12220.2534473,W,5,05,9.5,64.7450,M,-17.3273,M,2.0,0000*46
$GPGGA,222904.00,4737.2439935,N,12220.2469245,W,5,05,9.5,53.0439,M,-17.3273,M,2.0,0000*4B
$GPGGA,222905.00,4737.2320316,N,12220.2644916,W,2,14,1.1,57.1137,M,-17.3275,M,2.0,0000*4D
$GPGGA,222906.00,4737.2410253,N,12220.2474220,W,5,05,9.5,52.9767,M,-17.3273,M,2.0,0000*46
$GPGGA,222907.00,4737.2421948,N,12220.2468433,W,5,05,9.5,52.8306,M,-17.3273,M,2.0,0000*4F
$GPGGA,222908.00,4737.2429039,N,12220.2462490,W,5,06,4.1,52.5757,M,-17.3273,M,2.0,0000*43
$GPGGA,222909.00,4737.2435793,N,12220.2454599,W,5,06,4.1,52.3021,M,-17.3273,M,2.0,0000*45
$GPGGA,222910.00,4737.2326631,N,12220.2635034,W,2,14,1.1,58.9163,M,-17.3275,M,2.0,0000*46
$GPGGA,222911.00,4737.2326986,N,12220.2634644,W,2,14,1.1,59.1981,M,-17.3275,M,2.0,0000*49
$GPGGA,222912.00,4737.2327491,N,12220.2633984,W,2,14,1.1,59.6496,M,-17.3275,M,2.0,0000*48
$GPGGA,222913.00,4737.2327834,N,12220.2633446,W,2,14,1.1,60.1982,M,-17.3275,M,2.0,0000*4C
$GPGGA,222914.00,4737.2328309,N,12220.2632730,W,2,13,1.2,60.6232,M,-17.3275,M,2.0,0000*41
$GPGGA,222915.00,4737.2328839,N,12220.2631996,W,2,13,1.2,60.9045,M,-17.3275,M,2.0,0000*44
$GPGGA,222916.00,4737.2329473,N,12220.2631667,W,2,13,1.2,60.9056,M,-17.3275,M,2.0,0000*47
$GPGGA,222917.00,4737.2330072,N,12220.2631383,W,2,13,1.2,60.7465,M,-17.3275,M,2.0,0000*4E
$GPGGA,222918.00,4737.2330544,N,12220.2631180,W,2,13,1.2,60.6647,M,-17.3275,M,2.0,0000*43
$GPGGA,222919.00,4737.2330838,N,12220.2630922,W,2,13,1.2,60.6325,M,-17.3275,M,2.0,0000*44
$GPGGA,222920.00,4737.2331190,N,12220.2630569,W,2,13,1.2,60.5392,M,-17.3275,M,2.0,0000*48
$GPGGA,222921.00,4737.2331508,N,12220.2630103,W,2,13,1.2,60.4251,M,-17.3275,M,2.0,0000*4B
$GPGGA,222922.00,4737.2331947,N,12220.2629470,W,2,13,1.2,60.2794,M,-17.3275,M,2.0,0000*4C
$GPGGA,222923.00,4737.2332623,N,12220.2628714,W,2,13,1.0,60.0387,M,-17.3275,M,2.0,0000*45
$GPGGA,222924.00,4737.2333329,N,12220.2627881,W,2,13,1.0,59.7569,M,-17.3275,M,2.0,0000*4B
$GPGGA,222925.00,4737.2333998,N,12220.2627347,W,2,13,1.0,59.5823,M,-17.3275,M,2.0,0000*4A
$GPGGA,222926.00,4737.2334588,N,12220.2626574,W,2,13,1.0,59.3989,M,-17.3275,M,2.0,0000*43
$GPGGA,222927.00,4737.2335051,N,12220.2625899,W,2,13,1.0,59.2224,M,-17.3275,M,2.0,0000*42
$GPGGA,222928.00,4737.2335444,N,12220.2625187,W,2,13,1.3,59.0762,M,-17.3275,M,2.0,0000*4D
$GPGGA,222929.00,4737.2335821,N,12220.2624283,W,2,13,1.3,58.9528,M,-17.3275,M,2.0,0000*41
$GPGGA,222930.00,4737.2336088,N,12220.2623298,W,2,13,1.3,58.8234,M,-17.3275,M,2.0,0000*47
$GPGGA,222931.00,4737.2336347,N,12220.2622213,W,2,13,1.3,58.6939,M,-17.3275,M,2.0,0000*4C
$GPGGA,222932.00,4737.2335561,N,12220.2621672,W,2,13,1.3,58.6187,M,-17.3275,M,2.0,0000*43
$GPGGA,222933.00,4737.2334562,N,12220.2621454,W,2,12,1.3,58.5571,M,-17.3275,M,2.0,0000*49
$GPGGA,222934.00,4737.2333450,N,12220.2621888,W,2,12,1.3,58.5709,M,-17.3275,M,2.0,0000*49
$GPGGA,222935.00,4737.2332448,N,12220.2622214,W,2,12,1.3,58.5917,M,-17.3275,M,2.0,0000*4D
$GPGGA,222936.00,4737.2331701,N,12220.2622464,W,2,12,1.2,58.6496,M,-17.3275,M,2.0,0000*44
$GPGGA,222937.00,4737.2331679,N,12220.2622382,W,2,12,1.2,58.7965,M,-17.3275,M,2.0,0000*44
$GPGGA,222938.00,4737.2331828,N,12220.2622275,W,2,12,1.2,58.9084,M,-17.3275,M,2.0,0000*40
$GPGGA,222939.00,4737.2331602,N,12220.2622315,W,2,12,1.2,58.9692,M,-17.3275,M,2.0,0000*41
$GPGGA,222940.00,4737.2331723,N,12220.2622282,W,2,12,1.2,59.0728,M,-17.3275,M,2.0,0000*4A
$GPGGA,222941.00,4737.2331085,N,12220.2622028,W,2,12,1.3,59.1171,M,-17.3275,M,2.0,0000*48
$GPGGA,222942.00,4737.2330557,N,12220.2621717,W,2,12,1.3,59.1701,M,-17.3275,M,2.0,0000*49
$GPGGA,222943.00,4737.2330295,N,12220.2621413,W,2,12,1.2,59.2411,M,-17.3275,M,2.0,0000*46
$GPGGA,222944.00,4737.2329967,N,12220.2621141,W,2,12,1.3,59.2653,M,-17.3275,M,2.0,0000*48
$GPGGA,222945.00,4737.2329563,N,12220.2620918,W,2,12,1.3,59.3074,M,-17.3275,M,2.0,0000*46
$GPGGA,222946.00,4737.2329238,N,12220.2620690,W,2,12,1.1,59.2974,M,-17.3275,M,2.0,0000*49
$GPGGA,222947.00,4737.2328746,N,12220.2620669,W,2,12,1.1,59.2713,M,-17.3275,M,2.0,0000*4C
$GPGGA,222948.00,4737.2328507,N,12220.2620629,W,2,12,1.1,59.2366,M,-17.3275,M,2.0,0000*46
$GPGGA,222949.00,4737.2328448,N,12220.2620703,W,2,12,1.1,59.2219,M,-17.3275,M,2.0,0000*4D
$GPGGA,222950.00,4737.2328387,N,12220.2620767,W,2,12,1.1,59.2091,M,-17.3275,M,2.0,0000*41
$GPGGA,222951.00,4737.2328358,N,12220.2620867,W,2,12,1.1,59.1685,M,-17.3275,M,2.0,0000*4D
$GPGGA,222952.00,4737.2328187,N,12220.2620555,W,2,12,1.1,59.1551,M,-17.3275,M,2.0,0000*48
$GPGGA,222953.00,4737.2328279,N,12220.2620123,W,2,12,1.1,59.2014,M,-17.3275,M,2.0,0000*49
$GPGGA,222954.00,4737.2328150,N,12220.2619476,W,2,12,1.1,59.2303,M,-17.3275,M,2.0,0000*4C
$GPGGA,222955.00,4737.2328163,N,12220.2618907,W,2,12,1.1,59.2829,M,-17.3275,M,2.0,0000*44
$GPGGA,222956.00,4737.2328317,N,12220.2618330,W,2,12,1.1,59.3443,M,-17.3275,M,2.0,0000*49
$GPGGA,222957.00,4737.2328452,N,12220.2617861,W,2,12,1.1,59.4050,M,-17.3275,M,2.0,0000*4F
$GPGGA,222958.00,4737.2328655,N,12220.2617319,W,2,12,1.1,59.4846,M,-17.3275,M,2.0,0000*4E
$GPGGA,222959.00,4737.2328822,N,12220.2616817,W,2,12,1.1,59.5511,M,-17.3275,M,2.0,0000*4B
$GPGGA,223000.00,4737.2328867,N,12220.2616371,W,2,12,1.1,59.6424,M,-17.3275,M,2.0,0000*41
$GPGGA,223001.00,4737.2328886,N,12220.2616097,W,2,12,1.1,59.7228,M,-17.3275,M,2.0,0000*4F
$GPGGA,223002.00,4737.2328869,N,12220.2615759,W,2,12,1.2,59.8016,M,-17.3275,M,2.0,0000*48
$GPGGA,223003.00,4737.2328752,N,12220.2615354,W,2,12,1.1,59.8979,M,-17.3275,M,2.0,0000*44
$GPGGA,223004.00,4737.2328657,N,12220.2615216,W,2,12,1.2,59.9809,M,-17.3275,M,2.0,0000*44
$GPGGA,223005.00,4737.2328436,N,12220.2614930,W,2,12,1.2,60.1087,M,-17.3275,M,2.0,0000*42
$GPGGA,223006.00,4737.2328155,N,12220.2614714,W,2,12,1.1,60.2221,M,-17.3275,M,2.0,0000*47
$GPGGA,223007.00,4737.2327906,N,12220.2614636,W,2,11,1.2,60.3405,M,-17.3275,M,2.0,0000*47
$GPGGA,223008.00,4737.2327662,N,12220.2614631,W,2,12,1.1,60.4434,M,-17.3275,M,3.0,0000*46
$GPGGA,223009.00,4737.2327603,N,12220.2614870,W,2,12,1.0,60.5357,M,-17.3275,M,2.0,0000*48
$GPGGA,223010.00,4737.2327457,N,12220.2615436,W,2,12,1.0,60.6476,M,-17.3275,M,2.0,0000*4B
$GPGGA,223011.00,4737.2327145,N,12220.2616050,W,2,12,1.1,60.7199,M,-17.3275,M,1.0,0000*4C
$GPGGA,223012.00,4737.2326981,N,12220.2616647,W,2,12,1.1,60.7774,M,-17.3275,M,2.0,0000*48
$GPGGA,223013.00,4737.2326852,N,12220.2617202,W,2,12,1.1,60.8179,M,-17.3275,M,2.0,0000*46
$GPGGA,223014.00,4737.2327168,N,12220.2617920,W,2,12,1.0,60.8602,M,-17.3275,M,2.0,0000*41
$GPGGA,223015.00,4737.2327458,N,12220.2618545,W,2,12,1.0,60.8911,M,-17.3275,M,2.0,0000*4B
$GPGGA,223016.00,4737.2327742,N,12220.2618971,W,2,12,1.1,60.9337,M,-17.3275,M,2.0,0000*45
$GPGGA,223017.00,4737.2328056,N,12220.2619358,W,2,12,1.0,60.9760,M,-17.3275,M,2.0,0000*4E
$GPGGA,223018.00,4737.2327977,N,12220.2618776,W,2,12,1.0,60.9050,M,-17.3275,M,2.0,0000*49
$GPGGA,223019.00,4737.2327967,N,12220.2617812,W,2,13,1.0,60.8083,M,-17.3275,M,2.0,0000*45
$GPGGA,223020.00,4737.2327989,N,12220.2616635,W,2,13,1.0,60.6871,M,-17.3275,M,2.0,0000*4E
$GPGGA,223021.00,4737.2327940,N,12220.2615453,W,2,13,0.9,60.5974,M,-17.3275,M,2.0,0000*44
$GPGGA,223022.00,4737.2327727,N,12220.2614796,W,2,12,1.0,60.4272,M,-17.3275,M,2.0,0000*46
$GPGGA,223023.00,4737.2327906,N,12220.2614343,W,2,12,1.0,60.2720,M,-17.3275,M,2.0,0000*42
$GPGGA,223024.00,4737.2328224,N,12220.2614222,W,2,12,1.0,60.1422,M,-17.3275,M,2.0,0000*45
$GPGGA,223025.00,4737.2328562,N,12220.2614188,W,2,12,1.0,60.0495,M,-17.3275,M,2.0,0000*4F
$GPGGA,223026.00,4737.2328959,N,12220.2614338,W,2,12,1.0,59.9894,M,-17.3275,M,2.0,0000*4F
$GPGGA,223027.00,4737.2395098,N,12220.2533605,W,5,06,1.8,63.9648,M,-17.3274,M,2.0,0000*4C
$GPGGA,223028.00,4737.2392556,N,12220.2538236,W,5,05,7.6,63.3237,M,-17.3274,M,2.0,0000*41
$GPGGA,223029.00,4737.2388366,N,12220.2547293,W,5,05,7.6,62.0670,M,-17.3274,M,2.0,0000*4C
$GPGGA,223030.00,4737.2330790,N,12220.2614334,W,2,15,0.9,60.0277,M,-17.3275,M,2.0,0000*4D
$GPGGA,223031.00,4737.2331041,N,12220.2613977,W,2,14,0.9,60.0078,M,-17.3275,M,2.0,0000*40
$GPGGA,223032.00,4737.2330897,N,12220.2613737,W,2,14,1.0,59.9888,M,-17.3275,M,1.0,0000*44
$GPGGA,223033.00,4737.2331111,N,12220.2613730,W,2,14,1.0,60.0269,M,-17.3275,M,2.0,0000*41
$GPGGA,223034.00,4737.2331414,N,12220.2613509,W,2,15,0.9,60.0025,M,-17.3275,M,2.0,0000*4D
$GPGGA,223035.00,4737.2331922,N,12220.2613326,W,2,14,0.9,59.9687,M,-17.3275,M,2.0,0000*43
$GPGGA,223036.00,4737.2332222,N,12220.2612964,W,2,14,1.1,59.9317,M,-17.3275,M,2.0,0000*40
$GPGGA,223037.00,4737.2332710,N,12220.2613750,W,2,14,1.1,59.9365,M,-17.3275,M,2.0,0000*48
$GPGGA,223038.00,4737.2333209,N,12220.2614432,W,2,14,1.0,59.9526,M,-17.3275,M,2.0,0000*4B
$GPGGA,223039.00,4737.2333642,N,12220.2615232,W,2,15,1.0,60.0196,M,-17.3275,M,2.0,0000*4B
$GPGGA,223040.00,4737.2333893,N,12220.2616494,W,2,13,1.1,60.1738,M,-17.3275,M,2.0,0000*4A
$GPGGA,223041.00,4737.2333871,N,12220.2616538,W,2,14,1.0,60.2290,M,-17.3275,M,2.0,0000*42
$GPGGA,223042.00,4737.2333565,N,12220.2616875,W,2,14,1.0,60.1918,M,-17.3275,M,2.0,0000*45
$GPGGA,223043.00,4737.2333306,N,12220.2616832,W,2,15,0.9,60.1443,M,-17.3275,M,2.0,0000*4E
$GPGGA,223044.00,4737.2333227,N,12220.2617020,W,2,15,0.9,60.1023,M,-17.3275,M,2.0,0000*43
$GPGGA,223045.00,4737.2333090,N,12220.2617401,W,2,15,0.9,60.0606,M,-17.3275,M,2.0,0000*4B
$GPGGA,223046.00,4737.2325153,N,12220.2613596,W,5,08,1.3,56.3414,M,-17.3275,M,2.0,0000*4D
$GPGGA,223047.00,4737.2325419,N,12220.2611308,W,5,08,1.3,56.9427,M,-17.3275,M,2.0,0000*4E
$GPGGA,223048.00,4737.2321059,N,12220.2629042,W,5,08,1.3,52.7848,M,-17.3275,M,2.0,0000*4C
$GPGGA,223049.00,4737.2317239,N,12220.2647913,W,5,08,1.3,47.8804,M,-17.3276,M,2.0,0000*49
$GPGGA,223050.00,4737.2316675,N,12220.2658274,W,5,08,1.3,43.3851,M,-17.3276,M,2.0,0000*47
$GPGGA,223051.00,4737.2315754,N,12220.2661428,W,5,08,1.2,42.5687,M,-17.3276,M,2.0,0000*41
$GPGGA,223052.00,4737.2314842,N,12220.2658118,W,5,08,1.2,45.1365,M,-17.3276,M,2.0,0000*4D
$GPGGA,223053.00,4737.2313868,N,12220.2655922,W,5,07,1.4,47.3909,M,-17.3276,M,2.0,0000*46
$GPGGA,223054.00,4737.2334856,N,12220.2620228,W,2,12,1.1,59.5003,M,-17.3275,M,2.0,0000*45
$GPGGA,223055.00,4737.2314693,N,12220.2651629,W,5,05,1.8,50.3885,M,-17.3276,M,2.0,0000*40
$GPGGA,223056.00,4737.2314690,N,12220.2651402,W,5,05,1.8,51.1417,M,-17.3276,M,2.0,0000*4F
$GPGGA,223057.00,4737.2335332,N,12220.2620545,W,2,11,1.3,59.2471,M,-17.3275,M,2.0,0000*45
$GPGGA,223058.00,4737.2335584,N,12220.2620286,W,1,13,1.0,59.1866,M,-17.3275,M,,*6E
$GPGGA,223059.00,4737.2336224,N,12220.2619298,W,2,11,2.2,59.0800,M,-17.3275,M,2.0,0000*49
$GPGGA,223100.00,4737.2338225,N,12220.2618837,W,2,12,1.1,59.0085,M,-17.3275,M,2.0,0000*43
$GPGGA,223101.00,4737.2341131,N,12220.2619125,W,2,12,1.1,58.9907,M,-17.3275,M,2.0,0000*4A
$GPGGA,223102.00,4737.2343071,N,12220.2618252,W,2,12,1.0,58.9504,M,-17.3275,M,2.0,0000*42
$GPGGA,223103.00,4737.2343257,N,12220.2616910,W,2,12,1.0,58.8715,M,-17.3275,M,2.0,0000*45
$GPGGA,223104.00,4737.2343691,N,12220.2614877,W,2,12,1.0,58.8001,M,-17.3275,M,2.0,0000*4C
$GPGGA,223105.00,4737.2344074,N,12220.2612505,W,2,12,1.0,58.7134,M,-17.3275,M,2.0,0000*41
$GPGGA,223106.00,4737.2344335,N,12220.2610490,W,2,12,1.0,58.6393,M,-17.3275,M,2.0,0000*45
$GPGGA,223107.00,4737.2344685,N,12220.2608703,W,2,12,1.0,58.5496,M,-17.3275,M,2.0,0000*4B
$GPGGA,223108.00,4737.2345377,N,12220.2606879,W,2,13,0.9,58.5015,M,-17.3275,M,2.0,0000*47
$GPGGA,223109.00,4737.2346584,N,12220.2604591,W,2,13,0.9,58.5257,M,-17.3275,M,2.0,0000*42
$GPGGA,223110.00,4737.2347801,N,12220.2602624,W,2,13,0.9,58.5596,M,-17.3275,M,2.0,0000*4A
$GPGGA,223111.00,4737.2348916,N,12220.2600809,W,2,13,0.9,58.5786,M,-17.3275,M,2.0,0000*43
$GPGGA,223112.00,4737.2350110,N,12220.2599045,W,2,13,0.9,58.6071,M,-17.3275,M,2.0,0000*48
$GPGGA,223113.00,4737.2353293,N,12220.2501313,W,5,07,1.4,81.7067,M,-17.3274,M,2.0,0000*4E
$GPGGA,223114.00,4737.2352294,N,12220.2594547,W,2,13,0.9,58.6311,M,-17.3275,M,2.0,0000*4C
$GPGGA,223115.00,4737.2353891,N,12220.2499033,W,5,07,1.4,82.7826,M,-17.3274,M,2.0,0000*4F
$GPGGA,223116.00,4737.2357033,N,12220.2504332,W,5,07,1.4,84.7025,M,-17.3274,M,2.0,0000*42
$GPGGA,223117.00,4737.2361678,N,12220.2509480,W,5,07,1.4,87.5556,M,-17.3274,M,2.0,0000*4C
$GPGGA,223118.00,4737.2365505,N,12220.2517846,W,5,07,1.4,88.6876,M,-17.3274,M,2.0,0000*44
$GPGGA,223119.00,4737.2368157,N,12220.2523352,W,5,06,1.8,89.1282,M,-17.3274,M,2.0,0000*48
$GPGGA,223120.00,4737.2367351,N,12220.2520767,W,5,06,1.8,90.1560,M,-17.3274,M,2.0,0000*4B
$GPGGA,223121.00,4737.2366936,N,12220.2517556,W,5,06,1.8,90.7347,M,-17.3274,M,2.0,0000*41
$GPGGA,223122.00,4737.2365820,N,12220.2514146,W,5,06,1.8,91.0284,M,-17.3274,M,2.0,0000*49
$GPGGA,223123.00,4737.2364691,N,12220.2512601,W,5,09,1.3,91.0764,M,-17.3274,M,2.0,0000*40
$GPGGA,223124.00,4737.2359888,N,12220.2583885,W,2,15,1.0,59.0559,M,-17.3274,M,2.0,0000*44
$GPGGA,223125.00,4737.2362360,N,12220.2512885,W,5,07,1.4,90.5485,M,-17.3274,M,2.0,0000*48
$GPGGA,223126.00,4737.2361377,N,12220.2581580,W,2,15,1.0,59.2498,M,-17.3274,M,2.0,0000*42
$GPGGA,223127.00,4737.2361712,N,12220.2581008,W,2,15,1.0,59.3006,M,-17.3274,M,2.0,0000*43
$GPGGA,223128.00,4737.2362175,N,12220.2579803,W,2,15,1.0,59.3744,M,-17.3274,M,1.0,0000*4E
$GPGGA,223129.00,4737.2362507,N,12220.2579250,W,2,16,0.9,59.4301,M,-17.3274,M,2.0,0000*48
$GPGGA,223130.00,4737.2362817,N,12220.2578987,W,2,15,1.0,59.4858,M,-17.3274,M,2.0,0000*40
$GPGGA,223131.00,4737.2362906,N,12220.2578466,W,2,14,1.0,59.5401,M,-17.3274,M,2.0,0000*42
$GPGGA,223132.00,4737.2363118,N,12220.2578812,W,1,16,0.9,59.5904,M,-17.3274,M,,*65
$GPGGA,223133.00,4737.2363478,N,12220.2578079,W,2,15,1.0,59.6687,M,-17.3274,M,2.0,0000*41
$GPGGA,223134.00,4737.2349586,N,12220.2520858,W,5,07,1.6,81.3222,M,-17.3274,M,2.0,0000*41
$GPGGA,223135.00,4737.2348367,N,12220.2515630,W,5,07,1.6,81.9599,M,-17.3274,M,2.0,0000*43
$GPGGA,223136.00,4737.2343482,N,12220.2512900,W,5,07,1.6,82.2006,M,-17.3274,M,2.0,0000*47
$GPGGA,223137.00,4737.2341161,N,12220.2517971,W,5,09,1.3,81.1692,M,-17.3274,M,2.0,0000*4F
$GPGGA,223138.00,4737.2344031,N,12220.2521750,W,5,10,1.2,82.3938,M,-17.3274,M,2.0,0000*4E
$GPGGA,223139.00,4737.2350375,N,12220.2520895,W,5,10,1.2,84.3079,M,-17.3274,M,2.0,0000*44
$GPGGA,223140.00,4737.2355680,N,12220.2512776,W,5,10,1.2,85.7704,M,-17.3274,M,2.0,0000*4B
$GPGGA,223141.00,4737.2358743,N,12220.2508047,W,5,10,1.2,85.9981,M,-17.3274,M,2.0,0000*4A
$GPGGA,223142.00,4737.2360409,N,12220.2507780,W,5,10,1.2,85.8761,M,-17.3274,M,2.0,0000*4D
$GPGGA,223143.00,4737.2361808,N,12220.2509278,W,5,08,1.2,85.4347,M,-17.3274,M,2.0,0000*49
$GPGGA,223144.00,4737.2362401,N,12220.2510430,W,5,08,1.2,85.1266,M,-17.3274,M,2.0,0000*4D
$GPGGA,223145.00,4737.2362933,N,12220.2511835,W,5,07,1.4,84.8799,M,-17.3274,M,2.0,0000*4C
$GPGGA,223146.00,4737.2362811,N,12220.2513116,W,5,08,1.2,84.3845,M,-17.3274,M,2.0,0000*48
$GPGGA,223147.00,4737.2362161,N,12220.2515328,W,5,08,1.2,83.9854,M,-17.3274,M,2.0,0000*43
$GPGGA,223148.00,4737.2361991,N,12220.2517364,W,5,08,1.2,83.4493,M,-17.3274,M,2.0,0000*48
$GPGGA,223149.00,4737.2361870,N,12220.2519697,W,5,08,1.2,82.9810,M,-17.3274,M,2.0,0000*4B
$GPGGA,223150.00,4737.2361830,N,12220.2522011,W,5,07,1.6,82.5518,M,-17.3274,M,2.0,0000*45
$GPGGA,223151.00,4737.2361329,N,12220.2523077,W,5,07,1.6,82.2988,M,-17.3274,M,2.0,0000*44
$GPGGA,223152.00,4737.2360879,N,12220.2524044,W,5,07,1.6,82.1084,M,-17.3274,M,2.0,0000*49
$GPGGA,223153.00,4737.2360554,N,12220.2525086,W,5,07,1.6,82.0311,M,-17.3274,M,2.0,0000*4B
$GPGGA,223154.00,4737.2360315,N,12220.2526148,W,5,08,1.2,81.9515,M,-17.3274,M,2.0,0000*4C
$GPGGA,223155.00,4737.2360015,N,12220.2526986,W,5,08,1.2,81.9554,M,-17.3274,M,2.0,0000*41
$GPGGA,223156.00,4737.2359606,N,12220.2528244,W,5,07,1.6,81.9424,M,-17.3274,M,2.0,0000*4A
$GPGGA,223157.00,4737.2359248,N,12220.2528502,W,5,06,1.8,81.9886,M,-17.3274,M,2.0,0000*4B
$GPGGA,223158.00,4737.2358941,N,12220.2528156,W,5,06,1.8,82.0945,M,-17.3274,M,2.0,0000*46
$GPGGA,223159.00,4737.2358714,N,12220.2528080,W,5,06,1.8,82.1415,M,-17.3274,M,1.0,0000*49
$GPGGA,223200.00,4737.2358654,N,12220.2529335,W,5,08,1.3,82.1036,M,-17.3274,M,2.0,0000*4C
$GPGGA,223201.00,4737.2358414,N,12220.2530518,W,5,08,1.3,82.0929,M,-17.3274,M,2.0,0000*4C
$GPGGA,223202.00,4737.2357915,N,12220.2531397,W,5,10,1.2,81.8332,M,-17.3274,M,2.0,0000*4F
$GPGGA,223203.00,4737.2357814,N,12220.2532760,W,5,10,1.2,81.3508,M,-17.3274,M,2.0,0000*45
$GPGGA,223204.00,4737.2357654,N,12220.2533115,W,5,10,1.2,81.1134,M,-17.3274,M,2.0,0000*44
$GPGGA,223205.00,4737.2357631,N,12220.2533253,W,5,08,1.3,80.8591,M,-17.3274,M,2.0,0000*4C
$GPGGA,223206.00,4737.2357679,N,12220.2533505,W,5,10,1.2,80.6736,M,-17.3274,M,2.0,0000*4E
$GPGGA,223207.00,4737.2357574,N,12220.2534007,W,5,08,1.3,80.5387,M,-17.3274,M,2.0,0000*44
$GPGGA,223208.00,4737.2357417,N,12220.2535269,W,5,08,1.3,80.3212,M,-17.3274,M,2.0,0000*4F
$GPGGA,223209.00,4737.2357395,N,12220.2536756,W,5,07,1.5,80.1195,M,-17.3274,M,2.0,0000*4E
$GPGGA,223210.00,4737.2357460,N,12220.2537884,W,5,07,1.5,80.0903,M,-17.3274,M,2.0,0000*4C
$GPGGA,223211.00,4737.2357405,N,12220.2538828,W,5,07,1.5,80.0253,M,-17.3274,M,2.0,0000*49
$GPGGA,223212.00,4737.2357531,N,12220.2539505,W,5,07,1.5,79.9070,M,-17.3274,M,2.0,0000*43
$GPGGA,223213.00,4737.2357648,N,12220.2540215,W,5,08,1.3,79.7595,M,-17.3274,M,2.0,0000*4E
$GPGGA,223214.00,4737.2357774,N,12220.2541024,W,5,08,1.3,79.6087,M,-17.3274,M,2.0,0000*41
$GPGGA,223215.00,4737.2357827,N,12220.2541629,W,5,08,1.3,79.4567,M,-17.3274,M,2.0,0000*4B
$GPGGA,223216.00,4737.2357836,N,12220.2542210,W,5,08,1.3,79.3285,M,-17.3274,M,2.0,0000*49
$GPGGA,223217.00,4737.2357648,N,12220.2542635,W,5,08,1.3,79.2016,M,-17.3274,M,2.0,0000*45
$GPGGA,223218.00,4737.2357669,N,12220.2542982,W,5,08,1.3,79.0802,M,-17.3274,M,2.0,0000*45
$GPGGA,223219.00,4737.2357641,N,12220.2543148,W,5,08,1.3,78.9039,M,-17.3274,M,2.0,0000*49
$GPGGA,223220.00,4737.2357552,N,12220.2543370,W,5,08,1.3,78.7278,M,-17.3274,M,2.0,0000*42
$GPGGA,223221.00,4737.2357608,N,12220.2543874,W,5,08,1.3,78.6025,M,-17.3274,M,2.0,0000*4B
$GPGGA,223222.00,4737.2357673,N,12220.2544164,W,5,08,1.3,78.4488,M,-17.3274,M,2.0,0000*4A
$GPGGA,223223.00,4737.2357771,N,12220.2544514,W,5,10,1.2,78.2688,M,-17.3274,M,2.0,0000*47
$GPGGA,223224.00,4737.2357775,N,12220.2544891,W,5,10,1.2,78.0496,M,-17.3274,M,2.0,0000*4B
$GPGGA,223225.00,4737.2357766,N,12220.2545183,W,5,08,1.3,77.7723,M,-17.3274,M,2.0,0000*4E
$GPGGA,223226.00,4737.2357780,N,12220.2545555,W,5,09,1.3,77.5032,M,-17.3274,M,2.0,0000*4E
$GPGGA,223227.00,4737.2358020,N,12220.2545941,W,5,09,1.3,77.3217,M,-17.3274,M,2.0,0000*47
$GPGGA,223228.00,4737.2358237,N,12220.2546515,W,5,09,1.3,77.1631,M,-17.3274,M,2.0,0000*40
$GPGGA,223229.00,4737.2358412,N,12220.2546680,W,5,09,1.3,77.0379,M,-17.3274,M,2.0,0000*47
$GPGGA,223230.00,4737.2358557,N,12220.2546849,W,5,10,1.2,76.9556,M,-17.3274,M,2.0,0000*4E
$GPGGA,223231.00,4737.2358616,N,12220.2546684,W,5,10,1.2,76.8502,M,-17.3274,M,2.0,0000*46
$GPGGA,223232.00,4737.2358552,N,12220.2546593,W,5,10,1.2,76.7199,M,-17.3274,M,2.0,0000*4A
$GPGGA,223233.00,4737.2358286,N,12220.2546005,W,5,11,1.0,76.5437,M,-17.3274,M,2.0,0000*4F
$GPGGA,223234.00,4737.2358355,N,12220.2545341,W,5,10,1.2,76.4094,M,-17.3274,M,2.0,0000*48
$GPGGA,223235.00,4737.2358566,N,12220.2544620,W,5,10,1.2,76.3493,M,-17.3274,M,2.0,0000*48
$GPGGA,223236.00,4737.2358680,N,12220.2544090,W,5,09,1.3,76.2287,M,-17.3274,M,2.0,0000*46
$GPGGA,223237.00,4737.2358967,N,12220.2544051,W,5,08,1.3,76.1274,M,-17.3274,M,2.0,0000*42
$GPGGA,223238.00,4737.2359120,N,12220.2544048,W,5,08,1.3,76.1325,M,-17.3274,M,2.0,0000*4A
$GPGGA,223239.00,4737.2359219,N,12220.2544156,W,5,10,1.2,76.1885,M,-17.3274,M,2.0,0000*45
$GPGGA,223240.00,4737.2359414,N,12220.2544402,W,5,10,1.2,76.2121,M,-17.3274,M,2.0,0000*40
$GPGGA,223241.00,4737.2359581,N,12220.2544689,W,5,08,1.3,76.1998,M,-17.3274,M,2.0,0000*4C
$GPGGA,223242.00,4737.2354567,N,12220.2555123,W,5,09,1.4,73.6195,M,-17.3274,M,2.0,0000*4C
$GPGGA,223243.00,4737.2360398,N,12220.2557398,W,5,07,1.5,75.1844,M,-17.3274,M,2.0,0000*47
$GPGGA,223244.00,4737.2370797,N,12220.2557397,W,5,07,1.5,77.6796,M,-17.3274,M,2.0,0000*40
$GPGGA,223245.00,4737.2378967,N,12220.2558782,W,5,09,1.4,79.1935,M,-17.3274,M,2.0,0000*46
$GPGGA,223246.00,4737.2376866,N,12220.2560068,W,5,09,1.4,78.3746,M,-17.3274,M,2.0,0000*4A
$GPGGA,223247.00,4737.2371439,N,12220.2562760,W,5,09,1.4,76.7167,M,-17.3274,M,2.0,0000*48
$GPGGA,223248.00,4737.2366088,N,12220.2565796,W,5,09,1.4,75.2215,M,-17.3274,M,2.0,0000*41
$GPGGA,223249.00,4737.2362875,N,12220.2568360,W,5,10,1.2,74.4271,M,-17.3274,M,2.0,0000*45
$GPGGA,223250.00,4737.2320931,N,12220.2565241,W,5,09,1.4,64.0900,M,-17.3275,M,2.0,0000*42
$GPGGA,223251.00,4737.2302668,N,12220.2562959,W,5,09,1.4,58.8159,M,-17.3275,M,2.0,0000*46
$GPGGA,223252.00,4737.2308292,N,12220.2555363,W,5,09,1.4,60.7789,M,-17.3275,M,2.0,0000*46
$GPGGA,223253.00,4737.2310299,N,12220.2550118,W,5,09,1.4,62.4981,M,-17.3275,M,2.0,0000*49
$GPGGA,223254.00,4737.2308638,N,12220.2544827,W,5,09,1.4,63.8711,M,-17.3275,M,2.0,0000*42
$GPGGA,223255.00,4737.2306952,N,12220.2539124,W,5,09,1.4,64.8678,M,-17.3275,M,2.0,0000*47
$GPGGA,223256.00,4737.2303759,N,12220.2535431,W,5,09,1.4,66.0806,M,-17.3275,M,2.0,0000*44
$GPGGA,223257.00,4737.2302223,N,12220.2533953,W,5,09,1.4,67.0106,M,-17.3275,M,2.0,0000*4B
$GPGGA,223258.00,4737.2301986,N,12220.2533040,W,5,09,1.4,67.5810,M,-17.3275,M,2.0,0000*43
$GPGGA,223259.00,4737.2302313,N,12220.2533545,W,5,09,1.4,67.7933,M,-17.3275,M,1.0,0000*46
$GPGGA,223300.00,4737.2304141,N,12220.2534812,W,5,09,1.4,67.9609,M,-17.3275,M,2.0,0000*4B
$GPGGA,223301.00,4737.2306072,N,12220.2536095,W,5,09,1.4,67.9533,M,-17.3275,M,2.0,0000*46
$GPGGA,223302.00,4737.2307225,N,12220.2536784,W,5,09,1.4,67.9384,M,-17.3275,M,2.0,0000*49
$GPGGA,223303.00,4737.2306666,N,12220.2537189,W,5,09,1.4,67.9369,M,-17.3275,M,2.0,0000*43
$GPGGA,223304.00,4737.2306355,N,12220.2537954,W,5,07,2.6,67.8725,M,-17.3275,M,2.0,0000*4B
$GPGGA,223305.00,4737.2306930,N,12220.2538609,W,5,07,2.6,67.7601,M,-17.3275,M,2.0,0000*43
$GPGGA,223306.00,4737.2307248,N,12220.2539168,W,5,07,2.6,67.6477,M,-17.3275,M,2.0,0000*46
$GPGGA,223307.00,4737.2307641,N,12220.2539412,W,5,07,2.6,67.4491,M,-17.3275,M,2.0,0000*48
$GPGGA,223308.00,4737.2310028,N,12220.2540257,W,5,08,1.7,66.8008,M,-17.3275,M,2.0,0000*45
$GPGGA,223309.00,4737.2310884,N,12220.2540539,W,5,08,1.7,66.6724,M,-17.3275,M,2.0,0000*42
$GPGGA,223310.00,4737.2310383,N,12220.2540557,W,5,08,1.9,66.9411,M,-17.3275,M,2.0,0000*4A
$GPGGA,223311.00,4737.2309987,N,12220.2540264,W,5,08,1.9,67.1413,M,-17.3275,M,2.0,0000*41
$GPGGA,223312.00,4737.2308570,N,12220.2539135,W,5,09,1.4,67.0762,M,-17.3275,M,2.0,0000*46
$GPGGA,223313.00,4737.2307923,N,12220.2538733,W,5,09,1.4,67.2020,M,-17.3275,M,2.0,0000*40
$GPGGA,223314.00,4737.2307228,N,12220.2538363,W,5,09,1.4,67.3066,M,-17.3275,M,2.0,0000*45
$GPGGA,223315.00,4737.2306565,N,12220.2538080,W,5,09,1.4,67.4408,M,-17.3275,M,2.0,0000*4E
$GPGGA,223316.00,4737.2306242,N,12220.2538558,W,5,09,1.4,67.5894,M,-17.3275,M,2.0,0000*47
$GPGGA,223317.00,4737.2306650,N,12220.2538996,W,5,09,1.4,67.6633,M,-17.3275,M,2.0,0000*4F
$GPGGA,223318.00,4737.2306840,N,12220.2539509,W,5,09,1.4,67.7008,M,-17.3275,M,2.0,0000*4B
$GPGGA,223319.00,4737.2307108,N,12220.2539836,W,5,09,1.4,67.7230,M,-17.3275,M,2.0,0000*46
$GPGGA,223320.00,4737.2307869,N,12220.2540062,W,5,08,1.9,67.7358,M,-17.3275,M,1.0,0000*45
$GPGGA,223321.00,4737.2308809,N,12220.2540441,W,5,08,1.9,67.5996,M,-17.3275,M,2.0,0000*41
$GPGGA,223322.00,4737.2309781,N,12220.2540751,W,5,08,1.9,67.4048,M,-17.3275,M,2.0,0000*45
$GPGGA,223323.00,4737.2311041,N,12220.2541050,W,5,07,2.6,67.1487,M,-17.3275,M,2.0,0000*40
$GPGGA,223324.00,4737.2373024,N,12220.2576531,W,1,12,1.1,61.7679,M,-17.3274,M,,*6C
$GPGGA,223325.00,4737.2312995,N,12220.2540905,W,5,08,1.9,66.6194,M,-17.3275,M,2.0,0000*4F
$GPGGA,223326.00,4737.2313494,N,12220.2541215,W,5,08,1.9,66.4897,M,-17.3275,M,2.0,0000*42
$GPGGA,223327.00,4737.2373041,N,12220.2575403,W,1,12,1.1,61.7755,M,-17.3274,M,,*60
$GPGGA,223328.00,4737.2372994,N,12220.2574995,W,1,12,1.1,61.7760,M,-17.3274,M,,*6A
$GPGGA,223329.00,4737.2372924,N,12220.2574611,W,1,12,1.1,61.7844,M,-17.3274,M,,*6A
$GPGGA,223330.00,4737.2372934,N,12220.2574136,W,1,12,1.1,61.7813,M,-17.3274,M,,*63
$GPGGA,223331.00,4737.2372871,N,12220.2573712,W,1,12,1.1,61.8036,M,-17.3274,M,,*65
$GPGGA,223332.00,4737.2372949,N,12220.2573543,W,1,13,1.0,61.8229,M,-17.3274,M,,*66
$GPGGA,223333.00,4737.2373311,N,12220.2573532,W,1,12,1.7,61.8257,M,-17.3274,M,,*68
$GPGGA,223334.00,4737.2373594,N,12220.2573439,W,1,12,1.7,61.8553,M,-17.3274,M,,*6D
$GPGGA,223335.00,4737.2373910,N,12220.2573315,W,1,12,1.7,61.8633,M,-17.3274,M,,*60
$GPGGA,223336.00,4737.2374190,N,12220.2573232,W,1,13,1.0,61.8799,M,-17.3274,M,,*67
$GPGGA,223337.00,4737.2374525,N,12220.2573082,W,1,13,1.0,61.9076,M,-17.3274,M,,*62
$GPGGA,223338.00,4737.2374786,N,12220.2573089,W,1,13,1.5,61.9343,M,-17.3274,M,,*6D
$GPGGA,223339.00,4737.2375015,N,12220.2572980,W,1,13,1.1,61.9431,M,-17.3274,M,,*67
$GPGGA,223340.00,4737.2375232,N,12220.2572996,W,1,13,1.1,61.9498,M,-17.3274,M,,*6A
$GPGGA,223341.00,4737.2361167,N,12220.2566940,W,5,08,1.9,58.1618,M,-17.3274,M,2.0,0000*41
$GPGGA,223342.00,4737.2358712,N,12220.2568532,W,5,08,1.9,59.0524,M,-17.3274,M,2.0,0000*47
$GPGGA,223343.00,4737.2364247,N,12220.2573837,W,5,08,1.9,58.2135,M,-17.3274,M,2.0,0000*49
$GPGGA,223344.00,4737.2363558,N,12220.2579697,W,5,08,1.9,59.4250,M,-17.3274,M,1.0,0000*4A
$GPGGA,223345.00,4737.2357286,N,12220.2583754,W,5,08,1.9,62.5483,M,-17.3275,M,2.0,0000*40
$GPGGA,223346.00,4737.2353903,N,12220.2585938,W,5,08,1.9,64.2241,M,-17.3275,M,2.0,0000*4A
$GPGGA,223347.00,4737.2352202,N,12220.2584033,W,5,08,1.9,64.8850,M,-17.3275,M,2.0,0000*43
$GPGGA,223348.00,4737.2349376,N,12220.2581191,W,5,08,1.9,65.3953,M,-17.3275,M,2.0,0000*40
$GPGGA,223349.00,4737.2346852,N,12220.2579999,W,5,06,2.1,65.2154,M,-17.3275,M,2.0,0000*4F
$GPGGA,223350.00,4737.2348950,N,12220.2579497,W,5,06,2.1,64.1694,M,-17.3275,M,2.0,0000*40
$GPGGA,223351.00,4737.2350619,N,12220.2578515,W,5,06,2.1,62.9787,M,-17.3275,M,1.0,0000*4E
$GPGGA,223352.00,4737.2351749,N,12220.2577076,W,5,08,1.9,61.5732,M,-17.3275,M,2.0,0000*40
$GPGGA,223353.00,4737.2352016,N,12220.2577070,W,5,08,1.9,60.8011,M,-17.3275,M,2.0,0000*43
$GPGGA,223354.00,4737.2352483,N,12220.2577273,W,5,08,1.9,60.3914,M,-17.3275,M,2.0,0000*4A
$GPGGA,223355.00,4737.2352933,N,12220.2577810,W,5,08,1.9,60.1695,M,-17.3275,M,2.0,0000*46
$GPGGA,223356.00,4737.2353363,N,12220.2579410,W,5,08,1.9,60.0735,M,-17.3275,M,2.0,0000*43
$GPGGA,223357.00,4737.2354160,N,12220.2580527,W,5,08,1.9,59.6549,M,-17.3275,M,2.0,0000*42
$GPGGA,223358.00,4737.2355271,N,12220.2581044,W,5,08,1.9,59.0796,M,-17.3275,M,2.0,0000*48
$GPGGA,223359.00,4737.2355790,N,12220.2580602,W,5,07,7.9,58.5942,M,-17.3274,M,2.0,0000*4D
$GPGGA,223400.00,4737.2356185,N,12220.2580160,W,5,08,1.9,58.1534,M,-17.3274,M,2.0,0000*44
$GPGGA,223401.00,4737.2356292,N,12220.2579843,W,5,08,1.9,58.0775,M,-17.3274,M,2.0,0000*48
$GPGGA,223402.00,4737.2355939,N,12220.2579604,W,5,08,1.9,58.1737,M,-17.3274,M,2.0,0000*48
$GPGGA,223403.00,4737.2355702,N,12220.2579405,W,5,06,2.1,58.0000,M,-17.3275,M,2.0,0000*4A
