$GPGGA,230620.00,4737.5646832,N,12220.3072446,W,1,26,0.6,1.1651,M,-17.3240,M,,*59
$GPGGA,230620.10,4737.5646777,N,12220.3072438,W,1,26,0.6,1.1510,M,-17.3240,M,,*59
$GPGGA,230621.00,4737.5646373,N,12220.3072375,W,1,26,0.6,1.0403,M,-17.3240,M,,*55
$GPGGA,230622.00,4737.5645896,N,12220.3072343,W,1,26,0.6,0.9396,M,-17.3240,M,,*53
$GPGGA,230623.00,4737.5645470,N,12220.3072296,W,1,26,0.6,0.8516,M,-17.3240,M,,*50
$GPGGA,230624.00,4737.5645263,N,12220.3072395,W,1,27,0.6,0.7522,M,-17.3240,M,,*58
$GPGGA,230625.00,4737.5644992,N,12220.3072655,W,1,27,0.6,0.6504,M,-17.3240,M,,*51
$GPGGA,230626.00,4737.5644718,N,12220.3072812,W,1,27,0.6,0.5582,M,-17.3240,M,,*5E
$GPGGA,230627.00,4737.5644436,N,12220.3072841,W,1,27,0.6,0.4752,M,-17.3240,M,,*58
$GPGGA,230628.00,4737.5644374,N,12220.3072771,W,1,27,0.6,0.4353,M,-17.3240,M,,*5F
$GPGGA,230629.00,4737.5644293,N,12220.3072732,W,1,26,0.6,0.3730,M,-17.3240,M,,*56
$GPGGA,230630.00,4737.5644255,N,12220.3072684,W,1,27,0.6,0.3050,M,-17.3240,M,,*58
$GPGGA,230631.00,4737.5644172,N,12220.3072656,W,1,26,0.6,0.2339,M,-17.3240,M,,*5C
$GPGGA,230632.00,4737.5643996,N,12220.3072561,W,1,28,0.5,0.1620,M,-17.3240,M,,*5E
$GPGGA,230633.00,4737.5643872,N,12220.3072515,W,1,27,0.6,0.0984,M,-17.3240,M,,*5B
$GPGGA,230634.00,4737.5643740,N,12220.3072404,W,1,27,0.6,0.0430,M,-17.3240,M,,*51
$GPGGA,230635.00,4737.5643620,N,12220.3072274,W,1,27,0.6,-0.0025,M,-17.3240,M,,*7B
$GPGGA,230636.00,4737.5643449,N,12220.3072088,W,1,27,0.6,-0.0521,M,-17.3240,M,,*75
$GPGGA,230637.00,4737.5643305,N,12220.3071894,W,1,27,0.6,-0.0866,M,-17.3240,M,,*73
$GPGGA,230638.00,4737.5643204,N,12220.3071705,W,1,28,0.6,-0.1148,M,-17.3240,M,,*70
$GPGGA,230639.00,4737.5643124,N,12220.3071551,W,1,27,0.6,-0.1588,M,-17.3240,M,,*74
$GPGGA,230640.00,4737.5643061,N,12220.3071453,W,1,27,0.6,-0.1830,M,-17.3240,M,,*77
$GPGGA,230641.00,4737.5643022,N,12220.3071451,W,1,27,0.6,-0.2128,M,-17.3240,M,,*70
$GPGGA,230642.00,4737.5642975,N,12220.3071422,W,1,26,0.6,-0.2441,M,-17.3240,M,,*76
$GPGGA,230643.00,4737.5642949,N,12220.3071310,W,1,26,0.6,-0.2807,M,-17.3240,M,,*70
$GPGGA,230644.00,4737.5642851,N,12220.3071293,W,1,26,0.6,-0.3152,M,-17.3240,M,,*7D
$GPGGA,230645.00,4737.5642777,N,12220.3071345,W,1,27,0.6,-0.3533,M,-17.3240,M,,*7F
$GPGGA,230646.00,4737.5642731,N,12220.3071315,W,1,25,0.7,-0.3861,M,-17.3240,M,,*72
$GPGGA,230647.00,4737.5642755,N,12220.3071116,W,1,25,0.7,-0.3980,M,-17.3240,M,,*7E
$GPGGA,230648.00,4737.5642749,N,12220.3070899,W,1,25,0.7,-0.4066,M,-17.3240,M,,*75
$GPGGA,230649.00,4737.5642791,N,12220.3070701,W,1,26,0.7,-0.4237,M,-17.3240,M,,*7A
$GPGGA,230650.00,4737.5642836,N,12220.3070494,W,1,25,0.7,-0.4329,M,-17.3240,M,,*72
$GPGGA,230651.00,4737.5642845,N,12220.3070423,W,1,26,0.7,-0.4470,M,-17.3240,M,,*73
$GPGGA,230652.00,4737.5642920,N,12220.3070345,W,1,26,0.7,-0.4657,M,-17.3240,M,,*72
$GPGGA,230653.00,4737.5642871,N,12220.3070348,W,1,26,0.6,-0.4775,M,-17.3240,M,,*7B
$GPGGA,230654.00,4737.5642842,N,12220.3070282,W,1,26,0.6,-0.4872,M,-17.3240,M,,*73
$GPGGA,230655.00,4737.5642833,N,12220.3070292,W,1,25,0.6,-0.5006,M,-17.3240,M,,*7C
$GPGGA,230656.00,4737.5642806,N,12220.3070247,W,1,26,0.6,-0.5005,M,-17.3240,M,,*71
$GPGGA,230657.00,4737.5642817,N,12220.3070243,W,1,26,0.6,-0.5018,M,-17.3240,M,,*78
$GPGGA,230658.00,4737.5642822,N,12220.3070251,W,1,26,0.6,-0.5080,M,-17.3240,M,,*73
$GPGGA,230659.00,4737.5642895,N,12220.3070217,W,1,26,0.6,-0.5218,M,-17.3240,M,,*7F
$GPGGA,230700.00,4737.5642943,N,12220.3070215,W,1,25,0.6,-0.5320,M,-17.3240,M,,*73
$GPGGA,230701.00,4737.5642996,N,12220.3070232,W,1,25,0.6,-0.5472,M,-17.3240,M,,*7F
$GPGGA,230702.00,4737.5643038,N,12220.3070224,W,1,25,0.6,-0.5501,M,-17.3240,M,,*72
$GPGGA,230703.00,4737.5643120,N,12220.3070275,W,1,26,0.6,-0.5600,M,-17.3240,M,,*7E
$GPGGA,230704.00,4737.5643133,N,12220.3070350,W,1,25,0.6,-0.5668,M,-17.3240,M,,*70
$GPGGA,230705.00,4737.5643157,N,12220.3070397,W,1,26,0.6,-0.5695,M,-17.3240,M,,*79
$GPGGA,230706.00,4737.5643174,N,12220.3070518,W,1,25,0.6,-0.5701,M,-17.3240,M,,*75
$GPGGA,230707.00,4737.5643154,N,12220.3070638,W,1,26,0.6,-0.5751,M,-17.3240,M,,*71
$GPGGA,230708.00,4737.5643082,N,12220.3070776,W,1,27,0.6,-0.5735,M,-17.3240,M,,*7C
$GPGGA,230709.00,4737.5643070,N,12220.3070799,W,1,27,0.6,-0.5670,M,-17.3240,M,,*71
$GPGGA,230710.00,4737.5643033,N,12220.3070863,W,1,27,0.6,-0.5747,M,-17.3240,M,,*71
$GPGGA,230711.00,4737.5643015,N,12220.3070876,W,1,28,0.6,-0.5808,M,-17.3240,M,,*7B
$GPGGA,230712.00,4737.5642976,N,12220.3070890,W,1,29,0.5,-0.5835,M,-17.3240,M,,*71
$GPGGA,230713.00,4737.5642940,N,12220.3070926,W,1,27,0.6,-0.5899,M,-17.3240,M,,*72
$GPGGA,230714.00,4737.5642896,N,12220.3070909,W,1,27,0.6,-0.5954,M,-17.3240,M,,*72
$GPGGA,230715.00,4737.5642850,N,12220.3070885,W,1,27,0.6,-0.5965,M,-17.3240,M,,*7E
$GPGGA,230716.00,4737.5642833,N,12220.3070900,W,1,27,0.6,-0.6025,M,-17.3240,M,,*7A
$GPGGA,230717.00,4737.5642830,N,12220.3070906,W,1,27,0.6,-0.6035,M,-17.3240,M,,*7F
$GPGGA,230718.00,4737.5642848,N,12220.3070864,W,1,27,0.6,-0.5976,M,-17.3240,M,,*77
$GPGGA,230719.00,4737.5642875,N,12220.3070872,W,1,27,0.6,-0.5875,M,-17.3240,M,,*7D
$GPGGA,230720.00,4737.5642927,N,12220.3070884,W,1,28,0.5,-0.5752,M,-17.3240,M,,*7E
$GPGGA,230721.00,4737.5642962,N,12220.3070876,W,1,28,0.5,-0.5698,M,-17.3240,M,,*74
$GPGGA,230722.00,4737.5642973,N,12220.3070880,W,1,27,0.6,-0.5760,M,-17.3240,M,,*74
$GPGGA,230723.00,4737.5643015,N,12220.3070913,W,1,27,0.6,-0.5707,M,-17.3240,M,,*77
$GPGGA,230724.00,4737.5643070,N,12220.3070995,W,1,27,0.6,-0.5709,M,-17.3240,M,,*73
$GPGGA,230725.00,4737.5643085,N,12220.3071022,W,1,26,0.6,-0.5685,M,-17.3240,M,,*78
$GPGGA,230726.00,4737.5643084,N,12220.3071052,W,1,27,0.6,-0.5654,M,-17.3240,M,,*70
$GPGGA,230727.00,4737.5643042,N,12220.3071054,W,1,27,0.6,-0.5580,M,-17.3240,M,,*77
$GPGGA,230728.00,4737.5643018,N,12220.3071063,W,1,27,0.6,-0.5548,M,-17.3240,M,,*77
$GPGGA,230729.00,4737.5642980,N,12220.3071067,W,1,27,0.6,-0.5490,M,-17.3240,M,,*7F
$GPGGA,230730.00,4737.5642926,N,12220.3071068,W,1,27,0.6,-0.5489,M,-17.3240,M,,*7C
$GPGGA,230731.00,4737.5642893,N,12220.3071063,W,1,27,0.6,-0.5496,M,-17.3240,M,,*77
$GPGGA,230732.00,4737.5642883,N,12220.3071100,W,1,27,0.6,-0.5439,M,-17.3240,M,,*74
$GPGGA,230733.00,4737.5642876,N,12220.3071111,W,1,27,0.6,-0.5471,M,-17.3240,M,,*73
$GPGGA,230734.00,4737.5642885,N,12220.3071128,W,1,27,0.6,-0.5454,M,-17.3240,M,,*75
$GPGGA,230735.00,4737.5642888,N,12220.3071170,W,1,28,0.6,-0.5429,M,-17.3240,M,,*71
$GPGGA,230736.00,4737.5642886,N,12220.3071171,W,1,28,0.6,-0.5415,M,-17.3240,M,,*72
$GPGGA,230737.00,4737.5642912,N,12220.3071212,W,1,27,0.6,-0.5344,M,-17.3240,M,,*75
$GPGGA,230738.00,4737.5642926,N,12220.3071232,W,1,27,0.6,-0.5377,M,-17.3240,M,,*7F
$GPGGA,230739.00,4737.5642911,N,12220.3071233,W,1,27,0.6,-0.5422,M,-17.3240,M,,*7C
$GPGGA,230740.00,4737.5642867,N,12220.3071237,W,1,26,0.6,-0.5444,M,-17.3240,M,,*77
$GPGGA,230741.00,4737.5642873,N,12220.3071241,W,1,27,0.6,-0.5419,M,-17.3240,M,,*7B
$GPGGA,230742.00,4737.5642862,N,12220.3071257,W,1,27,0.6,-0.5472,M,-17.3240,M,,*72
$GPGGA,230743.00,4737.5642821,N,12220.3071254,W,1,28,0.6,-0.5465,M,-17.3240,M,,*7E
$GPGGA,230744.00,4737.5642825,N,12220.3071237,W,1,27,0.6,-0.5489,M,-17.3240,M,,*75
$GPGGA,230745.00,4737.5642799,N,12220.3071256,W,1,27,0.6,-0.5502,M,-17.3240,M,,*79
$GPGGA,230746.00,4737.5642782,N,12220.3071261,W,1,28,0.6,-0.5459,M,-17.3240,M,,*74
$GPGGA,230747.00,4737.5642776,N,12220.3071251,W,1,28,0.6,-0.5326,M,-17.3240,M,,*72
$GPGGA,230748.00,4737.5642763,N,12220.3071263,W,1,28,0.6,-0.5278,M,-17.3240,M,,*72
$GPGGA,230749.00,4737.5642758,N,12220.3071280,W,1,28,0.6,-0.5157,M,-17.3240,M,,*78
$GPGGA,230750.00,4737.5642781,N,12220.3071265,W,1,29,0.5,-0.5000,M,-17.3240,M,,*7E
$GPGGA,230751.00,4737.5642789,N,12220.3071272,W,1,28,0.6,-0.4991,M,-17.3240,M,,*73
$GPGGA,230752.00,4737.5642771,N,12220.3071318,W,1,29,0.6,-0.4990,M,-17.3240,M,,*7A
$GPGGA,230753.00,4737.5642768,N,12220.3071314,W,1,29,0.6,-0.4984,M,-17.3240,M,,*7A
$GPGGA,230754.00,4737.5642767,N,12220.3071301,W,1,29,0.6,-0.4944,M,-17.3240,M,,*7A
$GPGGA,230755.00,4737.5642777,N,12220.3071302,W,1,29,0.6,-0.4895,M,-17.3240,M,,*74
$GPGGA,230756.00,4737.5642758,N,12220.3071301,W,1,29,0.6,-0.4870,M,-17.3240,M,,*72
$GPGGA,230757.00,4737.5642730,N,12220.3071347,W,1,29,0.6,-0.4901,M,-17.3240,M,,*78
$GPGGA,230758.00,4737.5642721,N,12220.3071334,W,1,29,0.6,-0.4783,M,-17.3240,M,,*77
$GPGGA,230759.00,4737.5642700,N,12220.3071336,W,1,28,0.6,-0.4731,M,-17.3240,M,,*7F
$GPGGA,230800.00,4737.5642689,N,12220.3071334,W,1,30,0.5,-0.4590,M,-17.3240,M,,*7D
$GPGGA,230801.00,4737.5642672,N,12220.3071338,W,1,28,0.6,-0.4439,M,-17.3240,M,,*7C
$GPGGA,230802.00,4737.5642642,N,12220.3071343,W,1,30,0.5,-0.4317,M,-17.3240,M,,*71
$GPGGA,230803.00,4737.5642636,N,12220.3071354,W,1,30,0.5,-0.4163,M,-17.3240,M,,*74
$GPGGA,230804.00,4737.5642660,N,12220.3071359,W,1,29,0.5,-0.3997,M,-17.3240,M,,*71
$GPGGA,230805.00,4737.5642650,N,12220.3071328,W,1,29,0.5,-0.3844,M,-17.3240,M,,*7A
$GPGGA,230806.00,4737.5642684,N,12220.3071315,W,1,29,0.5,-0.3621,M,-17.3240,M,,*73
$GPGGA,230807.00,4737.5642717,N,12220.3071307,W,1,29,0.5,-0.3494,M,-17.3240,M,,*76
$GPGGA,230808.00,4737.5642762,N,12220.3071276,W,1,29,0.5,-0.3321,M,-17.3240,M,,*75
$GPGGA,230809.00,4737.5642798,N,12220.3071272,W,1,29,0.5,-0.3246,M,-17.3240,M,,*75
$GPGGA,230810.00,4737.5642832,N,12220.3071265,W,1,29,0.5,-0.3123,M,-17.3240,M,,*74
$GPGGA,230811.00,4737.5642867,N,12220.3071235,W,1,30,0.5,-0.2966,M,-17.3240,M,,*70
$GPGGA,230812.00,4737.5642912,N,12220.3071235,W,1,29,0.5,-0.2806,M,-17.3240,M,,*7F
$GPGGA,230813.00,4737.5642947,N,12220.3071209,W,1,29,0.5,-0.2688,M,-17.3240,M,,*79
$GPGGA,230814.00,4737.5642978,N,12220.3071229,W,1,29,0.5,-0.2604,M,-17.3240,M,,*74
$GPGGA,230815.00,4737.5643022,N,12220.3071212,W,1,29,0.5,-0.2506,M,-17.3240,M,,*7B
$GPGGA,230816.00,4737.5643062,N,12220.3071239,W,1,29,0.5,-0.2471,M,-17.3240,M,,*74
$GPGGA,230817.00,4737.5643091,N,12220.3071243,W,1,29,0.5,-0.2420,M,-17.3240,M,,*70
$GPGGA,230818.00,4737.5643139,N,12220.3071245,W,1,29,0.5,-0.2369,M,-17.3240,M,,*70
$GPGGA,230819.00,4737.5643175,N,12220.3071243,W,1,29,0.5,-0.2306,M,-17.3240,M,,*76
$GPGGA,230820.00,4737.5643199,N,12220.3071220,W,1,29,0.5,-0.2212,M,-17.3240,M,,*7F
$GPGGA,230821.00,4737.5643225,N,12220.3071195,W,1,29,0.5,-0.2117,M,-17.3240,M,,*71
$GPGGA,230822.00,4737.5643265,N,12220.3071175,W,1,29,0.5,-0.2012,M,-17.3240,M,,*7C
$GPGGA,230823.00,4737.5643275,N,12220.3071166,W,1,30,0.5,-0.1922,M,-17.3240,M,,*7F
$GPGGA,230824.00,4737.5643310,N,12220.3071176,W,1,31,0.5,-0.1850,M,-17.3240,M,,*7E
$GPGGA,230825.00,4737.5643362,N,12220.3071161,W,1,31,0.5,-0.1739,M,-17.3240,M,,*7C
$GPGGA,230826.00,4737.5643385,N,12220.3071163,W,1,31,0.5,-0.1691,M,-17.3240,M,,*77
$GPGGA,230827.00,4737.5643418,N,12220.3071151,W,1,31,0.5,-0.1588,M,-17.3240,M,,*7F
$GPGGA,230828.00,4737.5643447,N,12220.3071121,W,1,29,0.5,-0.1548,M,-17.3240,M,,*78
$GPGGA,230829.00,4737.5643484,N,12220.3071144,W,1,29,0.5,-0.1451,M,-17.3240,M,,*7C
$GPGGA,230830.00,4737.5643488,N,12220.3071142,W,1,30,0.5,-0.1408,M,-17.3240,M,,*7A
$GPGGA,230831.00,4737.5643515,N,12220.3071129,W,1,29,0.5,-0.1249,M,-17.3240,M,,*78
$GPGGA,230832.00,4737.5643546,N,12220.3071125,W,1,29,0.5,-0.1156,M,-17.3240,M,,*7C
$GPGGA,230833.00,4737.5643585,N,12220.3071100,W,1,29,0.5,-0.1037,M,-17.3240,M,,*73
$GPGGA,230834.00,4737.5643607,N,12220.3071093,W,1,29,0.5,-0.0933,M,-17.3240,M,,*7A
$GPGGA,230835.00,4737.5643635,N,12220.3071088,W,1,30,0.5,-0.0856,M,-17.3240,M,,*7A
$GPGGA,230836.00,4737.5643650,N,12220.3071070,W,1,29,0.5,-0.0780,M,-17.3240,M,,*71
$GPGGA,230837.00,4737.5643686,N,12220.3071063,W,1,29,0.5,-0.0742,M,-17.3240,M,,*77
$GPGGA,230838.00,4737.5643725,N,12220.3071060,W,1,30,0.5,-0.0671,M,-17.3240,M,,*7A
$GPGGA,230839.00,4737.5643757,N,12220.3071048,W,1,29,0.6,-0.0572,M,-17.3240,M,,*7F
$GPGGA,230840.00,4737.5643802,N,12220.3071031,W,1,30,0.5,-0.0558,M,-17.3240,M,,*73
$GPGGA,230841.00,4737.5643870,N,12220.3071005,W,1,31,0.5,-0.0594,M,-17.3240,M,,*71
$GPGGA,230842.00,4737.5643882,N,12220.3071014,W,1,30,0.5,-0.0434,M,-17.3240,M,,*75
$GPGGA,230843.00,4737.5643942,N,12220.3070357,W,1,28,0.5,-0.0390,M,-17.3240,M,,*7C
$GPGGA,230844.00,4737.5643978,N,12220.3069696,W,1,27,0.5,-0.0052,M,-17.3240,M,,*70
$GPGGA,230845.00,4737.5644195,N,12220.3068452,W,1,27,0.6,-0.0034,M,-17.3240,M,,*75
$GPGGA,230846.00,4737.5644234,N,12220.3066853,W,1,28,0.6,0.0143,M,-17.3240,M,,*5E
$GPGGA,230847.00,4737.5644020,N,12220.3065334,W,1,27,0.6,0.0371,M,-17.3240,M,,*5D
$GPGGA,230848.00,4737.5643919,N,12220.3064199,W,1,30,0.5,0.0501,M,-17.3240,M,,*56
$GPGGA,230849.00,4737.5643959,N,12220.3063363,W,1,30,0.5,0.0662,M,-17.3240,M,,*55
$GPGGA,230850.00,4737.5643984,N,12220.3062861,W,1,29,0.6,0.0838,M,-17.3240,M,,*5F
$GPGGA,230851.00,4737.5643948,N,12220.3062502,W,1,28,0.6,0.0918,M,-17.3240,M,,*54
$GPGGA,230852.00,4737.5643916,N,12220.3062278,W,1,28,0.6,0.1031,M,-17.3240,M,,*55
$GPGGA,230853.00,4737.5643943,N,12220.3062142,W,1,28,0.6,0.1172,M,-17.3240,M,,*58
$GPGGA,230854.00,4737.5643943,N,12220.3062067,W,1,29,0.6,0.1245,M,-17.3240,M,,*5F
$GPGGA,230855.00,4737.5643996,N,12220.3062085,W,1,29,0.6,0.1436,M,-17.3240,M,,*58
$GPGGA,230856.00,4737.5644107,N,12220.3062075,W,1,29,0.6,0.1627,M,-17.3240,M,,*51
$GPGGA,230857.00,4737.5644186,N,12220.3062090,W,1,27,0.6,0.1737,M,-17.3240,M,,*5C
$GPGGA,230858.00,4737.5644321,N,12220.3062141,W,1,26,0.6,0.1901,M,-17.3240,M,,*5B
$GPGGA,230859.00,4737.5644529,N,12220.3062322,W,1,28,0.6,0.1912,M,-17.3240,M,,*5F
$GPGGA,230900.00,4737.5644828,N,12220.3062568,W,1,28,0.6,0.2104,M,-17.3240,M,,*5A
$GPGGA,230901.00,4737.5644988,N,12220.3062705,W,1,29,0.6,0.2304,M,-17.3240,M,,*5A
$GPGGA,230902.00,4737.5644975,N,12220.3062808,W,1,29,0.6,0.2608,M,-17.3240,M,,*50
$GPGGA,230903.00,4737.5644981,N,12220.3062855,W,1,29,0.5,0.2973,M,-17.3240,M,,*52
$GPGGA,230904.00,4737.5645127,N,12220.3062744,W,1,28,0.6,0.3090,M,-17.3240,M,,*58
$GPGGA,230905.00,4737.5645192,N,12220.3062967,W,1,27,0.6,0.3348,M,-17.3240,M,,*51
$GPGGA,230906.00,4737.5645172,N,12220.3063170,W,1,29,0.6,0.3557,M,-17.3240,M,,*55
$GPGGA,230907.00,4737.5644942,N,12220.3063338,W,1,28,0.6,0.3751,M,-17.3240,M,,*55
$GPGGA,230908.00,4737.5644840,N,12220.3063274,W,1,29,0.6,0.4147,M,-17.3240,M,,*57
$GPGGA,230909.00,4737.5644900,N,12220.3063437,W,1,28,0.5,0.4352,M,-17.3240,M,,*56
$GPGGA,230910.00,4737.5644947,N,12220.3063672,W,1,27,0.6,0.4610,M,-17.3240,M,,*51
$GPGGA,230911.00,4737.5644921,N,12220.3063878,W,1,25,0.6,0.4774,M,-17.3240,M,,*55
$GPGGA,230912.00,4737.5644968,N,12220.3063984,W,1,27,0.6,0.4831,M,-17.3240,M,,*55
$GPGGA,230913.00,4737.5645110,N,12220.3064410,W,1,30,0.5,0.4855,M,-17.3240,M,,*52
$GPGGA,230914.00,4737.5645383,N,12220.3064901,W,1,29,0.6,0.4848,M,-17.3240,M,,*57
$GPGGA,230915.00,4737.5645501,N,12220.3065749,W,1,29,0.6,0.4941,M,-17.3240,M,,*51
$GPGGA,230916.00,4737.5645549,N,12220.3066324,W,1,28,0.6,0.4887,M,-17.3240,M,,*58
$GPGGA,230917.00,4737.5645611,N,12220.3066726,W,1,28,0.6,0.4833,M,-17.3240,M,,*5E
$GPGGA,230918.00,4737.5645611,N,12220.3066929,W,1,29,0.6,0.4819,M,-17.3240,M,,*59
$GPGGA,230919.00,4737.5645544,N,12220.3067091,W,1,29,0.6,0.4821,M,-17.3240,M,,*5B
$GPGGA,230920.00,4737.5645448,N,12220.3067148,W,1,29,0.6,0.4954,M,-17.3240,M,,*5A
$GPGGA,230921.00,4737.5645248,N,12220.3067285,W,1,29,0.6,0.5118,M,-17.3240,M,,*5E
$GPGGA,230922.00,4737.5644970,N,12220.3067397,W,1,30,0.5,0.5195,M,-17.3240,M,,*50
$GPGGA,230923.00,4737.5644712,N,12220.3067426,W,1,30,0.5,0.5285,M,-17.3240,M,,*54
$GPGGA,230924.00,4737.5644416,N,12220.3067358,W,1,30,0.5,0.5656,M,-17.3240,M,,*50
$GPGGA,230925.00,4737.5644366,N,12220.3067511,W,1,28,0.6,0.5642,M,-17.3240,M,,*55
$GPGGA,230926.00,4737.5644251,N,12220.3067565,W,1,29,0.6,0.5672,M,-17.3240,M,,*52
$GPGGA,230927.00,4737.5644102,N,12220.3067555,W,1,29,0.6,0.5964,M,-17.3240,M,,*5D
$GPGGA,230928.00,4737.5643974,N,12220.3067618,W,1,29,0.6,0.6023,M,-17.3240,M,,*5F
$GPGGA,230929.00,4737.5643846,N,12220.3067589,W,1,30,0.5,0.6244,M,-17.3240,M,,*5D
$GPGGA,230930.00,4737.5643798,N,12220.3067581,W,1,29,0.6,0.6304,M,-17.3240,M,,*5F
$GPGGA,230931.00,4737.5643699,N,12220.3067560,W,1,29,0.6,0.6483,M,-17.3240,M,,*59
$GPGGA,230932.00,4737.5643607,N,12220.3067511,W,1,29,0.6,0.6685,M,-17.3240,M,,*5F
$GPGGA,230933.00,4737.5643549,N,12220.3067454,W,1,29,0.6,0.6966,M,-17.3240,M,,*55
$GPGGA,230934.00,4737.5643510,N,12220.3067422,W,1,29,0.5,0.7211,M,-17.3240,M,,*56
$GPGGA,230935.00,4737.5643521,N,12220.3067383,W,1,29,0.5,0.7463,M,-17.3240,M,,*5A
$GPGGA,230936.00,4737.5643552,N,12220.3067423,W,1,29,0.5,0.7803,M,-17.3240,M,,*5A
$GPGGA,230937.00,4737.5643581,N,12220.3067457,W,1,29,0.5,0.8071,M,-17.3240,M,,*54
$GPGGA,230938.00,4737.5643621,N,12220.3067484,W,1,29,0.6,0.8375,M,-17.3240,M,,*58
$GPGGA,230939.00,4737.5643653,N,12220.3067494,W,1,28,0.6,0.8654,M,-17.3240,M,,*5A
$GPGGA,230940.00,4737.5643678,N,12220.3067468,W,1,28,0.6,0.9022,M,-17.3240,M,,*58
$GPGGA,230941.00,4737.5643734,N,12220.3067455,W,1,29,0.6,0.9418,M,-17.3240,M,,*52
$GPGGA,230942.00,4737.5643776,N,12220.3067489,W,1,29,0.6,0.9790,M,-17.3240,M,,*55
$GPGGA,230943.00,4737.5643781,N,12220.3067511,W,1,29,0.6,1.0147,M,-17.3240,M,,*58
$GPGGA,230944.00,4737.5643782,N,12220.3067516,W,1,29,0.6,1.0476,M,-17.3240,M,,*5C
$GPGGA,230945.00,4737.5643775,N,12220.3067543,W,1,31,0.5,1.0806,M,-17.3240,M,,*54
$GPGGA,230946.00,4737.5643728,N,12220.3067585,W,1,31,0.5,1.1120,M,-17.3240,M,,*59
$GPGGA,230947.00,4737.5643700,N,12220.3067614,W,1,31,0.5,1.1442,M,-17.3240,M,,*58
$GPGGA,230948.00,4737.5643664,N,12220.3067627,W,1,31,0.5,1.1678,M,-17.3240,M,,*5F
$GPGGA,230949.00,4737.5643649,N,12220.3067520,W,1,30,0.5,1.1917,M,-17.3240,M,,*52
$GPGGA,230950.00,4737.5643627,N,12220.3067413,W,1,29,0.5,1.2080,M,-17.3240,M,,*5F
$GPGGA,230951.00,4737.5643628,N,12220.3067295,W,1,29,0.5,1.2258,M,-17.3240,M,,*5E
$GPGGA,230952.00,4737.5643646,N,12220.3067176,W,1,30,0.5,1.2421,M,-17.3240,M,,*5B
$GPGGA,230953.00,4737.5643649,N,12220.3067112,W,1,30,0.5,1.2570,M,-17.3240,M,,*52
$GPGGA,230954.00,4737.5643661,N,12220.3067031,W,1,30,0.5,1.2776,M,-17.3240,M,,*5B
$GPGGA,230955.00,4737.5643660,N,12220.3066946,W,1,29,0.5,1.2834,M,-17.3240,M,,*52
$GPGGA,230956.00,4737.5643677,N,12220.3066895,W,1,29,0.5,1.3035,M,-17.3240,M,,*50
$GPGGA,230957.00,4737.5643701,N,12220.3066804,W,1,29,0.5,1.3160,M,-17.3240,M,,*58
$GPGGA,230958.00,4737.5643726,N,12220.3066754,W,1,30,0.5,1.3215,M,-17.3240,M,,*51
$GPGGA,230959.00,4737.5643785,N,12220.3066665,W,1,30,0.5,1.3272,M,-17.3240,M,,*5B
$GPGGA,231000.00,4737.5643823,N,12220.3066587,W,1,30,0.5,1.3322,M,-17.3240,M,,*57
$GPGGA,231001.00,4737.5643847,N,12220.3066508,W,1,30,0.5,1.3396,M,-17.3240,M,,*5C
$GPGGA,231002.00,4737.5643870,N,12220.3066463,W,1,30,0.5,1.3462,M,-17.3240,M,,*5B
$GPGGA,231003.00,4737.5643911,N,12220.3066370,W,1,29,0.5,1.3619,M,-17.3240,M,,*5F
$GPGGA,231004.00,4737.5643933,N,12220.3066322,W,1,30,0.5,1.3720,M,-17.3240,M,,*5C
$GPGGA,231005.00,4737.5643953,N,12220.3066344,W,1,31,0.5,1.3856,M,-17.3240,M,,*54
$GPGGA,231006.00,4737.5643987,N,12220.3066287,W,1,30,0.5,1.3891,M,-17.3240,M,,*5A
$GPGGA,231007.00,4737.5644067,N,12220.3066234,W,1,30,0.5,1.4003,M,-17.3240,M,,*57
$GPGGA,231008.00,4737.5644119,N,12220.3066177,W,1,30,0.5,1.4095,M,-17.3240,M,,*5B
$GPGGA,231009.00,4737.5644209,N,12220.3066106,W,1,30,0.5,1.4226,M,-17.3240,M,,*54
$GPGGA,231010.00,4737.5644287,N,12220.3066021,W,1,30,0.5,1.4327,M,-17.3240,M,,*5E
$GPGGA,231011.00,4737.5644387,N,12220.3065975,W,1,31,0.5,1.4476,M,-17.3240,M,,*57
$GPGGA,231012.00,4737.5644458,N,12220.3065983,W,1,31,0.5,1.4553,M,-17.3240,M,,*5E
$GPGGA,231013.00,4737.5644519,N,12220.3065934,W,1,31,0.5,1.4744,M,-17.3240,M,,*53
$GPGGA,231014.00,4737.5644580,N,12220.3065954,W,1,32,0.5,1.4807,M,-17.3240,M,,*59
$GPGGA,231015.00,4737.5644665,N,12220.3065913,W,1,31,0.5,1.4961,M,-17.3240,M,,*51
$GPGGA,231016.00,4737.5644700,N,12220.3065837,W,1,31,0.5,1.5066,M,-17.3240,M,,*58
$GPGGA,231017.00,4737.5644682,N,12220.3065810,W,1,31,0.5,1.5138,M,-17.3240,M,,*5D
$GPGGA,231018.00,4737.5644677,N,12220.3065755,W,1,31,0.5,1.5287,M,-17.3240,M,,*51
$GPGGA,231019.00,4737.5644678,N,12220.3065737,W,1,28,0.6,1.5434,M,-17.3240,M,,*5E
$GPGGA,231020.00,4737.5644641,N,12220.3065651,W,1,30,0.5,1.5503,M,-17.3240,M,,*50
$GPGGA,231021.00,4737.5644597,N,12220.3065626,W,1,30,0.5,1.5579,M,-17.3240,M,,*54
$GPGGA,231022.00,4737.5644590,N,12220.3065567,W,1,29,0.6,1.5647,M,-17.3240,M,,*53
$GPGGA,231023.00,4737.5644542,N,12220.3065506,W,1,31,0.5,1.5716,M,-17.3240,M,,*55
$GPGGA,231024.00,4737.5644520,N,12220.3065449,W,1,30,0.5,1.5796,M,-17.3240,M,,*55
$GPGGA,231025.00,4737.5644526,N,12220.3065409,W,1,30,0.5,1.5928,M,-17.3240,M,,*5D
$GPGGA,231026.00,4737.5644512,N,12220.3065391,W,1,30,0.5,1.5969,M,-17.3240,M,,*5A
$GPGGA,231027.00,4737.5644511,N,12220.3065399,W,1,30,0.5,1.5985,M,-17.3240,M,,*52
$GPGGA,231028.00,4737.5644468,N,12220.3065428,W,1,30,0.5,1.6084,M,-17.3240,M,,*54
$GPGGA,231029.00,4737.5644484,N,12220.3065379,W,1,27,0.6,1.6061,M,-17.3240,M,,*5A
$GPGGA,231030.00,4737.5644491,N,12220.3065352,W,1,27,0.6,1.6094,M,-17.3240,M,,*55
$GPGGA,231031.00,4737.5644482,N,12220.3065305,W,1,27,0.6,1.6101,M,-17.3240,M,,*59
$GPGGA,231032.00,4737.5644425,N,12220.3065287,W,1,27,0.6,1.6019,M,-17.3240,M,,*54
$GPGGA,231033.00,4737.5644438,N,12220.3065267,W,1,28,0.5,1.6115,M,-17.3240,M,,*56
$GPGGA,231034.00,4737.5644435,N,12220.3065256,W,1,28,0.5,1.6154,M,-17.3240,M,,*5B
$GPGGA,231035.00,4737.5644417,N,12220.3065217,W,1,28,0.5,1.6230,M,-17.3240,M,,*5E
$GPGGA,231036.00,4737.5644417,N,12220.3065153,W,1,27,0.6,1.6264,M,-17.3240,M,,*53
$GPGGA,231037.00,4737.5644402,N,12220.3065105,W,1,27,0.6,1.6373,M,-17.3240,M,,*52
$GPGGA,231038.00,4737.5644385,N,12220.3065052,W,1,27,0.6,1.6472,M,-17.3240,M,,*50
$GPGGA,231039.00,4737.5644370,N,12220.3064968,W,1,27,0.6,1.6526,M,-17.3240,M,,*5A
$GPGGA,231040.00,4737.5644344,N,12220.3064932,W,1,29,0.5,1.6589,M,-17.3240,M,,*54
$GPGGA,231041.00,4737.5644368,N,12220.3064876,W,1,28,0.6,1.6698,M,-17.3240,M,,*5B
$GPGGA,231042.00,4737.5644392,N,12220.3064826,W,1,28,0.6,1.6804,M,-17.3240,M,,*53
$GPGGA,231043.00,4737.5644395,N,12220.3064761,W,1,29,0.5,1.6867,M,-17.3240,M,,*5E
$GPGGA,231044.00,4737.5644425,N,12220.3064773,W,1,28,0.6,1.6983,M,-17.3240,M,,*5F
$GPGGA,231045.00,4737.5644554,N,12220.3064700,W,1,29,0.5,1.7172,M,-17.3240,M,,*58
$GPGGA,231046.00,4737.5644601,N,12220.3064693,W,1,27,0.6,1.7290,M,-17.3240,M,,*51
$GPGGA,231047.00,4737.5644616,N,12220.3064682,W,1,28,0.5,1.7376,M,-17.3240,M,,*53
$GPGGA,231048.00,4737.5644587,N,12220.3064674,W,1,28,0.5,1.7445,M,-17.3240,M,,*59
$GPGGA,231049.00,4737.5644578,N,12220.3064688,W,1,29,0.5,1.7528,M,-17.3240,M,,*50
$GPGGA,231050.00,4737.5644568,N,12220.3064648,W,1,28,0.6,1.7588,M,-17.3240,M,,*5D
$GPGGA,231051.00,4737.5644526,N,12220.3064615,W,1,28,0.6,1.7594,M,-17.3240,M,,*53
$GPGGA,231052.00,4737.5644496,N,12220.3064582,W,1,29,0.5,1.7675,M,-17.3240,M,,*59
$GPGGA,231053.00,4737.5644447,N,12220.3064553,W,1,28,0.5,1.7627,M,-17.3240,M,,*5E
$GPGGA,231054.00,4737.5644414,N,12220.3064541,W,1,28,0.5,1.7647,M,-17.3240,M,,*5A
$GPGGA,231055.00,4737.5644369,N,12220.3064505,W,1,29,0.5,1.7647,M,-17.3240,M,,*57
$GPGGA,231056.00,4737.5644373,N,12220.3064500,W,1,29,0.5,1.7642,M,-17.3240,M,,*5F
$GPGGA,231057.00,4737.5644345,N,12220.3064493,W,1,29,0.5,1.7606,M,-17.3240,M,,*50
$GPGGA,231058.00,4737.5644333,N,12220.3064492,W,1,29,0.5,1.7616,M,-17.3240,M,,*5E
$GPGGA,231059.00,4737.5644353,N,12220.3064466,W,1,30,0.5,1.7687,M,-17.3240,M,,*52
$GPGGA,231100.00,4737.5644389,N,12220.3064436,W,1,27,0.6,1.7602,M,-17.3240,M,,*55
$GPGGA,231101.00,4737.5644422,N,12220.3064504,W,1,29,0.5,1.7576,M,-17.3240,M,,*5F
$GPGGA,231102.00,4737.5644433,N,12220.3064498,W,1,30,0.5,1.7721,M,-17.3240,M,,*50
$GPGGA,231103.00,4737.5644435,N,12220.3064493,W,1,29,0.5,1.7742,M,-17.3240,M,,*51
$GPGGA,231104.00,4737.5644414,N,12220.3064503,W,1,29,0.5,1.7755,M,-17.3240,M,,*5B
$GPGGA,231105.00,4737.5644399,N,12220.3064516,W,1,29,0.5,1.7758,M,-17.3240,M,,*51
$GPGGA,231106.00,4737.5644375,N,12220.3064514,W,1,29,0.5,1.7831,M,-17.3240,M,,*52
$GPGGA,231107.00,4737.5644354,N,12220.3064517,W,1,29,0.5,1.7830,M,-17.3240,M,,*52
$GPGGA,231108.00,4737.5644310,N,12220.3064562,W,1,29,0.5,1.7787,M,-17.3240,M,,*5C
$GPGGA,231109.00,4737.5644267,N,12220.3064580,W,1,29,0.5,1.7731,M,-17.3240,M,,*5D
$GPGGA,231110.00,4737.5644226,N,12220.3064603,W,1,29,0.5,1.7751,M,-17.3240,M,,*5E
$GPGGA,231111.00,4737.5644201,N,12220.3064621,W,1,29,0.5,1.7726,M,-17.3240,M,,*5A
$GPGGA,231112.00,4737.5644194,N,12220.3064623,W,1,29,0.5,1.7752,M,-17.3240,M,,*57
$GPGGA,231113.00,4737.5644162,N,12220.3064631,W,1,29,0.5,1.7773,M,-17.3240,M,,*5F
$GPGGA,231114.00,4737.5644142,N,12220.3064641,W,1,29,0.5,1.7751,M,-17.3240,M,,*5D
$GPGGA,231115.00,4737.5644097,N,12220.3064672,W,1,27,0.5,1.7650,M,-17.3240,M,,*5B
$GPGGA,231116.00,4737.5644055,N,12220.3064652,W,1,29,0.5,1.7616,M,-17.3240,M,,*58
$GPGGA,231117.00,4737.5643993,N,12220.3064651,W,1,29,0.5,1.7609,M,-17.3240,M,,*50
$GPGGA,231118.00,4737.5643951,N,12220.3064773,W,1,30,0.5,1.7604,M,-17.3240,M,,*55
$GPGGA,231119.00,4737.5643915,N,12220.3064931,W,1,30,0.5,1.7584,M,-17.3240,M,,*57
$GPGGA,231120.00,4737.5643910,N,12220.3065065,W,1,30,0.5,1.7628,M,-17.3240,M,,*54
$GPGGA,231121.00,4737.5643845,N,12220.3065088,W,1,29,0.5,1.7577,M,-17.3240,M,,*56
$GPGGA,231122.00,4737.5643820,N,12220.3065112,W,1,29,0.5,1.7601,M,-17.3240,M,,*56
$GPGGA,231123.00,4737.5643756,N,12220.3065135,W,1,29,0.5,1.7525,M,-17.3240,M,,*59
$GPGGA,231124.00,4737.5643756,N,12220.3065218,W,1,31,0.5,1.7585,M,-17.3240,M,,*51
$GPGGA,231125.00,4737.5643716,N,12220.3065250,W,1,30,0.5,1.7562,M,-17.3240,M,,*50
$GPGGA,231126.00,4737.5643688,N,12220.3065331,W,1,30,0.5,1.7531,M,-17.3240,M,,*55
$GPGGA,231127.00,4737.5643674,N,12220.3065366,W,1,30,0.5,1.7489,M,-17.3240,M,,*57
$GPGGA,231128.00,4737.5643681,N,12220.3065473,W,1,31,0.5,1.7522,M,-17.3240,M,,*50
$GPGGA,231129.00,4737.5643658,N,12220.3065643,W,1,31,0.5,1.7531,M,-17.3240,M,,*56
$GPGGA,231130.00,4737.5643668,N,12220.3065780,W,1,31,0.5,1.7538,M,-17.3240,M,,*5A
$GPGGA,231131.00,4737.5643672,N,12220.3065933,W,1,30,0.5,1.7568,M,-17.3240,M,,*52
$GPGGA,231132.00,4737.5643698,N,12220.3066062,W,1,28,0.5,1.7713,M,-17.3240,M,,*5C
$GPGGA,231133.00,4737.5643667,N,12220.3066145,W,1,30,0.5,1.7553,M,-17.3240,M,,*56
$GPGGA,231134.00,4737.5643677,N,12220.3066235,W,1,30,0.5,1.7562,M,-17.3240,M,,*56
$GPGGA,231135.00,4737.5643676,N,12220.3066351,W,1,29,0.5,1.7611,M,-17.3240,M,,*5A
$GPGGA,231136.00,4737.5643695,N,12220.3066478,W,1,30,0.5,1.7576,M,-17.3240,M,,*52
$GPGGA,231137.00,4737.5643676,N,12220.3066504,W,1,29,0.5,1.7563,M,-17.3240,M,,*58
$GPGGA,231138.00,4737.5643660,N,12220.3066594,W,1,29,0.5,1.7550,M,-17.3240,M,,*59
$GPGGA,231139.00,4737.5643634,N,12220.3066694,W,1,30,0.5,1.7508,M,-17.3240,M,,*5F
$GPGGA,231140.00,4737.5643625,N,12220.3066821,W,1,29,0.5,1.7528,M,-17.3240,M,,*5B
$GPGGA,231141.00,4737.5643595,N,12220.3066830,W,1,28,0.5,1.7521,M,-17.3240,M,,*5A
$GPGGA,231142.00,4737.5643597,N,12220.3066889,W,1,29,0.5,1.7487,M,-17.3240,M,,*55
$GPGGA,231143.00,4737.5643566,N,12220.3066941,W,1,30,0.5,1.7512,M,-17.3240,M,,*5A
$GPGGA,231144.00,4737.5643579,N,12220.3067005,W,1,29,0.5,1.7598,M,-17.3240,M,,*51
$GPGGA,231145.00,4737.5643565,N,12220.3067004,W,1,30,0.5,1.7587,M,-17.3240,M,,*5A
$GPGGA,231146.00,4737.5643577,N,12220.3067069,W,1,30,0.5,1.7572,M,-17.3240,M,,*5B
$GPGGA,231147.00,4737.5643569,N,12220.3067138,W,1,30,0.5,1.7585,M,-17.3240,M,,*58
$GPGGA,231148.00,4737.5643564,N,12220.3067191,W,1,30,0.5,1.7582,M,-17.3240,M,,*5E
$GPGGA,231149.00,4737.5643576,N,12220.3067248,W,1,30,0.5,1.7551,M,-17.3240,M,,*55
$GPGGA,231150.00,4737.5643533,N,12220.3067176,W,1,29,0.5,1.7595,M,-17.3240,M,,*52
$GPGGA,231151.00,4737.5643537,N,12220.3067218,W,1,29,0.5,1.7551,M,-17.3240,M,,*54
$GPGGA,231152.00,4737.5643507,N,12220.3067243,W,1,30,0.5,1.7517,M,-17.3240,M,,*50
$GPGGA,231153.00,4737.5643493,N,12220.3067303,W,1,30,0.5,1.7466,M,-17.3240,M,,*5F
$GPGGA,231154.00,4737.5643478,N,12220.3067373,W,1,30,0.5,1.7362,M,-17.3240,M,,*59
$GPGGA,231155.00,4737.5643467,N,12220.3067352,W,1,29,0.5,1.7349,M,-17.3240,M,,*54
$GPGGA,231156.00,4737.5643452,N,12220.3067448,W,1,30,0.5,1.7268,M,-17.3240,M,,*57
$GPGGA,231157.00,4737.5643449,N,12220.3067537,W,1,31,0.5,1.7220,M,-17.3240,M,,*58
$GPGGA,231158.00,4737.5643446,N,12220.3067617,W,1,30,0.5,1.7268,M,-17.3240,M,,*54
$GPGGA,231159.00,4737.5643448,N,12220.3067666,W,1,29,0.5,1.7273,M,-17.3240,M,,*5F
$GPGGA,231200.00,4737.5643458,N,12220.3067740,W,1,31,0.5,1.7313,M,-17.3240,M,,*5A
$GPGGA,231201.00,4737.5643451,N,12220.3067793,W,1,31,0.5,1.7300,M,-17.3240,M,,*5E
$GPGGA,231202.00,4737.5643483,N,12220.3067862,W,1,30,0.5,1.7407,M,-17.3240,M,,*52
$GPGGA,231203.00,4737.5643481,N,12220.3067890,W,1,31,0.5,1.7376,M,-17.3240,M,,*5C
$GPGGA,231204.00,4737.5643504,N,12220.3067928,W,1,31,0.5,1.7388,M,-17.3240,M,,*54
$GPGGA,231205.00,4737.5643528,N,12220.3067962,W,1,30,0.5,1.7367,M,-17.3240,M,,*55
$GPGGA,231206.00,4737.5643570,N,12220.3067978,W,1,30,0.5,1.7406,M,-17.3240,M,,*50
$GPGGA,231207.00,4737.5643591,N,12220.3067981,W,1,29,0.5,1.7509,M,-17.3240,M,,*5E
$GPGGA,231208.00,4737.5643605,N,12220.3067981,W,1,30,0.5,1.7518,M,-17.3240,M,,*57
$GPGGA,231209.00,4737.5643596,N,12220.3067963,W,1,29,0.5,1.7489,M,-17.3240,M,,*52
$GPGGA,231210.00,4737.5643591,N,12220.3067969,W,1,29,0.5,1.7468,M,-17.3240,M,,*58
$GPGGA,231211.00,4737.5643593,N,12220.3067971,W,1,29,0.5,1.7396,M,-17.3240,M,,*54
$GPGGA,231212.00,4737.5643578,N,12220.3067989,W,1,29,0.5,1.7393,M,-17.3240,M,,*50
$GPGGA,231213.00,4737.5643554,N,12220.3068000,W,1,29,0.5,1.7387,M,-17.3240,M,,*5D
$GPGGA,231214.00,4737.5643476,N,12220.3068129,W,1,29,0.5,1.7395,M,-17.3240,M,,*52
$GPGGA,231215.00,4737.5643509,N,12220.3068521,W,1,30,0.5,1.7435,M,-17.3240,M,,*53
$GPGGA,231216.00,4737.5643477,N,12220.3068940,W,1,30,0.5,1.7445,M,-17.3240,M,,*54
$GPGGA,231217.00,4737.5643406,N,12220.3069373,W,1,30,0.5,1.7416,M,-17.3240,M,,*5E
$GPGGA,231218.00,4737.5643309,N,12220.3069808,W,1,30,0.5,1.7391,M,-17.3240,M,,*56
$GPGGA,231219.00,4737.5643157,N,12220.3069793,W,1,29,0.5,1.7350,M,-17.3240,M,,*56
$GPGGA,231220.00,4737.5643018,N,12220.3069755,W,1,29,0.5,1.7387,M,-17.3240,M,,*56
$GPGGA,231221.00,4737.5642852,N,12220.3069680,W,1,29,0.5,1.7350,M,-17.3240,M,,*53
$GPGGA,231222.00,4737.5642735,N,12220.3069587,W,1,29,0.5,1.7406,M,-17.3240,M,,*5E
$GPGGA,231223.00,4737.5642665,N,12220.3069520,W,1,29,0.5,1.7359,M,-17.3240,M,,*5B
$GPGGA,231224.00,4737.5642674,N,12220.3069418,W,1,29,0.5,1.7397,M,-17.3240,M,,*54
$GPGGA,231225.00,4737.5642674,N,12220.3069375,W,1,29,0.5,1.7365,M,-17.3240,M,,*54
$GPGGA,231226.00,4737.5642701,N,12220.3069408,W,1,29,0.5,1.7355,M,-17.3240,M,,*5A
$GPGGA,231227.00,4737.5642690,N,12220.3069484,W,1,29,0.5,1.7331,M,-17.3240,M,,*54
$GPGGA,231228.00,4737.5642691,N,12220.3069596,W,1,29,0.5,1.7310,M,-17.3240,M,,*5B
$GPGGA,231229.00,4737.5642663,N,12220.3069696,W,1,29,0.5,1.7304,M,-17.3240,M,,*51
$GPGGA,231230.00,4737.5642655,N,12220.3069785,W,1,29,0.5,1.7311,M,-17.3240,M,,*5B
$GPGGA,231231.00,4737.5642633,N,12220.3069766,W,1,29,0.5,1.7376,M,-17.3240,M,,*56
$GPGGA,231232.00,4737.5642618,N,12220.3069847,W,1,29,0.5,1.7409,M,-17.3240,M,,*5F
$GPGGA,231233.00,4737.5642575,N,12220.3069899,W,1,29,0.5,1.7501,M,-17.3240,M,,*5C
$GPGGA,231234.00,4737.5642621,N,12220.3069919,W,1,28,0.5,1.7434,M,-17.3240,M,,*56
$GPGGA,231235.00,4737.5642601,N,12220.3069945,W,1,29,0.5,1.7319,M,-17.3240,M,,*55
$GPGGA,231236.00,4737.5642432,N,12220.3070159,W,1,28,0.5,1.7142,M,-17.3240,M,,*54
$GPGGA,231237.00,4737.5642368,N,12220.3069951,W,1,29,0.5,1.6956,M,-17.3240,M,,*58
$GPGGA,231238.00,4737.5642125,N,12220.3069705,W,1,29,0.5,1.6979,M,-17.3240,M,,*5E
$GPGGA,231239.00,4737.5641846,N,12220.3069418,W,1,29,0.5,1.6912,M,-17.3240,M,,*52
$GPGGA,231240.00,4737.5641629,N,12220.3069233,W,1,30,0.5,1.6828,M,-17.3240,M,,*54
$GPGGA,231241.00,4737.5641517,N,12220.3069195,W,1,30,0.5,1.6713,M,-17.3240,M,,*53
$GPGGA,231242.00,4737.5641356,N,12220.3069072,W,1,29,0.5,1.6656,M,-17.3240,M,,*53
$GPGGA,231243.00,4737.5641371,N,12220.3069297,W,1,31,0.5,1.6597,M,-17.3240,M,,*59
$GPGGA,231244.00,4737.5641417,N,12220.3069725,W,1,31,0.5,1.6524,M,-17.3240,M,,*5D
$GPGGA,231245.00,4737.5641607,N,12220.3069615,W,1,30,0.5,1.6570,M,-17.3240,M,,*5D
$GPGGA,231246.00,4737.5642001,N,12220.3069442,W,1,30,0.5,1.6312,M,-17.3240,M,,*5F
$GPGGA,231247.00,4737.5642339,N,12220.3069333,W,1,30,0.5,1.6349,M,-17.3240,M,,*59
$GPGGA,231248.00,4737.5642598,N,12220.3069179,W,1,30,0.5,1.6307,M,-17.3240,M,,*5D
$GPGGA,231249.00,4737.5642746,N,12220.3068918,W,1,30,0.5,1.6344,M,-17.3240,M,,*54
$GPGGA,231250.00,4737.5642798,N,12220.3068699,W,1,30,0.5,1.6306,M,-17.3240,M,,*5F
$GPGGA,231251.00,4737.5642755,N,12220.3068595,W,1,29,0.5,1.6365,M,-17.3240,M,,*5D
$GPGGA,231252.00,4737.5642692,N,12220.3068625,W,1,29,0.5,1.6330,M,-17.3240,M,,*5C
$GPGGA,231253.00,4737.5642561,N,12220.3068637,W,1,29,0.5,1.6372,M,-17.3240,M,,*57
$GPGGA,231254.00,4737.5642440,N,12220.3068689,W,1,27,0.6,1.6259,M,-17.3240,M,,*52
$GPGGA,231255.00,4737.5642341,N,12220.3068655,W,1,27,0.5,1.6063,M,-17.3240,M,,*5C
$GPGGA,231256.00,4737.5642243,N,12220.3069084,W,1,29,0.5,1.5995,M,-17.3240,M,,*5A
$GPGGA,231257.00,4737.5642148,N,12220.3069395,W,1,29,0.5,1.5981,M,-17.3240,M,,*55
$GPGGA,231258.00,4737.5642043,N,12220.3069656,W,1,29,0.5,1.5832,M,-17.3240,M,,*53
$GPGGA,231259.00,4737.5641934,N,12220.3069873,W,1,29,0.5,1.5708,M,-17.3240,M,,*57
$GPGGA,231300.00,4737.5641904,N,12220.3069853,W,1,29,0.5,1.5628,M,-17.3240,M,,*58
$GPGGA,231301.00,4737.5641875,N,12220.3069739,W,1,28,0.5,1.5515,M,-17.3240,M,,*51
$GPGGA,231302.00,4737.5641769,N,12220.3069702,W,1,28,0.5,1.5337,M,-17.3240,M,,*5E
$GPGGA,231303.00,4737.5641797,N,12220.3070022,W,1,30,0.5,1.5308,M,-17.3240,M,,*56
$GPGGA,231304.00,4737.5641729,N,12220.3070154,W,1,29,0.5,1.5322,M,-17.3240,M,,*54
$GPGGA,231305.00,4737.5641719,N,12220.3070038,W,1,27,0.5,1.5333,M,-17.3240,M,,*53
$GPGGA,231306.00,4737.5641705,N,12220.3069979,W,1,27,0.6,1.5260,M,-17.3240,M,,*5D
$GPGGA,231307.00,4737.5641736,N,12220.3069882,W,1,29,0.5,1.5203,M,-17.3240,M,,*51
$GPGGA,231308.00,4737.5641760,N,12220.3069718,W,1,31,0.5,1.5065,M,-17.3240,M,,*5A
$GPGGA,231309.00,4737.5641818,N,12220.3069540,W,1,29,0.5,1.4985,M,-17.3240,M,,*5B
$GPGGA,231310.00,4737.5641864,N,12220.3069441,W,1,29,0.5,1.5138,M,-17.3240,M,,*57
$GPGGA,231311.00,4737.5641901,N,12220.3069277,W,1,30,0.5,1.5054,M,-17.3240,M,,*54
$GPGGA,231312.00,4737.5641954,N,12220.3069098,W,1,29,0.5,1.5127,M,-17.3240,M,,*59
$GPGGA,231313.00,4737.5641956,N,12220.3068969,W,1,29,0.5,1.5222,M,-17.3240,M,,*5A
$GPGGA,231314.00,4737.5641973,N,12220.3068821,W,1,29,0.5,1.5243,M,-17.3240,M,,*50
$GPGGA,231315.00,4737.5641981,N,12220.3068683,W,1,29,0.5,1.5231,M,-17.3240,M,,*5F
$GPGGA,231316.00,4737.5641968,N,12220.3068551,W,1,29,0.5,1.5165,M,-17.3240,M,,*55
$GPGGA,231317.00,4737.5641965,N,12220.3068444,W,1,29,0.5,1.5175,M,-17.3240,M,,*5D
$GPGGA,231318.00,4737.5641980,N,12220.3068336,W,1,29,0.5,1.5113,M,-17.3240,M,,*5B
$GPGGA,231319.00,4737.5642014,N,12220.3068213,W,1,29,0.5,1.5164,M,-17.3240,M,,*5B
$GPGGA,231320.00,4737.5642002,N,12220.3068112,W,1,30,0.5,1.5071,M,-17.3240,M,,*59
$GPGGA,231321.00,4737.5642023,N,12220.3068023,W,1,30,0.5,1.5133,M,-17.3240,M,,*5F
$GPGGA,231322.00,4737.5642014,N,12220.3068015,W,1,30,0.5,1.5075,M,-17.3240,M,,*5E
$GPGGA,231323.00,4737.5642017,N,12220.3067999,W,1,30,0.5,1.5079,M,-17.3240,M,,*52
$GPGGA,231324.00,4737.5642058,N,12220.3068007,W,1,28,0.6,1.5153,M,-17.3240,M,,*5C
$GPGGA,231325.00,4737.5642080,N,12220.3067992,W,1,28,0.6,1.5081,M,-17.3240,M,,*5C
$GPGGA,231326.00,4737.5642101,N,12220.3067981,W,1,28,0.6,1.5110,M,-17.3240,M,,*5C
$GPGGA,231327.00,4737.5642081,N,12220.3067971,W,1,28,0.6,1.5068,M,-17.3240,M,,*55
$GPGGA,231328.00,4737.5642089,N,12220.3068007,W,1,28,0.6,1.5013,M,-17.3240,M,,*59
$GPGGA,231329.00,4737.5642095,N,12220.3068004,W,1,29,0.5,1.5042,M,-17.3240,M,,*50
$GPGGA,231330.00,4737.5642076,N,12220.3067994,W,1,29,0.5,1.5023,M,-17.3240,M,,*5D
$GPGGA,231331.00,4737.5642085,N,12220.3068005,W,1,29,0.5,1.4967,M,-17.3240,M,,*56
$GPGGA,231332.00,4737.5642055,N,12220.3068018,W,1,28,0.5,1.4988,M,-17.3240,M,,*54
$GPGGA,231333.00,4737.5642047,N,12220.3067973,W,1,29,0.5,1.4905,M,-17.3240,M,,*59
$GPGGA,231334.00,4737.5642077,N,12220.3067943,W,1,30,0.5,1.4899,M,-17.3240,M,,*52
$GPGGA,231335.00,4737.5642074,N,12220.3067878,W,1,30,0.5,1.4945,M,-17.3240,M,,*59
$GPGGA,231336.00,4737.5642073,N,12220.3067845,W,1,31,0.5,1.4940,M,-17.3240,M,,*57
$GPGGA,231337.00,4737.5642095,N,12220.3067785,W,1,30,0.5,1.4953,M,-17.3240,M,,*5E
$GPGGA,231338.00,4737.5642114,N,12220.3067751,W,1,30,0.5,1.4949,M,-17.3240,M,,*5B
$GPGGA,231339.00,4737.5642136,N,12220.3067774,W,1,29,0.5,1.4995,M,-17.3240,M,,*54
$GPGGA,231340.00,4737.5642150,N,12220.3067783,W,1,28,0.6,1.4974,M,-17.3240,M,,*5F
$GPGGA,231341.00,4737.5642165,N,12220.3067766,W,1,29,0.5,1.5027,M,-17.3240,M,,*5F
$GPGGA,231342.00,4737.5642219,N,12220.3067772,W,1,28,0.5,1.5088,M,-17.3240,M,,*55
$GPGGA,231343.00,4737.5642230,N,12220.3067781,W,1,29,0.5,1.5166,M,-17.3240,M,,*53
$GPGGA,231344.00,4737.5642172,N,12220.3067834,W,1,31,0.5,1.5084,M,-17.3240,M,,*54
$GPGGA,231345.00,4737.5642123,N,12220.3067867,W,1,30,0.5,1.5007,M,-17.3240,M,,*5D
$GPGGA,231346.00,4737.5642065,N,12220.3067852,W,1,30,0.5,1.5009,M,-17.3240,M,,*55
$GPGGA,231347.00,4737.5641990,N,12220.3067819,W,1,30,0.5,1.4953,M,-17.3240,M,,*5C
$GPGGA,231348.00,4737.5641984,N,12220.3067768,W,1,31,0.5,1.4933,M,-17.3240,M,,*58
$GPGGA,231349.00,4737.5641960,N,12220.3067776,W,1,29,0.5,1.5000,M,-17.3240,M,,*5D
$GPGGA,231350.00,4737.5641956,N,12220.3067657,W,1,28,0.5,1.4876,M,-17.3240,M,,*5B
$GPGGA,231351.00,4737.5641951,N,12220.3067587,W,1,29,0.5,1.4871,M,-17.3240,M,,*55
$GPGGA,231352.00,4737.5641919,N,12220.3067483,W,1,29,0.5,1.5048,M,-17.3240,M,,*5C
$GPGGA,231353.00,4737.5641967,N,12220.3067408,W,1,30,0.5,1.5044,M,-17.3240,M,,*53
$GPGGA,231354.00,4737.5641984,N,12220.3067344,W,1,30,0.5,1.5071,M,-17.3240,M,,*50
$GPGGA,231355.00,4737.5642027,N,12220.3067292,W,1,30,0.5,1.5091,M,-17.3240,M,,*56
$GPGGA,231356.00,4737.5642084,N,12220.3067257,W,1,29,0.5,1.5191,M,-17.3240,M,,*5C
$GPGGA,231357.00,4737.5642090,N,12220.3067233,W,1,30,0.5,1.5213,M,-17.3240,M,,*5B
$GPGGA,231358.00,4737.5642097,N,12220.3067221,W,1,30,0.5,1.5241,M,-17.3240,M,,*57
$GPGGA,231359.00,4737.5642065,N,12220.3067260,W,1,31,0.5,1.5169,M,-17.3240,M,,*56
$GPGGA,231400.00,4737.5642056,N,12220.3067269,W,1,31,0.5,1.5170,M,-17.3240,M,,*5C
$GPGGA,231401.00,4737.5642019,N,12220.3067290,W,1,31,0.5,1.5140,M,-17.3240,M,,*53
$GPGGA,231402.00,4737.5641977,N,12220.3067305,W,1,31,0.5,1.5021,M,-17.3240,M,,*59
$GPGGA,231403.00,4737.5641999,N,12220.3067274,W,1,30,0.5,1.5034,M,-17.3240,M,,*5A
$GPGGA,231404.00,4737.5641989,N,12220.3067274,W,1,30,0.5,1.5013,M,-17.3240,M,,*59
$GPGGA,231405.00,4737.5641959,N,12220.3067284,W,1,31,0.5,1.4996,M,-17.3240,M,,*5E
$GPGGA,231406.00,4737.5641949,N,12220.3067254,W,1,30,0.5,1.4971,M,-17.3240,M,,*59
$GPGGA,231407.00,4737.5641948,N,12220.3067254,W,1,28,0.6,1.4938,M,-17.3240,M,,*5E
$GPGGA,231408.00,4737.5641986,N,12220.3067226,W,1,29,0.5,1.4913,M,-17.3240,M,,*5D
$GPGGA,231409.00,4737.5642015,N,12220.3067217,W,1,30,0.5,1.4908,M,-17.3240,M,,*5C
$GPGGA,231410.00,4737.5642033,N,12220.3067181,W,1,29,0.5,1.4896,M,-17.3240,M,,*52
$GPGGA,231411.00,4737.5642089,N,12220.3067168,W,1,28,0.6,1.4951,M,-17.3240,M,,*5D
$GPGGA,231412.00,4737.5642115,N,12220.3067167,W,1,29,0.5,1.4937,M,-17.3240,M,,*57
$GPGGA,231413.00,4737.5642142,N,12220.3067156,W,1,29,0.5,1.5054,M,-17.3240,M,,*5B
$GPGGA,231414.00,4737.5642177,N,12220.3067218,W,1,29,0.5,1.5058,M,-17.3240,M,,*5F
$GPGGA,231415.00,4737.5642204,N,12220.3067185,W,1,29,0.5,1.5061,M,-17.3240,M,,*54
$GPGGA,231416.00,4737.5642225,N,12220.3067220,W,1,29,0.5,1.5081,M,-17.3240,M,,*56
$GPGGA,231417.00,4737.5642256,N,12220.3067258,W,1,28,0.5,1.5054,M,-17.3240,M,,*55
$GPGGA,231418.00,4737.5642274,N,12220.3067296,W,1,28,0.5,1.5013,M,-17.3240,M,,*5B
$GPGGA,231419.00,4737.5642330,N,12220.3067316,W,1,27,0.6,1.5011,M,-17.3240,M,,*5C
$GPGGA,231420.00,4737.5642314,N,12220.3067292,W,1,28,0.6,1.4992,M,-17.3240,M,,*51
$GPGGA,231421.00,4737.5642338,N,12220.3067317,W,1,28,0.6,1.4935,M,-17.3240,M,,*5F
$GPGGA,231422.00,4737.5642339,N,12220.3067318,W,1,28,0.5,1.4893,M,-17.3240,M,,*5C
$GPGGA,231423.00,4737.5642346,N,12220.3067354,W,1,28,0.5,1.4887,M,-17.3240,M,,*58
$GPGGA,231424.00,4737.5642334,N,12220.3067220,W,1,28,0.5,1.4889,M,-17.3240,M,,*56
$GPGGA,231425.00,4737.5642315,N,12220.3067123,W,1,26,0.6,1.4834,M,-17.3240,M,,*5F
$GPGGA,231426.00,4737.5642283,N,12220.3066982,W,1,25,0.6,1.4779,M,-17.3240,M,,*55
$GPGGA,231427.00,4737.5642315,N,12220.3066928,W,1,30,0.5,1.4799,M,-17.3240,M,,*53
$GPGGA,231428.00,4737.5642359,N,12220.3066831,W,1,27,0.6,1.4834,M,-17.3240,M,,*50
$GPGGA,231429.00,4737.5642320,N,12220.3066873,W,1,28,0.5,1.4838,M,-17.3240,M,,*59
$GPGGA,231430.00,4737.5642385,N,12220.3066904,W,1,27,0.6,1.4678,M,-17.3240,M,,*59
$GPGGA,231431.00,4737.5642492,N,12220.3067111,W,1,27,0.5,1.4683,M,-17.3240,M,,*53
$GPGGA,231432.00,4737.5642646,N,12220.3067398,W,1,29,0.5,1.4821,M,-17.3240,M,,*50
$GPGGA,231433.00,4737.5642781,N,12220.3067908,W,1,29,0.5,1.4612,M,-17.3240,M,,*56
$GPGGA,231434.00,4737.5643102,N,12220.3068534,W,1,30,0.5,1.4455,M,-17.3240,M,,*58
$GPGGA,231435.00,4737.5643455,N,12220.3069019,W,1,30,0.5,1.4263,M,-17.3240,M,,*56
$GPGGA,231436.00,4737.5643895,N,12220.3069314,W,1,29,0.5,1.4103,M,-17.3240,M,,*56
$GPGGA,231437.00,4737.5644336,N,12220.3069468,W,1,29,0.5,1.3913,M,-17.3240,M,,*50
$GPGGA,231438.00,4737.5644673,N,12220.3069484,W,1,30,0.5,1.3766,M,-17.3240,M,,*5D
$GPGGA,231439.00,4737.5644907,N,12220.3069546,W,1,30,0.5,1.3593,M,-17.3240,M,,*57
$GPGGA,231440.00,4737.5645061,N,12220.3069532,W,1,30,0.5,1.3471,M,-17.3240,M,,*5F
$GPGGA,231441.00,4737.5645080,N,12220.3069538,W,1,31,0.5,1.3491,M,-17.3240,M,,*54
$GPGGA,231442.00,4737.5645056,N,12220.3069288,W,1,31,0.5,1.3493,M,-17.3240,M,,*52
$GPGGA,231443.00,4737.5644969,N,12220.3069351,W,1,31,0.5,1.3562,M,-17.3240,M,,*5D
$GPGGA,231444.00,4737.5644925,N,12220.3069341,W,1,31,0.5,1.3638,M,-17.3240,M,,*5F
$GPGGA,231445.00,4737.5644884,N,12220.3069289,W,1,31,0.5,1.3758,M,-17.3240,M,,*56
$GPGGA,231446.00,4737.5644841,N,12220.3069144,W,1,28,0.6,1.3774,M,-17.3240,M,,*5B
$GPGGA,231447.00,4737.5644794,N,12220.3068957,W,1,30,0.5,1.3844,M,-17.3240,M,,*50
$GPGGA,231448.00,4737.5644796,N,12220.3068836,W,1,30,0.5,1.4014,M,-17.3240,M,,*51
$GPGGA,231449.00,4737.5644738,N,12220.3068718,W,1,29,0.5,1.4073,M,-17.3240,M,,*5E
$GPGGA,231450.00,4737.5644666,N,12220.3068592,W,1,29,0.5,1.4171,M,-17.3240,M,,*5F
$GPGGA,231451.00,4737.5644593,N,12220.3068465,W,1,28,0.6,1.4246,M,-17.3240,M,,*5B
$GPGGA,231452.00,4737.5644476,N,12220.3068366,W,1,28,0.6,1.4199,M,-17.3240,M,,*57
$GPGGA,231453.00,4737.5644448,N,12220.3068332,W,1,27,0.6,1.4229,M,-17.3240,M,,*5D
$GPGGA,231454.00,4737.5644534,N,12220.3068449,W,1,27,0.6,1.4250,M,-17.3240,M,,*55
$GPGGA,231455.00,4737.5644660,N,12220.3068406,W,1,28,0.5,1.4300,M,-17.3240,M,,*55
$GPGGA,231456.00,4737.5644742,N,12220.3068415,W,1,28,0.5,1.4297,M,-17.3240,M,,*5A
$GPGGA,231457.00,4737.5644779,N,12220.3068411,W,1,28,0.5,1.4151,M,-17.3240,M,,*5E
$GPGGA,231458.00,4737.5644837,N,12220.3068385,W,1,28,0.5,1.4187,M,-17.3240,M,,*55
$GPGGA,231459.00,4737.5644869,N,12220.3068349,W,1,29,0.5,1.4166,M,-17.3240,M,,*51
$GPGGA,231500.00,4737.5644955,N,12220.3068273,W,1,28,0.5,1.4321,M,-17.3240,M,,*5A
$GPGGA,231501.00,4737.5644996,N,12220.3068330,W,1,28,0.5,1.4386,M,-17.3240,M,,*5F
$GPGGA,231502.00,4737.5644993,N,12220.3068302,W,1,28,0.5,1.4370,M,-17.3240,M,,*51
$GPGGA,231503.00,4737.5645036,N,12220.3068076,W,1,30,0.5,1.4340,M,-17.3240,M,,*5D
$GPGGA,231504.00,4737.5645087,N,12220.3067896,W,1,30,0.5,1.4205,M,-17.3240,M,,*59
$GPGGA,231505.00,4737.5645101,N,12220.3067805,W,1,31,0.5,1.4166,M,-17.3240,M,,*5A
$GPGGA,231506.00,4737.5645111,N,12220.3067774,W,1,29,0.5,1.3995,M,-17.3240,M,,*5B
$GPGGA,231507.00,4737.5645103,N,12220.3067755,W,1,28,0.5,1.3928,M,-17.3240,M,,*5D
$GPGGA,231508.00,4737.5645104,N,12220.3067754,W,1,28,0.5,1.3981,M,-17.3240,M,,*57
$GPGGA,231509.00,4737.5645115,N,12220.3067784,W,1,27,0.5,1.3918,M,-17.3240,M,,*54
$GPGGA,231510.00,4737.5645129,N,12220.3067763,W,1,29,0.5,1.3921,M,-17.3240,M,,*5E
$GPGGA,231511.00,4737.5645176,N,12220.3067740,W,1,27,0.5,1.3934,M,-17.3240,M,,*5E
$GPGGA,231512.00,4737.5645239,N,12220.3067719,W,1,29,0.5,1.3948,M,-17.3240,M,,*5C
$GPGGA,231513.00,4737.5645287,N,12220.3067701,W,1,29,0.5,1.3982,M,-17.3240,M,,*57
$GPGGA,231514.00,4737.5645323,N,12220.3067715,W,1,29,0.5,1.3939,M,-17.3240,M,,*5A
$GPGGA,231515.00,4737.5645339,N,12220.3067741,W,1,29,0.5,1.4056,M,-17.3240,M,,*56
$GPGGA,231516.00,4737.5645359,N,12220.3067730,W,1,29,0.5,1.4113,M,-17.3240,M,,*55
$GPGGA,231517.00,4737.5645376,N,12220.3067711,W,1,29,0.5,1.4213,M,-17.3240,M,,*59
$GPGGA,231518.00,4737.5645331,N,12220.3067727,W,1,30,0.5,1.4315,M,-17.3240,M,,*5F
$GPGGA,231519.00,4737.5645304,N,12220.3067741,W,1,29,0.5,1.4414,M,-17.3240,M,,*56
$GPGGA,231520.00,4737.5645321,N,12220.3067757,W,1,29,0.5,1.4412,M,-17.3240,M,,*5A
$GPGGA,231521.00,4737.5645338,N,12220.3067761,W,1,29,0.5,1.4535,M,-17.3240,M,,*52
$GPGGA,231522.00,4737.5645339,N,12220.3067821,W,1,29,0.5,1.4634,M,-17.3240,M,,*59
$GPGGA,231523.00,4737.5645402,N,12220.3067860,W,1,29,0.5,1.4700,M,-17.3240,M,,*54
$GPGGA,231524.00,4737.5645469,N,12220.3067901,W,1,29,0.5,1.4796,M,-17.3240,M,,*57
$GPGGA,231525.00,4737.5645513,N,12220.3067884,W,1,30,0.5,1.4858,M,-17.3240,M,,*53
$GPGGA,231526.00,4737.5645576,N,12220.3067904,W,1,31,0.5,1.4873,M,-17.3240,M,,*52
$GPGGA,231527.00,4737.5645646,N,12220.3067921,W,1,31,0.5,1.4896,M,-17.3240,M,,*5F
$GPGGA,231528.00,4737.5645710,N,12220.3067930,W,1,29,0.5,1.4931,M,-17.3240,M,,*57
$GPGGA,231529.00,4737.5645733,N,12220.3067968,W,1,28,0.5,1.4880,M,-17.3240,M,,*50
$GPGGA,231530.00,4737.5645757,N,12220.3067992,W,1,30,0.5,1.4892,M,-17.3240,M,,*55
$GPGGA,231531.00,4737.5645791,N,12220.3068013,W,1,28,0.5,1.4852,M,-17.3240,M,,*54
$GPGGA,231532.00,4737.5645782,N,12220.3068049,W,1,27,0.6,1.4831,M,-17.3240,M,,*53
$GPGGA,231533.00,4737.5645787,N,12220.3068147,W,1,27,0.6,1.4763,M,-17.3240,M,,*50
$GPGGA,231534.00,4737.5645808,N,12220.3068199,W,1,29,0.5,1.4730,M,-17.3240,M,,*57
$GPGGA,231535.00,4737.5645793,N,12220.3068239,W,1,29,0.5,1.4701,M,-17.3240,M,,*50
$GPGGA,231536.00,4737.5645824,N,12220.3068300,W,1,27,0.6,1.4741,M,-17.3240,M,,*52
$GPGGA,231537.00,4737.5645846,N,12220.3068335,W,1,30,0.5,1.4812,M,-17.3240,M,,*5D
$GPGGA,231538.00,4737.5645851,N,12220.3068378,W,1,28,0.6,1.4825,M,-17.3240,M,,*53
$GPGGA,231539.00,4737.5645867,N,12220.3068435,W,1,28,0.6,1.4728,M,-17.3240,M,,*5B
$GPGGA,231540.00,4737.5645872,N,12220.3068460,W,1,29,0.5,1.4724,M,-17.3240,M,,*5F
$GPGGA,231541.00,4737.5645873,N,12220.3068454,W,1,29,0.5,1.4704,M,-17.3240,M,,*5A
$GPGGA,231542.00,4737.5645834,N,12220.3068473,W,1,27,0.6,1.4684,M,-17.3240,M,,*5B
$GPGGA,231543.00,4737.5645826,N,12220.3068478,W,1,27,0.6,1.4697,M,-17.3240,M,,*50
$GPGGA,231544.00,4737.5645790,N,12220.3068531,W,1,27,0.6,1.4628,M,-17.3240,M,,*5D
$GPGGA,231545.00,4737.5645781,N,12220.3068494,W,1,28,0.5,1.4577,M,-17.3240,M,,*57
$GPGGA,231546.00,4737.5645794,N,12220.3068510,W,1,27,0.6,1.4610,M,-17.3240,M,,*53
$GPGGA,231547.00,4737.5645817,N,12220.3068510,W,1,26,0.6,1.4595,M,-17.3240,M,,*59
$GPGGA,231548.00,4737.5645847,N,12220.3068491,W,1,25,0.6,1.4592,M,-17.3240,M,,*5F
$GPGGA,231549.00,4737.5645884,N,12220.3068483,W,1,29,0.5,1.4672,M,-17.3240,M,,*50
$GPGGA,231550.00,4737.5645899,N,12220.3068458,W,1,26,0.6,1.4635,M,-17.3240,M,,*5D
$GPGGA,231551.00,4737.5645908,N,12220.3068408,W,1,26,0.6,1.4633,M,-17.3240,M,,*56
$GPGGA,231552.00,4737.5645911,N,12220.3068449,W,1,26,0.7,1.4443,M,-17.3240,M,,*5C
$GPGGA,231553.00,4737.5645884,N,12220.3068443,W,1,27,0.6,1.4567,M,-17.3240,M,,*5D
$GPGGA,231554.00,4737.5645880,N,12220.3068417,W,1,25,0.6,1.4555,M,-17.3240,M,,*5C
$GPGGA,231555.00,4737.5645887,N,12220.3068421,W,1,27,0.5,1.4531,M,-17.3240,M,,*5C
$GPGGA,231556.00,4737.5645910,N,12220.3068422,W,1,26,0.6,1.4485,M,-17.3240,M,,*5F
$GPGGA,231557.00,4737.5645936,N,12220.3068407,W,1,25,0.6,1.4528,M,-17.3240,M,,*58
$GPGGA,231558.00,4737.5645982,N,12220.3068426,W,1,26,0.6,1.4542,M,-17.3240,M,,*54
$GPGGA,231559.00,4737.5645968,N,12220.3068375,W,1,25,0.6,1.4483,M,-17.3240,M,,*5F
$GPGGA,231600.00,4737.5645989,N,12220.3068420,W,1,26,0.6,1.4446,M,-17.3240,M,,*52
$GPGGA,231601.00,4737.5646045,N,12220.3068398,W,1,25,0.6,1.4412,M,-17.3240,M,,*5F
$GPGGA,231602.00,4737.5646069,N,12220.3068405,W,1,25,0.6,1.4391,M,-17.3240,M,,*5D
$GPGGA,231603.00,4737.5646119,N,12220.3068420,W,1,26,0.6,1.4479,M,-17.3240,M,,*5F
$GPGGA,231604.00,4737.5646112,N,12220.3068456,W,1,25,0.6,1.4403,M,-17.3240,M,,*5C
$GPGGA,231605.00,4737.5646173,N,12220.3068461,W,1,24,0.7,1.4502,M,-17.3240,M,,*5E
$GPGGA,231606.00,4737.5646143,N,12220.3068550,W,1,27,0.6,1.4325,M,-17.3240,M,,*5C
$GPGGA,231607.00,4737.5646122,N,12220.3068552,W,1,27,0.6,1.4244,M,-17.3240,M,,*5E
$GPGGA,231608.00,4737.5646138,N,12220.3068559,W,1,26,0.6,1.4204,M,-17.3240,M,,*54
$GPGGA,231609.00,4737.5646167,N,12220.3068549,W,1,25,0.7,1.4192,M,-17.3240,M,,*50
$GPGGA,231610.00,4737.5646200,N,12220.3068550,W,1,25,0.7,1.4213,M,-17.3240,M,,*58
$GPGGA,231611.00,4737.5646263,N,12220.3068510,W,1,25,0.7,1.4219,M,-17.3240,M,,*52
$GPGGA,231612.00,4737.5646320,N,12220.3068515,W,1,25,0.7,1.4127,M,-17.3240,M,,*5C
$GPGGA,231613.00,4737.5646347,N,12220.3068487,W,1,26,0.6,1.4070,M,-17.3240,M,,*57
$GPGGA,231614.00,4737.5646407,N,12220.3068468,W,1,25,0.7,1.4017,M,-17.3240,M,,*51
$GPGGA,231615.00,4737.5646446,N,12220.3068475,W,1,26,0.6,1.3929,M,-17.3240,M,,*58
$GPGGA,231616.00,4737.5646472,N,12220.3068358,W,1,26,0.6,1.3974,M,-17.3240,M,,*5C
$GPGGA,231617.00,4737.5646503,N,12220.3068369,W,1,25,0.6,1.3705,M,-17.3240,M,,*53
$GPGGA,231618.00,4737.5646541,N,12220.3068503,W,1,27,0.6,1.3632,M,-17.3240,M,,*57
$GPGGA,231619.00,4737.5646757,N,12220.3068491,W,1,27,0.6,1.3752,M,-17.3240,M,,*5E
$GPGGA,231620.00,4737.5647136,N,12220.3068304,W,1,26,0.6,1.3663,M,-17.3240,M,,*5D
